name,address,city,state,zip_code,country,region,email,website,status
Newbury Comics,293 Daniel Webster Highway,Nashua,NH,03061,USA,Northeast,customerservice@newburycomics.com,https://www.newburycomics.com,Open
Double Midnight Comics,245 Maple St,Manchester,NH,03103,USA,Northeast,info@dmcomics.com,https://www.dmcomics.com,Open
Hammer's Comics,1711 S Willow St,Manchester,NH,03103,USA,Northeast,,,Unknown
Neon Bomb,260 Mammoth Road,Manchester,NH,03103,USA,Northeast,jeff@neonbomb.com,https://www.neonbomb.com,Open
Newbury Comics,777 South Willow Plaza,Manchester,NH,03103,USA,Northeast,customerservice@newburycomics.com,https://www.newburycomics.com,Open
Neo Tokyo Anime & Comics,168 Amherst Street,Manchester,NH,03104,USA,Northeast,,,Closed
Jetpack Comics,37 North Main St,Rochester,NH,03867,USA,Northeast,jetpackcomics@gmail.com,https://jetpackcomics.com,Open
Toys From the Attic,2 Somersworth Plaza,Somersworth,NH,03878,USA,Northeast,,https://www.facebook.com/toysfromtheattic,Open
Chris's Cards & Comics,341 S. Broadway,Salem,NH,03079,USA,Northeast,chriscomicssalem@comcast.net,https://chriscardscomics.com,Open
Newbury Comics,"435 South Broadway, Route 28",Salem,NH,03079,USA,Northeast,customerservice@newburycomics.com,https://www.newburycomics.com,Open
Comic Store,300 Main St,Nashua,NH,03060,USA,Northeast,,,Open
Stairway to Heaven Comics,121 Water Street,Exeter,NH,03833,USA,Northeast,stairwaytoheavencomics@gmail.com,https://stairwaytoheavencomics.com,Moved
Toy Soldier Games and Comics,113B Main St,Amesbury,MA,01913,USA,Northeast,ToySoldierMick@gmail.com,https://toy-soldier-games.myshopify.com,Open
Comic Boom,22 West St,Keene,NH,03431,USA,Northeast,comicboom@gmail.com,https://comicboomnh.wordpress.com,Open
Charlie's Comics Cards and Gam,Rt 16 Timberland Outlet Center 1675 White Mountain Highway,North Conway,NH,03860,USA,Northeast,,,Closed
Chris's Cards & Comics,919 Lafayette Rd,Seabrook,NH,03784,USA,Northeast,chriscomicssalem@comcast.net,https://chriscardscomics.com,Open
Newbury Comics,200 South Main Street,West Lebanon,NH,03784,USA,Northeast,customerservice@newburycomics.com,https://www.newburycomics.com,Open
That's Entertainment,56 John Fitch Hwy,Fitchburg,MA,01420,USA,Northeast,,https://thatse.com,Open
Comically Speaking,575 Main St,Reading,MA,01867,USA,Northeast,,https://www.comicallyspeaking.com,Open
Time Out For Comics,78 Main Street,Kennebunk,ME,04043,USA,Northeast,,,Closed
Newbury Comics,112 Burlington Mall Rd.,Burlington,MA,01803,USA,Northeast,customerservice@newburycomics.com,https://www.newburycomics.com,Open
Batter-Up Cards & Comics,1830 Main St Ste 200,Tewksbury,MA,01876,USA,Northeast,,https://www.batterupsportscards.net,Open
Bedrock Comics,371 Worcester Rd,Framingham,MA,01701,USA,Northeast,bedrockcx@aol.com,http://www.bedrock-comics.com,Open
Command D,172 Merrimack Ave.,Dracut,MA,01826,USA,Northeast,commandd@commandd.com,https://www.commandd.com,Open
"Larry's Comics, Inc.",66 Lakeview Ave.,Lowell,MA,01850,USA,Northeast,,https://larryscomics.net,Open
Legends Comix & Games,23 Stevens St,Littleton,MA,01460,USA,Northeast,motor@legendscomix.com,https://www.legendscomix.com,Moved
Newbury Comics,601 Donald Lynch Boulevard,Marlborough,MA,01752,USA,Northeast,customerservice@newburycomics.com,https://www.newburycomics.com,Open
Newbury Comics,"1298B Worcester Road Sherwood Plaza, Rte 9",Natick,MA,01760,USA,Northeast,customerservice@newburycomics.com,https://www.newburycomics.com,Open
Newbury Comics,31 Sack Blvd.,Leominster,MA,01453,USA,Northeast,customerservice@newburycomics.com,https://www.newburycomics.com,Open
Newbury Comics,"240 Andover Street, Route 114",Peabody,MA,01960,USA,Northeast,customerservice@newburycomics.com,https://www.newburycomics.com,Open
Webhead Enterprises,239 North Ave,wakefield,MA,01880,USA,Northeast,,,Not Verified
Harrison's Comics & Collectibl,252 Essex St,Salem,MA,01970,USA,Northeast,,,Not Verified
Newbury Comics,"180 Main Street, Route 1",Saugus,MA,01906,USA,Northeast,,,Not Verified
Magic Dragon Comics,307 Broadway,Arlington,MA,02474,USA,Northeast,,,Not Verified
Harrison's Comics & Collectibl,"Meadowglen Mall, 3850 Mystic Valley Parkway",Medford,MA,02155,USA,Northeast,,,Not Verified
Comicazi,"407 Highland Ave, Davis Square",Somerville,MA,02144,USA,Northeast,,,Not Verified
Comicazi,1305 Massachusetts Ave,Arlington,MA,02476,USA,Northeast,,,Not Verified
The Outer Limits,437 Moody St,Waltham,MA,02453,USA,Northeast,,,Not Verified
Newbury Comics,130 Needham Street,Newton,MA,02464,USA,Northeast,,,Not Verified
million year picnic,99 Mt. Auburn St,Cambridge,MA,02138,USA,Northeast,,,Not Verified
"New England Comics, Cambridge",14A Eliot St,Cambridge,MA,02138,USA,Northeast,,,Not Verified
Newbury Comics,36 JFK Street,Cambridge,MA,02138,USA,Northeast,,,Not Verified
Newbury Comics,211 Alewife Brook Parkway,Cambridge,MA,02138,USA,Northeast,,,Not Verified
Hub Comics,19 Bow Street,Somerville,MA,02143,USA,Northeast,,,Not Verified
New England Comics,131 Harvard Ave,Allston,MA,02134,USA,Northeast,,,Not Verified
Newbury Comics,1 Washington Mall,Boston,MA,02108,USA,Northeast,,,Not Verified
The Hall of Comics,3 Turnpike Road,Southborough,MA,01772,USA,Northeast,,,Not Verified
"New England Comics, Brookline",316 Harvard St,Brookline,MA,02446,USA,Northeast,,,Not Verified
Comicopia,464 Commonwealth Ave # 13,Boston,MA,02215,USA,Northeast,,,Not Verified
Weekend Anime,492 Main Street,Westbrook,ME,04092,USA,Northeast,,,Not Verified
Weekend Anime,855 Main Street,Westbrook,ME,04092,USA,Northeast,,,Not Verified
Newbury Comics Inc,332 Newbury St,Boston,MA,02115,USA,Northeast,,,Not Verified
Newbury Comics,"551 Boston Turnpike, Route 9",Shrewsbury,MA,01545,USA,Northeast,,,Not Verified
that's entertainment,244 Park Ave,worcester,MA,01609,USA,Northeast,,,Not Verified
Newbury Comics,220 Maine Mall Rd.,South Portland,ME,04106,USA,Northeast,,,Not Verified
Music Quest,446 Grafton St,Worcester,MA,01604,USA,Northeast,,,Not Verified
Fabulous Fiction Book Store,"984 Main St,",Worcester,MA,01603,USA,Northeast,,,Not Verified
Casablanca Comics,151 Middle Street,Portland,ME,04101,USA,Northeast,,,Not Verified
Coast City Comics Inc,656 Congress Street,Portland,ME,04101,USA,Northeast,,,Not Verified
New England Comics,1511 Hancock St,Quincy,MA,02169,USA,Northeast,,,Not Verified
Casablanca Comics,778 Roosevelt Trail,Windham,ME,04062,USA,Northeast,,,Not Verified
Newbury Comics,400 Franklin St.,Braintree,MA,02184,USA,Northeast,,,Not Verified
Newbury Comics,50 Main Street,Amherst,MA,01002,USA,Northeast,,,Not Verified
J&R Cards,42 Cushing Street,Brunswick,ME,04011,USA,Northeast,,,Not Verified
Friendly Neighborhood Comics,191 Mechanic Street,Bellingham,MA,02019,USA,Northeast,,,Not Verified
Newbury Comics,1 Harrison Blvd.,Avon,MA,02322,USA,Northeast,,,Not Verified
Modern Myths Comics & Games,34 Bridge St. Suite 4,Northampton,MA,01060,USA,Northeast,,,Not Verified
Wonder Cards & Comics,445 Route 302,Barre,VT,05641,USA,Northeast,,,Not Verified
Newbury Comics,"40 Cumberland Ave, Route 1",North Attleboro,MA,02760,USA,Northeast,,,Not Verified
Bob's Hobbies & Collectibles,659 Dickinson St,Springfield,MA,01108,USA,Northeast,,,Not Verified
Game Box Video Games & Comics,"49 Topsham Fair Mall Road, Suite 5",Topsham,ME,04086,USA,Northeast,,,Not Verified
Newbury Comics,101 Independence Mall Way,Kingston,MA,02364,USA,Northeast,,,Not Verified
Newbury Comics,74 Providence Place,Providence,RI,02903,USA,Northeast,,,Not Verified
Time Capsule?Address:,537 Pontiac Ave,Cranston,RI,02910,USA,Northeast,,,Not Verified
Matt's Sports Cards & Comics,169 Elm St,Enfield,CT,06082,USA,Northeast,,,Not Verified
MOST EXCELLENT COMICS,483 ENFIELD STREET,ENFIELD,CT,06082,USA,Northeast,,,Not Verified
Coopers Cave Games And Paintba,"1607 Rt. 9 South Glens Falls, NY 12803",Glens Falls,NY,12803,USA,Northeast,,,Not Verified
Newbury Comics,1500 Bald Hill Rd.,Warwick,RI,02886,USA,Northeast,,,Not Verified
Aquilonia,412 Fulton St,Troy,NY,12180,USA,Northeast,,,Not Verified
A Hero's Legacy Comics,188 Middle Tpke W,Manchester,CT,06040,USA,Northeast,,,Not Verified
Newbury Comics,194 Buckland Hills Drive,Manchester,CT,06040,USA,Northeast,,,Not Verified
Newbury Comics,331 State Rd.,N. Dartmouth,MA,02747,USA,Northeast,,,Not Verified
Whaling City Collectibles,33 Center Street,Fairhaven,MA,02719,USA,Northeast,,,Not Verified
Comics and Collectibles,50 Main St,East Hartford,CT,06118,USA,Northeast,,,Not Verified
Cosmic Capes Comics,9 Hampstead Pl Suite 101,Saratoga Springs,NY,12866,USA,Northeast,,,Not Verified
Spa City Comics,47 Phila St # 1,Saratoga Springs,NY,12866,USA,Northeast,,,Not Verified
Amazing World of Comics,19 Church Street,Burlington,VT,05401,USA,Northeast,,,Not Verified
The Comic Depot,2538 Route 9N,Greenfield Center,NY,12833,USA,Northeast,,,Not Verified
Excellent Adventures Comics,110 Milton Ave.,Ballston Spa,NY,12020,USA,Northeast,,,Not Verified
Newbury Comics,"1070 Iyanough Road, Route 132",Hyannis,MA,02601,USA,Northeast,,,Not Verified
Earthworld,537 Central Ave,Albany,NY,12206,USA,Northeast,,,Not Verified
Zombie Planet,1238 Central Avenue,Albany,NY,12205,USA,Northeast,,,Not Verified
Arkham Asylum?,680 Boswell Ave,Norwich,CT,06360,USA,Northeast,,,Not Verified
The Eye Opener,15 Center Ct,Newington,CT,06111,USA,Northeast,,,Not Verified
Heroes & Hitters?,1839 Silas Deane Hwy,Rocky Hill,CT,06067,USA,Northeast,,,Not Verified
AJ's Comics?,44 Main St,Colchester,CT,06415,USA,Northeast,,,Not Verified
Electric City Comics,1704 Van Vranken Ave.,Schenectady,NY,12308,USA,Northeast,,,Not Verified
Fables Comics & Collectibles,5 N Main St,Southington,CT,06489,USA,Northeast,,,Not Verified
Richie's Comic Cabana,96 Store Ave,Waterbury,CT,06705,USA,Northeast,,,Not Verified
Legends of Superheros,"1655 Straits Tpke, Ste 4",Middlebury,CT,06762,USA,Northeast,,,Not Verified
Alternate Universe Comics,398 Bridgeport Ave,Milford,CT,06460,USA,Northeast,,,Not Verified
Alternate Universe,1181 Chapel Street,New Haven,CT,06511,USA,Northeast,,,Not Verified
Alterniverse?,2517 Rte 44,Salt Point,NY,12578,USA,Northeast,,,Not Verified
Cave Comics,57 Church Hill Rd.,Newtown,CT,06470,USA,Northeast,,,Not Verified
October Country Comics,246 Main Street,New Paltz,NY,12561,USA,Northeast,,,Not Verified
Atomic Comics,451 Glen Drive,Shirley,NY,11967,USA,Northeast,,,Not Verified
Golden Memories,235 Middle Country Road,Selden,NY,11784,USA,Northeast,,,Not Verified
Heroes Comics & Cards?,197 Westport Ave,Norwalk,CT,06851,USA,Northeast,,,Not Verified
Comix-Plus,125 E Main St,Mt Kisco,NY,10549,USA,Northeast,,,Not Verified
A Timeless Journey,2538 Summer Street,Stamford,CT,06901,USA,Northeast,,,Not Verified
Top Shelf Comics,25 Central Street,Bangor,ME,04401,USA,Northeast,,,Not Verified
Tor Comics,997 Waverly Ave,Holtsville,NY,11742,USA,Northeast,,,Not Verified
Fourth World Comics,33 Route 111,Smithtown,NY,11787,USA,Northeast,,,Not Verified
Androids Amazing Comics,61 Railroad Avenue,Sayville,NY,11782,USA,Northeast,,,Not Verified
Ravenswood Comics,8451 Seneca Turnpike,New Hartford,NY,13413,USA,Northeast,,,Not Verified
Main Street Comics,157 Dolson Avenue,Middletown,NY,10940,USA,Northeast,,,Not Verified
Phoenix Comics Cards & Games,4 Grayrock Rd,Scarsdale,NY,10583,USA,Northeast,,,Not Verified
Comics Warehouse,426 Nanuet Mall S,Nanuet,NY,10954,USA,Northeast,,,Not Verified
Long Island Comics,276 Little East Neck Rd.,West Babylon,NY,11704,USA,Northeast,,,Not Verified
Bailey's Comics of Lindenhurst,282 North Wellwood Ave,Lindenhurst,NY,11757,USA,Northeast,,,Not Verified
Amok Time,108 New South Road,Hicksville,NY,11756,USA,Northeast,,,Not Verified
Grasshoppers Comics,76 Hillside Ave,Williston Park,NY,11596,USA,Northeast,,,Not Verified
Phoenix Comic & Collectibles,107-5 Stewart Ave.,Hicksville,NY,11801,USA,Northeast,,,Not Verified
Magnum Comics & Cards,3723 Riverdale Ave,Bronx,NY,10463,USA,Northeast,,,Not Verified
The Comic Depot inc.,2847 Jerusalem Ave,Wantagh,NY,11793,USA,Northeast,,,Not Verified
Best Comics & Collectibles,1300 Jericho Turnpike,New Hyde Park,NY,11040,USA,Northeast,,,Not Verified
The Joker's Child,12-23 River Rd,Fair Lawn,NJ,07410,USA,Northeast,,,Not Verified
Gotham City Comics Inc?,796 Lenox Ave,New York,NY,10039,USA,Northeast,,,Not Verified
McRae's Li'l Comic Shop,505 Pennsylvania Ave.,Matamoras,PA,18336,USA,Northeast,,,Not Verified
Mark's Comics and Collectibles,291 N. Central Ave.,Valley Stream,NY,11580,USA,Northeast,,,Not Verified
Silver Age Comics,22-55 31st Street,Astoria,NY,11105,USA,Northeast,,,Not Verified
Cosmic Comics & Books Inc,246 Merrick Rd,Oceanside,NY,11572,USA,Northeast,,,Not Verified
Royal Comics nyc,96-01 Metropolitan Avenue  Forest Hills NY 11375,New york city,NY,11375,USA,Northeast,,,Not Verified
Zapp! Comics,574 Valley Road,Wayne,NJ,07470,USA,Northeast,,,Not Verified
Galaxy Comics & Cards,4503 47th Ave,Woodside,NY,11377,USA,Northeast,,,Not Verified
Comic Den?,8062 Lefferts Blvd,Jamaica,NY,11415,USA,Northeast,,,Not Verified
Time Warp Inc.,1164 Broadway,Hewlett,NY,11557,USA,Northeast,,,Not Verified
Comic Book Heaven,4814 Skillman Ave,Sunnyside,NY,11104,USA,Northeast,,,Not Verified
A & S Comics & Cards,7113 Bergenline Ave,North Bergen,NJ,07047,USA,Northeast,,,Not Verified
Midtown Comics - Grand Central,459 Lexington Ave.,New York,NY,10017,USA,Northeast,,,Not Verified
Midtown Comics,200 W 40th St # 2,New York,NY,10018,USA,Northeast,,,Not Verified
New Moon Comics,463 Main St.,Little Falls,NJ,07424,USA,Northeast,,,Not Verified
Jim Hanley's Universe?,4 W 33rd St,New York,NY,10001,USA,Northeast,,,Not Verified
Cosmic Comics?,10 E 23rd St,New York,NY,10010,USA,Northeast,,,Not Verified
Mysterious Island,418 6th Ave,New York,NY,10011,USA,Northeast,,,Not Verified
Silver Age Comics,47 W. 8th Street,New York,NY,10011,USA,Northeast,,,Not Verified
Forbidden Planet?,840 Broadway,New York,NY,10003,USA,Northeast,,,Not Verified
Metropolis Collectibles,873 Broadway # 201,New York,NY,10003,USA,Northeast,,,Not Verified
St. Mark's Comics,11 St. Mark's Place,New York,NY,10003,USA,Northeast,,,Not Verified
Comic Explosion,86 Centre St.,Nutley,NJ,07110,USA,Northeast,,,Not Verified
TimeWarp Comics,555 Pompton Ave,Cedar Grove,NJ,07009,USA,Northeast,,,Not Verified
Moon Shadow Cards & Comics,3379 John F Kennedy Blvd,Jersey City,NJ,07307,USA,Northeast,,,Not Verified
Paradox Comics,269 Ridge Rd,North Arlington,NJ,07031,USA,Northeast,,,Not Verified
Chameleon Comics?,3 Maiden Ln # 1,New York,NY,10038,USA,Northeast,,,Not Verified
Midtown Comics,64 Fulton St.,Manhattan,NY,10038,USA,Northeast,,,Not Verified
The Comic Book Market,28 Washington St.,Bloomfield,NJ,07003,USA,Northeast,,,Not Verified
Comiclink,189 Montague St # 915,Brooklyn,NY,11201,USA,Northeast,,,Not Verified
Rocketship,208 Smith Street,Brooklyn,NY,11201,USA,Northeast,,,Not Verified
St. Mark's Comics,148 Montague Street,Brooklyn,NY,11201,USA,Northeast,,,Not Verified
FunnyBooks,98 N. Beverwyck Rd,Lake Hiawatha,NJ,07034,USA,Northeast,,,Not Verified
Bulletproof Comics Inc,2178 Nostrand Ave,Brooklyn,NY,11210,USA,Northeast,,,Not Verified
Bayonne Comic Center,1061 Avenue C,Bayonne,NJ,07002,USA,Northeast,,,Not Verified
Vector Books,902 Broadway,Bayonne,NJ,07002,USA,Northeast,,,Not Verified
Commuter Comics?,50 W South Orange Ave,South Orange,NJ,07079,USA,Northeast,,,Not Verified
Pyramid Comics and Cards,24 Main Street,Sparta,NJ,07871,USA,Northeast,,,Not Verified
Fat Moose Comics and Games,831 State Route 10,Whippany,NJ,07981,USA,Northeast,,,Not Verified
Hypno-Tronic Comics,156 Stuyvesant Pl.,Staten Island,NY,10301,USA,Northeast,,,Not Verified
Comic Book Jones,"Harbor Plaza, 2220 Forest Ave.",Staten Island,NY,10303,USA,Northeast,,,Not Verified
Dewey's Comic City,13 Park Avenue,Madison,NJ,07940,USA,Northeast,,,Not Verified
Wild Pig Comics II?,14 S Michigan Ave,Kenilworth,NJ,07033,USA,Northeast,,,Not Verified
Jim Hanley's Universe,325 New Dorp Lane,Staten Island,NY,10306,USA,Northeast,,,Not Verified
Krypton Comics,611 Midland Avenue,Staten Island,NY,10306,USA,Northeast,,,Not Verified
Rogue Comics & Collectibles,102 N Union Ave,Cranford,NJ,07016,USA,Northeast,,,Not Verified
Classic Comics,6 St. Georges Ave.,Rahway,NJ,07065,USA,Northeast,,,Not Verified
A Little Shop of Comics,356 Park Ave.,Scotch Plains,NJ,07076,USA,Northeast,,,Not Verified
Sanctuary Comics,750 Bradley St.,Watertown,NY,13601,USA,Northeast,,,Not Verified
Play The Game Read The Story,9808 Carousel Center,Syracuse,NY,13290,USA,Northeast,,,Not Verified
Comic Caf√©,41 Mountain Blvd,Warren,NJ,07059,USA,Northeast,,,Not Verified
Jay and Silent Bob's Secret Stash,35 Broad St,Red Bank,NJ,07701,USA,Northeast,,,Not Verified
Amazing Stories,55 White Road,Shrewsbury,NJ,07702,USA,Northeast,,,Not Verified
The Fallout Shelter,27 Bayard St,New Brunswick,NJ,08901,USA,Northeast,,,Not Verified
MC Comics,22 Old Matawan Rd # D,Old Bridge,NJ,08857,USA,Northeast,,,Not Verified
Comic & Hobby Connection,3 W. Olive St.,Scranton,PA,18508,USA,Northeast,,,Not Verified
Comic Fortress,34 E Main St.,Somerville,NJ,08876,USA,Northeast,,,Not Verified
Unknown Comic & Games,721 Mulberry St.,Scranton,PA,18510,USA,Northeast,,,Not Verified
Comics on the Green,307 N. Washington Ave,Scranton,PA,18503,USA,Northeast,,,Not Verified
The Record Store,6299 US Highway 9,Howell,NJ,07731,USA,Northeast,,,Not Verified
The Encounter,580 Main St.,Stroudsburg,PA,18360,USA,Northeast,,,Not Verified
Zapp! Comics,700 Tennent Rd # 5,Manalapan,NJ,07726,USA,Northeast,,,Not Verified
Zapp! Comics,700 Tennent Road,Manalapan,NJ,07726,USA,Northeast,,,Not Verified
Clockwork Comics & Games,212 South Main St.,Newark,NY,14513,USA,Northeast,,,Not Verified
Comics Etc,274 N Goodman Street,Rochester,NY,14607,USA,Northeast,,,Not Verified
Comic Book Heaven,938 St. Paul St,Rochester,NY,14605,USA,Northeast,,,Not Verified
All Heroes Comics,4410 Lake Ave,Rochester,NY,14612,USA,Northeast,,,Not Verified
Empire Comics,1176 Mount Hope Avenue,Rochester,NY,14620,USA,Northeast,,,Not Verified
Empire Comics,375 Stone Road,Rochester,NY,14616,USA,Northeast,,,Not Verified
Fatman Comics and Games,218 S. Main st,Athens,PA,18810,USA,Northeast,,,Not Verified
Heroes Your Mom Threw Out,128 west 14th St.,Elmira,NY,14903,USA,Northeast,,,Not Verified
Comic Relief,4110 Quakerbridge Road,Lawrenceville,NJ,08648,USA,Northeast,,,Not Verified
Wade's Comic Madness,8760 New Falls Rd,Levittown,PA,19054,USA,Northeast,,,Not Verified
Steve's Comic Relief,4153 Woerner Ave.,Levittown,PA,19057,USA,Northeast,,,Not Verified
Comic Collection & Records Too,931 Bustleton Pike,Feasterville,PA,19053,USA,Northeast,,,Not Verified
Bagged and Boarded,2337 Street Rd,Bensalem,PA,19020,USA,Northeast,,,Not Verified
Cyborg One,44 Rear East State St.,Doylestown,PA,18901,USA,Northeast,,,Not Verified
Brave New Worlds,212 N. Easton Rd.,Willow Grove,PA,19090,USA,Northeast,,,Not Verified
Abington Game and Hobby Center,1560 Easton Rd.,Abington,PA,19001,USA,Northeast,,,Not Verified
Comics and More,804 Bethlehem Pike (King of Prussia Mall),North Wales,PA,19454,USA,Northeast,,,Not Verified
Comic Archive,319 West Main st. Suite 8,Lansdale,PA,19446,USA,Northeast,,,Not Verified
BlueBell Comics & Collectibles,1715 Forest Creek Drive,Blue Bell,PA,19422,USA,Northeast,,,Not Verified
Fat Jack's Comicrypt,2006 Sansom St.,Philadelphia,PA,19103,USA,Northeast,,,Not Verified
Brave New Worlds,45 N. Second St,Philadelphia,PA,19106,USA,Northeast,,,Not Verified
Out of Time Comics,1410 Chestnut St. #4,Philadelphia,PA,19102,USA,Northeast,,,Not Verified
Adventureland,2120 Voorhees Town Center,Voorhees,NJ,08043,USA,Northeast,,,Not Verified
Atomic City Comics,640 South St.,Philadelphia,PA,19147,USA,Northeast,,,Not Verified
The Marvelous,208 S. 40th St.,Philadelphia,PA,19104,USA,Northeast,,,Not Verified
Close Encounters Comics,"1861 Hooper Ave., Toms River, NJ 08753",Toms River,NJ,08753,USA,Northeast,,,Not Verified
Steve's Comic Relief,1231 Route 166 # 7,Toms River,NJ,08753,USA,Northeast,,,Not Verified
Comics and More,"500 W. Germantown Pike, Ste. 2015",Plymouth Meeting,PA,19462,USA,Northeast,,,Not Verified
Blue Line Collectibles,1740 Ritner St.,Philadelphia,PA,19145,USA,Northeast,,,Not Verified
Comics and More,160 N. Gulph Rd. (King of Prussia Mall),King of Prussia,PA,19406,USA,Northeast,,,Not Verified
The Complete Strategist,580 Shoemaker Rd.,King of Prussia,PA,19406,USA,Northeast,,,Not Verified
New Wave Comics,4039 Skippack Pike,Skippack,PA,19474,USA,Northeast,,,Not Verified
Temdee Collectibles,5051 Rt. 42,Turnersville,NJ,08012,USA,Northeast,,,Not Verified
Cool Stuff/Effin Comics,417 Burmont Rd,Drexel Hill,AL,19026,USA,Southeast,,,Not Verified
All Things Fun,185 C Route 73 North,West Berlin,NJ,08091,USA,Northeast,,,Not Verified
Stormwatch Comics,449 Route 73 N,West Berlin,NJ,08091,USA,Northeast,,,Not Verified
Tales of Adventure,22 S 3rd St,Coopersberg,PA,18036,USA,Northeast,,,Not Verified
Showcase Comics,874 Lancaster Ave,Bryn Mawr,PA,19010,USA,Northeast,,,Not Verified
Comic Universe,446 Macdade Blvd,Folsom,PA,19033,USA,Northeast,,,Not Verified
JAF Comics,224 Nazareth Pike,Bethlehem,PA,18020,USA,Northeast,,,Not Verified
The Portal Comics and Gaming,2005 Willow Park Rd,Bethlehem,PA,18020,USA,Northeast,,,Not Verified
Dreamscape Comics,302 W. Broad St.,Bethlehem,PA,18018,USA,Northeast,,,Not Verified
Bittermann's Comics and More,117 Main St,East Greenville,PA,18041,USA,Northeast,,,Not Verified
Crossroad Comics,23 S Broadway,Pitman,NJ,08071,USA,Northeast,,,Not Verified
Cloud City Games,1438 Chestnut St,Emmaus,PA,18049,USA,Northeast,,,Not Verified
A+ Cards and Comics,520 Delsea Dr. North,Glassboro,NJ,08028,USA,Northeast,,,Not Verified
The Comic Book Store,30 N. Main St.,Glassboro,NJ,08028,USA,Northeast,,,Not Verified
Beachead Comics,1601 Chew St,Allentown,PA,18102,USA,Northeast,,,Not Verified
The Encounter,2106 Union Blvd.,Allentown,PA,18109,USA,Northeast,,,Not Verified
Comic Masters,1978 Whitehall Mall,Whitehall,PA,18052,USA,Northeast,,,Not Verified
Humungo Comics,351 W Schuylkill Rd,Pottstown,PA,19465,USA,Northeast,,,Not Verified
Level Up Entertainment,4403 E. Black Horse Pike,Mays Landing,NJ,08330,USA,Northeast,,,Not Verified
The Comic Book Shop,1711 Marsh Rd.,Wilmington,DE,19810,USA,Unknown,,,Not Verified
Fat Cat Comics and Games,115 W. Lancaster Ave,Downingtown,PA,19335,USA,Northeast,,,Not Verified
Vault Comics and Games,211 W Main St,Kutztown,PA,19530,USA,Northeast,,,Not Verified
Jester's Playhouse,2408 New Road,Northfield,NJ,08225,USA,Northeast,,,Not Verified
Comicmania,1616 W. Newport Pike,Wilmington,DE,19804,USA,Unknown,,,Not Verified
Beachcomber Collectibles,6725 Black Horse Pike,Egg Township Harbor,NJ,08234,USA,Northeast,,,Not Verified
1up Collectibles,514 Penn Avenue,West Reading,PA,19611,USA,Northeast,,,Not Verified
Golden Eagle Comics,3050 N 5th Street Hwy # C11,Reading,PA,19605,USA,Northeast,,,Not Verified
Captain Blue Hen Comics,280 E. Main St. #101,Newark,DE,19711,USA,Unknown,,,Not Verified
The Comic Den,4312 Division Highway,Blue Ball,PA,17509,USA,Northeast,,,Not Verified
Beav's Comics,124 W. Main St.,Middletown,DE,19709,USA,Unknown,,,Not Verified
Red Rose Comics,356 W. Main St.,Leola,PA,17540,USA,Northeast,,,Not Verified
Cecil County Comics,2748 Turkey Point Rd.,North East,MD,21901,USA,Unknown,,,Not Verified
Golden Unicorn Comics,860 Alter St.,Hazleton,PA,18201,USA,Northeast,,,Not Verified
Captain Blue Hen Comcis,1800 Lincoln Hwy E,Lancaster,PA,17602,USA,Northeast,,,Not Verified
The Comic Store,28 McGovern Ave,Lancaster,PA,17602,USA,Northeast,,,Not Verified
Wednesday's Outlet,506 Luzerne Street,West Pittstion,PA,18643,USA,Northeast,,,Not Verified
The Comic Store,22 McGovern Ave,Lancaster,PA,17603,USA,Northeast,,,Not Verified
Comics and Paperbacks Plus,201 E. Main St.,Palmyra,PA,17078,USA,Northeast,,,Not Verified
Superior Comics,1636 S. Governors Ave.,Dover,DE,19904,USA,Unknown,,,Not Verified
xpanding universe,1010 F Beards Hill Road,Aberdeen,MD,21001,USA,Unknown,,,Not Verified
Comic Store West,984 Loucks Rd.,York,PA,17404,USA,Northeast,,,Not Verified
Comix Connection,1800 Loucks Rd. (W. Manchester Mall),York,PA,17404,USA,Northeast,,,Not Verified
legendary comics,203 w. main st.,Bloomsburg,PA,17815,USA,Northeast,,,Not Verified
KCs Comics,2807 Bel Air Rd,Fallston,MD,21047,USA,Unknown,,,Not Verified
Comix Universe,130 Eisenhower Dr. #3,Hanover,PA,17331,USA,Northeast,,,Not Verified
The York Emporium,343 W. Market St.,York,PA,17401,USA,Northeast,,,Not Verified
Collector's Corner,7911 Harford Rd,Baltimore,MD,21234,USA,Unknown,,,Not Verified
Cosmic Comix & Toys,87 Mellor Ave.,Catonsville,MD,21228,USA,Unknown,,,Not Verified
Alliance Comics,904 Light Street,Baltimore,MD,21230,USA,Unknown,,,Not Verified
Portals Games and Comics,415A Dover Street,Easton,MD,21601,USA,Unknown,,,Not Verified
Comics Metropolis,26 S 3rd St,Lewisburg,PA,17837,USA,Northeast,,,Not Verified
Gotham Comics,15 E Main St # B1,Westminster,MD,21157,USA,Unknown,,,Not Verified
To Be Continued Comics,2137 Defense Hwy STE 12,Crofton,MD,21114,USA,Unknown,,,Not Verified
Comics To Astonish,"Columbia Market, 9400 Snowden River Pkwy #112",Columbia,MD,21045,USA,Unknown,,,Not Verified
Shazam! Comics and Toys,4497 Mountain Road,Pasadena,MD,21122,USA,Unknown,,,Not Verified
Third Eye Comics,"15 Old Solomon's Island Road, suite 102",Annapolis,MD,21401,USA,Unknown,,,Not Verified
Isle of Comics,56 W Southern Ave,South Williamsport,PA,17702,USA,Northeast,,,Not Verified
Illusions Games and Comics,726 S Salisbury Blvd,Salisbury,MD,21801,USA,Unknown,,,Not Verified
Phoenix Rising Games and Comic,327B Civic Ave,Salisbury,MD,21804,USA,Unknown,,,Not Verified
Alliance Comics,6820 Race Track Road,Bowie,MD,20715,USA,Unknown,,,Not Verified
Kraven's Comic Books and Colle,2833 Ocean Gateway,Cambridge,MD,21613,USA,Unknown,,,Not Verified
Big Planet Comics,7315 Baltimore Ave,College Park,MD,20740,USA,Unknown,,,Not Verified
Alliance Comics,8317 Fenton St,Silver Springs,MD,20910,USA,Unknown,,,Not Verified
Beyond Comics Lakeforest Mall,701 Russell Ave.,Gaithersburg,MD,20877,USA,Unknown,,,Not Verified
Fantom Comics,50 Mass Ave.,Washington,DC,20002,USA,Southeast,,,Not Verified
Big Planet Comics,4908 Fairmont Ave.,Bethesda,MD,20814,USA,Unknown,,,Not Verified
Big Monkey Comics,1722-B 14th St. NW,Washington,DC,20009,USA,Southeast,,,Not Verified
Brainstorm Comics & Gaming,177 Thomas Johnson Dr # B,Frederick,MD,21702,USA,Unknown,,,Not Verified
Beyond Comics,5632 Buckeystown Pike,Frederick,MD,21704,USA,Unknown,,,Not Verified
Third Eye Comics,78 SOLOMONS ISLAND ROAD,PRINCE FREDERICK,MD,20678,USA,Unknown,,,Not Verified
Fantom Comics,4500 Wisconsin Avenue,Washington,DC,20016,USA,Southeast,,,Not Verified
Big Planet Comics,3145 Dumbarton St,Washington D.C.,VA,20007,USA,Southeast,,,Not Verified
Aftertime Comics,1304 King St,Alexandria,VA,22314,USA,Southeast,,,Not Verified
Comic & Card Collectorama,2008 Mount Vernon Ave,Alexandria,VA,22301,USA,Southeast,,,Not Verified
Hole in the Wall Books,905 West Broad Street,Falls Church,VA,22046,USA,Southeast,,,Not Verified
Victory Comics,586 S. Washington Street,Falls Church,VA,22046,USA,Southeast,,,Not Verified
The House of Pop Culture,12522 Mattawoman Drive,Waldorf,MD,20601,USA,Unknown,,,Not Verified
Comics MD,15901 INDIAN HEAD HWY,Accokeek,MD,20607,USA,Unknown,,,Not Verified
Atomic Comics,86 W Washington St,Hagerstown,MD,21740,USA,Unknown,,,Not Verified
Big Planet Comics,426 Maple Ave. E.,Vienna,VA,22180,USA,Southeast,,,Not Verified
Game On Comics,310 Dominion Rd NE,Vienna,VA,22180,USA,Southeast,,,Not Verified
Phoenix Comics & Toys,10647 Braddock Rd.,Fairfax,VA,22032,USA,Southeast,,,Not Verified
"The Comics Swap, Inc.",110 S. Fraser St.,State College,PA,16801,USA,Northeast,,,Not Verified
Big Larry's Comic Book Cafe,22745 Washington Street,Leonardtown,MD,20650,USA,Unknown,,,Not Verified
Laughing Orge Comics,19340 Promenade Drive,Lansdowne,VA,20176,USA,Southeast,,,Not Verified
Phoenix Comics & Toys,19340 Promenade Dr.,Lansdowne,VA,20176,USA,Southeast,,,Not Verified
Flashbackcomics,3062 p.s. business center drive,woodbridge,VA,22192,USA,Southeast,,,Not Verified
Painted Visions Comics,3065 Golansky Blvd,Woodbridge,VA,22192,USA,Southeast,,,Not Verified
Comics & Gaming,7556 Gardner Park Dr,Gainesville,VA,20155,USA,Southeast,,,Not Verified
Big Monkey Comics,10667 Spotsylvania Ave.,Fredericksburg,VA,22408,USA,Southeast,,,Not Verified
Codex Comics and Collectibles,125 West High Street,Ebensburg,PA,15931,USA,Northeast,,,Not Verified
Comics World?,1002 Graham Ave,Windber,PA,15963,USA,Northeast,,,Not Verified
Blue Marble Comics and Games,8005 B Creighton Parkway,Mechanicsville,VA,23111,USA,Southeast,,,Not Verified
Third Eye Richmond,8005 Creighton Parkway B,Mechanicsville,VA,23111,USA,Southeast,,,Not Verified
Grand Slam,212 W State St,Olean,NY,14760,USA,Northeast,,,Not Verified
Comic Cubicle,4809 Courthouse St,Williamsburg,VA,23188,USA,Southeast,,,Not Verified
Laurel Mountain Comics,258 W Patriot Street,Somerset,PA,15501,USA,Northeast,,,Not Verified
Amazing Fantasy Comics,209-C Village Ave.,Yorktown,VA,23693,USA,Southeast,,,Not Verified
Atomic Comics Emporium,452 Denbigh Blvd # C,Newport News,VA,23608,USA,Southeast,,,Not Verified
Nostalgia Plus,1601 Willow Lawn Dr,Richmond,VA,23230,USA,Southeast,,,Not Verified
Velocity Comics,819 W Broad St,Richmond,VA,23220,USA,Southeast,,,Not Verified
Stories Comics,5065 Forest Hill Ave,Richmond,VA,23225,USA,Southeast,,,Not Verified
Trilogy Comics,700 E. Little Creek Rd.,Norfolk,VA,23518,USA,Southeast,,,Not Verified
Atlantis Games & Comics,145 E Little Creek Rd,Norfolk,VA,23505,USA,Southeast,,,Not Verified
Comics & Things,4406 Holland Rd,Virginia Beach,VA,23452,USA,Southeast,,,Not Verified
Kaboom?,859 S Lynnhaven Rd,Virginia Beach,VA,23452,USA,Southeast,,,Not Verified
Queen City Bookstore,3184 Main Street,Buffalo,NY,14214,USA,Northeast,,,Not Verified
Collectors Inn,2931 Delaware Avenue,Buffalo,NY,14217,USA,Northeast,,,Not Verified
Seeley & Kane's Cards & Comics,2480 Elmwood Avenue,Kenmore,NY,14217,USA,Northeast,,,Not Verified
House of Fantasy,1709 Pine Ave.,Niagara Falls,NY,14301,USA,Northeast,,,Not Verified
Halleys Comics & Games,1144 Oliver Street,North Tonawanda,NY,14120,USA,Northeast,,,Not Verified
Collectors Choice,54 Main Street,Brockport,NY,14420,USA,Northeast,,,Not Verified
Chautauqua Comics,214 Fairmount Ave,Jamestown,NY,14701,USA,Northeast,,,Not Verified
Books Galore,5546 PEACH ST,Erie,PA,16509,USA,Northeast,,,Not Verified
ABOVE & BEYOND COMICS,1126 WEST 26TH STREET,Erie,PA,16508,USA,Northeast,,,Not Verified
Comic Books 101,355 E. State St.,Pleasantville,PA,16341,USA,Northeast,,,Not Verified
"Captain's Comics, Toys, and...",6551 S Main St.,Ashtabula,OH,44004,USA,Midwest,,,Not Verified
Infield Card & Comic Store,188 Main Street,Greenville,AL,16125,USA,Southeast,,,Not Verified
BC Comics,603 West Back Street,Rimersburg,PA,16248,USA,Northeast,,,Not Verified
Bells Comics Cards & Games,901 W. Main St,Grove City,PA,16127,USA,Northeast,,,Not Verified
New Dimension Comics,101 Clearview Cir,Butler,PA,16001,USA,Northeast,,,Not Verified
Comics and Friends,7850 Mentor Ave.,Mentor,OH,44060,USA,Midwest,,,Not Verified
All American Cards and Comics,161 W Market St,Warren,OH,44481,USA,Midwest,,,Not Verified
Blue Devils Sports Cards,414 Ohio Avenue,Mc Donald,PA,44437,USA,Northeast,,,Not Verified
Comic Heaven,4847 Robinhood Dr.,Willoughby,AL,44094,USA,Southeast,,,Not Verified
New Dimension Comics,516 Lawrence Ave.,Ellwood City,PA,16117,USA,Northeast,,,Not Verified
All American Comics & Cards,1295 Boardman Canfield Road,Youngstown,PA,44512,USA,Northeast,,,Not Verified
Gateway Comics,225 Fayette Street,Morgantown,PA,44512,USA,Northeast,,,Not Verified
Spectrum Comics,6744 Market St,Boardman,OH,44512,USA,Midwest,,,Not Verified
New Dimension Comics,20550 Route 19,Cranberry Township,PA,16066,USA,Northeast,,,Not Verified
Cleveland Comics,5120 Mayfield Road,Lyndhurst,OH,44124,USA,Midwest,,,Not Verified
Infinity Music & More,4564 William Penn Highway,Murrysville,PA,15668,USA,Northeast,,,Not Verified
Phantom of the Attic,3766 William Penn Hwy.,Monroeville,PA,15146,USA,Northeast,,,Not Verified
Joy's Japanimation,602 S. Main St.,Greensburg,PA,15601,USA,Northeast,,,Not Verified
Carol & John's Comic Book Shop,17448 Lorain Ave. Kamms Plaza,Cleveland,OH,44111,USA,Midwest,,,Not Verified
York Comics & Cards,7390 York Rd.,Parma,OH,44134,USA,Midwest,,,Not Verified
South Side Comics,1819 East Carson Street,Pittsburgh,PA,15203,USA,Northeast,,,Not Verified
Phantom of the Attic,411 S. Craig St.,Pittsburgh,PA,15213,USA,Northeast,,,Not Verified
CCGs Cards Comics and Games,4020 Liberty Ave.,Pittsburgh,PA,15224,USA,Northeast,,,Not Verified
CCGs Cards Comics and Games,4020 Liberty Avenue,Pittsburgh,PA,15224,USA,Northeast,,,Not Verified
Duncan Comics Books & Access.,1047 Perry Highway,Pittsburgh,PA,15237,USA,Northeast,,,Not Verified
Eide's Entertainment,1121 Penn Ave.,Pittsburgh,PA,15222,USA,Northeast,,,Not Verified
New Dimension Comics,3075 Clairton Rd. #940,West Mifflin,PA,15123,USA,Northeast,,,Not Verified
Taurus Comics,412 Huron Ave,Port Huron,MI,48060,USA,Midwest,,,Not Verified
Phantom of the Attic,1165 McKinney Ln - Parkway Center Mall,Pittsburgh,PA,15220,USA,Northeast,,,Not Verified
Comic Book Connection,562 Rodi Rd.,Pittsburgh,PA,15235,USA,Northeast,,,Not Verified
Geekadrome,534 Brookline Boulevard,Pittsburgh,PA,15226,USA,Northeast,,,Not Verified
Big Bang Comics & Collectibles,437 Broad St,Sewickley,PA,15143,USA,Northeast,,,Not Verified
Copacetic Comics Company,1505 Asbury Pl,Pittsburgh,PA,15217,USA,Northeast,,,Not Verified
Astound Comics!,25943 Detroit Rd,Westlake,OH,44145,USA,Midwest,,,Not Verified
Kenmore Komics & games,1020 Kenmore Boulevard,Akron,OH,44314,USA,Midwest,,,Not Verified
Hazel's Heroes,1664 N Main St #12,North Canton,OH,44720,USA,Midwest,,,Not Verified
Stuff Genie Emporium,556 W Tuscarawas Ave,Barberton,OH,44203,USA,Midwest,,,Not Verified
HEROIC ADVENTURES,126 Gnau Ave SW Unit A,Massillon,OH,44646,USA,Midwest,,,Not Verified
Land of Cran Comic,4631 Whipple Ave NW,Canton,OH,44718,USA,Midwest,,,Not Verified
Comics Cards & Collectibles,724 Cleveland Ave SW,Canton,OH,44702,USA,Midwest,,,Not Verified
Universal Comics,2516 Harrison Ave NW,Canton,OH,44709,USA,Midwest,,,Not Verified
Keith's Comic?,394 Broad St,Elyria,OH,44035,USA,Midwest,,,Not Verified
The Toys Time Forgot,137 Cherry St E,Canal Fulton,OH,44614,USA,Midwest,,,Not Verified
Bill's Books & More,2215 6th St SW,Canton,OH,44706,USA,Midwest,,,Not Verified
New Dimension Comics,113 E. McMurray Rd.,Canonsburg,PA,15317,USA,Northeast,,,Not Verified
Mike's Comics,51075 Washington St,New Baltimore,MI,48047,USA,Midwest,,,Not Verified
The Gaming Dungeon,63 N. Main St,Washington,PA,15301,USA,Northeast,,,Not Verified
Liberty Comics,27639 Gratiot Ave.,Roseville,MI,48066,USA,Midwest,,,Not Verified
2nd & Charles,45290 Utica Park Blvd,Utica,MI,48315,USA,Midwest,,,Not Verified
Funky Town Toys and Comics,44907 Hayes Rd,Sterling Heights,MI,48313,USA,Midwest,,,Not Verified
Abba's Discount Comics,33449 Van Dyke Ave,", Sterling Heights",MI,48312,USA,Midwest,,,Not Verified
BYOB Bring your old books,8074 21 mile rd,shelby twp,MI,48317,USA,Midwest,,,Not Verified
TJ's Cards & Comics,28679 Ryan Road,Warren,MI,48092,USA,Midwest,,,Not Verified
Comics & More,28059 John R Road,Madison Heights,MI,48071,USA,Midwest,,,Not Verified
Hobby's Inc.,56104 National Rd.,Bridgeport,OH,43912,USA,Midwest,,,Not Verified
Guild of Blades Retail,775 E. 14 Mile Road,Clawson,MI,48017,USA,Midwest,,,Not Verified
Detroit Comics,23333 Woodward Ave,Ferndale,MI,48220,USA,Midwest,,,Not Verified
Big Book Store,5911 Cass Ave,Detroit,MI,48202,USA,Midwest,,,Not Verified
Leopold's,15 E Kirby Street,Detroit,MI,48202,USA,Midwest,,,Not Verified
Primetime Comics,4 N Broadway St,Lake Orion,MI,48362,USA,Midwest,,,Not Verified
nd comics,mall ring rd,saint clairsville,OH,43950,USA,Midwest,,,Not Verified
Big Ben's Comix,8241 Allen Road,Allen Park,MI,48101,USA,Midwest,,,Not Verified
Comic City,Oakland Pointe Shopping Center 328 N Telegraph Rd,Pontiac,MI,48341,USA,Midwest,,,Not Verified
Comic X-Plosion,214 E Nepessing St,Lapeer,MI,48446,USA,Midwest,,,Not Verified
Green Brain Comics,13210 Michigan Ave,Dearborn,MI,48126,USA,Midwest,,,Not Verified
Back To the Past Comics,12670 Inkster Road,Redford,MI,48239,USA,Midwest,,,Not Verified
Comics Archives Inc,25650 Plymouth Rd,Redford,MI,48239,USA,Midwest,,,Not Verified
Wonderworld Comics,22391 Ecorse Road,Taylor,MI,48180,USA,Midwest,,,Not Verified
Motor City Comics,33228 W 12 Mile Rd Pmb 286,Farmington Hills,MI,48334,USA,Midwest,,,Not Verified
A To Z Cards Comics Coins,32647 Ford Road,Garden City,MI,48135,USA,Midwest,,,Not Verified
Back To the Past,27462 Schoolcraft Rd,Livonia,MI,48150,USA,Midwest,,,Not Verified
Comic City,42727 Ford Rd,Canton,MI,48187,USA,Midwest,,,Not Verified
Amazing Comics & Video,3109 University Avenue,Morgantown,PA,26505,USA,Northeast,,,Not Verified
Gary's Comic & More,314 High Street,Morgantown,PA,26505,USA,Northeast,,,Not Verified
Comic City,43538 W Oaks Dr,Novi,MI,48377,USA,Midwest,,,Not Verified
The Realm,19 E. Main St.,Shelby,OH,44875,USA,Midwest,,,Not Verified
Amazing Book-Store,3718 Richfield Rd,Flint,MI,48506,USA,Midwest,,,Not Verified
Battlestar Comics,G4383 South Saginaw street,Burton,MI,48529,USA,Midwest,,,Not Verified
Rupps' Comics,335 Ohio Ave.,Fremont,OH,43420,USA,Midwest,,,Not Verified
Comic Relief,4050 Fenton Road,Flint,MI,48507,USA,Midwest,,,Not Verified
Comic Paradise Plus,401 Walnut Ave,Fairmont,WV,26554,USA,Southeast,,,Not Verified
Fun 4 All Comics & Games,2742 Washtenaw Avenue,Ypsilanti,MI,48197,USA,Midwest,,,Not Verified
Stadium Card and Comics,2061 Golfside,Ypsilanti,MI,48197,USA,Midwest,,,Not Verified
Asylum Comics,266 Muskingum Dr Suite 1,Marietta,OH,45750,USA,Midwest,,,Not Verified
Nerducopia,34 E Main St,Buckhannon,WV,26201,USA,Southeast,,,Not Verified
Lost Legion Games and Comics,3206 Dudley Ave,Parkersburg,WV,26101,USA,Southeast,,,Not Verified
Moore Comics,5505 Westerville Rd.,Westerville,OH,43081,USA,Midwest,,,Not Verified
Comic Town,1249 Morse Rd.,Columbus,OH,43229,USA,Midwest,,,Not Verified
Black Hole Comix,5457 Norton Ctr,Columbus,OH,43228,USA,Midwest,,,Not Verified
Comic Town,1065 Gemini Place,Columbus,OH,43240,USA,Midwest,,,Not Verified
Packrat Comics?,3872 Lattimer St,Hilliard,OH,43026,USA,Midwest,,,Not Verified
The Laughing Ogre,4258 N High St,Columbus,OH,43214,USA,Midwest,,,Not Verified
Lost Legion Games and Comics,600 D Street,South Charleston,WV,25303,USA,Southeast,,,Not Verified
Third Floor Comics,110 21st Street,Nitro,WV,25143,USA,Southeast,,,Not Verified
Cheryl's Comics & Toys,5216 1/2 MacCorkle Ave. SE,Charleston,WV,25304,USA,Southeast,,,Not Verified
C & C Comics & Cards,318 Winfield Road,Saint Albans,WV,25177,USA,Southeast,,,Not Verified
Atlas Comics,1750 Rio Hill Ctr,Charlottesville,VA,22901,USA,Southeast,,,Not Verified
Comic World,1204 4th Avenue,Huntington,WV,25701,USA,Southeast,,,Not Verified
Purple Earth Comics,1115 4th Avenue,Huntington,WV,25701,USA,Southeast,,,Not Verified
Lost Legion Games and Comics,406 Second Street,Beckley,WV,25801,USA,Southeast,,,Not Verified
Main Street Comics and Games,2125 East Main Street,Springfield,OH,45503,USA,Midwest,,,Not Verified
Monarch Cards & Comics,4400 Heatherdowns Blvd # 11B,Toledo,OH,43614,USA,Midwest,,,Not Verified
Dark Star Books & Comics,237 Xenia Ave,Yellow Springs,OH,45387,USA,Midwest,,,Not Verified
Super-fly Comics & Games,132 Dayton Street,Yellow Springs,OH,45387,USA,Midwest,,,Not Verified
Seann's Anime & Comics,5805 Monroe Street,Sylvania,OH,43560,USA,Midwest,,,Not Verified
The Vault,5924 Fort Ave,Lynchburg,VA,24502,USA,Southeast,,,Not Verified
Untamed Worlds,"15241 Wards Rd, Suite 5",Lynchburg,VA,24502,USA,Southeast,,,Not Verified
Infinity Comics & toys,4317 Williamson Rd,roanoke,VA,24012,USA,Southeast,,,Not Verified
The Basement Toys and Comics,2914 Williamson Rd,Roanoke,VA,24012,USA,Southeast,,,Not Verified
Bookery Fantasy,16 W. Main St.,Fairborn,OH,45324,USA,Midwest,,,Not Verified
B & D comics,802 Elm Ave SW,roanoke,VA,24016,USA,Southeast,,,Not Verified
Lost Legion Games and Comics,706 Thorn Street,Princeton,WV,24740,USA,Southeast,,,Not Verified
Beholder's Eye,700 North Main Street,Blacksburg,VA,24060,USA,Southeast,,,Not Verified
Fun -n- Games,420 North Main Street,Blacksburg,VA,24060,USA,Southeast,,,Not Verified
Maverick's Comic Books,2312 E Dorothy Lane,Kettering,OH,45420,USA,Midwest,,,Not Verified
Fearless Reader Comics,1613 Huffman Ave,Dayton,OH,45403,USA,Midwest,,,Not Verified
Bell Book & Comic,458 Patterson Rd,Dayton,OH,45419,USA,Midwest,,,Not Verified
Heroes 4 Sale,328 N Dixie Drive,Vandalia,OH,45377,USA,Midwest,,,Not Verified
Schumer's Cards & Comics,6342 Far Hills Ave,Dayton,OH,45459,USA,Midwest,,,Not Verified
Get Your Game On,709 Packard Street,Ann Arbor,MI,48104,USA,Midwest,,,Not Verified
Labyrinth Comics & Games,324 S State Street,Ann Arbor,MI,48104,USA,Midwest,,,Not Verified
Vault of Midnight,219 S Main St,Ann Arbor,MI,48104,USA,Midwest,,,Not Verified
Another Fearless Reader's,34 W Main St,New Lebanon,OH,45345,USA,Midwest,,,Not Verified
Parkers Records & Comics,"1222 Suite C, Rt. 28",Milford,OH,45150,USA,Midwest,,,Not Verified
Queen CIty Comic & Card Co.,6600 Dixie Hwy. Suite V,Fairfield,OH,45014,USA,Midwest,,,Not Verified
Queen City Comic & Card Co.,6101 Montgomery Rd.,Cincinnati,OH,45213,USA,Midwest,,,Not Verified
Local Heroes,1905 Colonial Avenue,Norfolk,VA,23517,USA,Southeast,,,Not Verified
Trilogy Comics,5773 Princess Anne Rd.,Virginia Beach,VA,23462,USA,Southeast,,,Not Verified
Atlantis Games & Comics,6231 Portsmouth Blvd,Portsmouth,VA,23701,USA,Southeast,,,Not Verified
Atlantis Games & Comics,1920 Centerville Turnpike #120,Virginia Beach,VA,23464,USA,Southeast,,,Not Verified
Comic Kings,5196 Fairfield Shopping Ctr,Virginia Beach,VA,23464,USA,Southeast,,,Not Verified
Earth 383 Comics & Games?,212 N Martin St,Elizabeth City,NC,27909,USA,Southeast,,,Not Verified
B & D Sports Cards & Comics,1326 Piney Forest Road,Danville,VA,24540,USA,Southeast,,,Not Verified
The Hobby Shop,1501 Ward Blvd. #245,Wilson,NC,27893,USA,Southeast,,,Not Verified
Ultimate Comics,1058 West Club Blvd #460,Durham,NC,27701,USA,Southeast,,,Not Verified
Capital Comics,5212 Hollyridge Rd,Raleigh,NC,27612,USA,Southeast,,,Not Verified
ScifiGenre,3215 Old Chapel Hill Rd,Durham,NC,27707,USA,Southeast,,,Not Verified
Capital Comics,3027 Hillsborough ST,Raleigh,NC,27607,USA,Southeast,,,Not Verified
Chapel Hill Comics,412 W. Franklin Street,Chapel Hill,NC,27516,USA,Southeast,,,Not Verified
Heroes Are Here,208 South Berkeley Blvd,Goldsboro,NC,27534,USA,Southeast,,,Not Verified
Acme Comics,2150 Lawndale Dr,Greensboro,NC,27408,USA,Southeast,,,Not Verified
Parts Unknown,906 Spring Garden St.,Greensboro,NC,27403,USA,Southeast,,,Not Verified
The Comic Dimension,"2823 Spring Garden St, Greensboro, NC 27403",Greensboro,NC,27403,USA,Southeast,,,Not Verified
Scarecrow comics,11234 N. Main st,Archdale,NC,27263,USA,Southeast,,,Not Verified
GVE Comics,2900 North Main Street #106,High Point,NC,27262,USA,Southeast,,,Not Verified
Cumberland Coin Exchange,5701 Yadkin Road,Fayetteville,NC,28303,USA,Southeast,,,Not Verified
Dragon's Lair,6243 Yadkin Rd,Fayetteville,NC,28303,USA,Southeast,,,Not Verified
Vision of Comics and Cards,8200 Cliffdale Rd,Fayetteville,NC,28314,USA,Southeast,,,Not Verified
Comic Monstore,813 Jake Alexander Blvd S,Salisbury,NC,28147,USA,Southeast,,,Not Verified
"R & B Games, Cards, Comics",1525 Cinema Dr,Statesville,NC,28625,USA,Southeast,,,Not Verified
Memory Lane Comics,201 Princess St,Wilmington,NC,28401,USA,Southeast,,,Not Verified
Memory Lane Comics Part II,222 Princess St,Wilmington,NC,28401,USA,Southeast,,,Not Verified
"Parker, Banner, Kent & Wayne",21500 Catawba Ave. Suite A,Cornelius,NC,28031,USA,Southeast,,,Not Verified
2nd Time Around Comics,902 Conover Blvd E Ste B,Conover,NC,28613,USA,Southeast,,,Not Verified
Spandex City Comics & More,3611 Mt.Holly-Huntersville Rd.,Charlotte,NC,28216,USA,Southeast,,,Not Verified
Far Out Comics Retro & Collect,246 Square NW Suite D #2,Hickory,NC,28601,USA,Southeast,,,Not Verified
A. Pennyworth's Comics,11025 Monroe Rd,Matthews,NC,28105,USA,Southeast,,,Not Verified
Mad Jack's Records & Comics,315 W John St B,Matthews,NC,28105,USA,Southeast,,,Not Verified
Heroes Aren't Hard To Find,1957 East 7th Street,Charlotte,NC,28204,USA,Southeast,,,Not Verified
Rebel Base Comics and Toys,701-C S. Sharon Amity Rd.,Charlotte,NC,28211,USA,Southeast,,,Not Verified
Time Tunnel Comics and Toys,1734 Hwy. 70 S.E.,Hickory,NC,28602,USA,Southeast,,,Not Verified
Mountain Empire Comics,31 6th St.,Bristol,TN,37620,USA,Southeast,,,Not Verified
Maverick's S/C and Comics,8522 Winton Rd.,Cincinnati,OH,45231,USA,Midwest,,,Not Verified
YottaQuest,7607 Hamilton Ave,Cincinnati,OH,45231,USA,Midwest,,,Not Verified
Up Up & Away!,4016 Harrison Ave,Cincinnati,OH,45211,USA,Midwest,,,Not Verified
Comic Book World,7130 Turfway Road,Florence,KY,41042,USA,Southeast,,,Not Verified
Comics 2 Games,8470 US HWY 42,Florence,KY,41042,USA,Southeast,,,Not Verified
Mountain Empire Comics,1210 N Roan St # 1,Johnson City,TN,37601,USA,Southeast,,,Not Verified
Nerd HQ,2514 Wesley St. Unit #102,Johnson City,TN,37601,USA,Southeast,,,Not Verified
Atomik Comiks,213 E. Main St.,Johnson City,TN,37604,USA,Southeast,,,Not Verified
G2K Games,3101 Brown Mills Roan,Johnson City,TN,37604,USA,Southeast,,,Not Verified
Legends Comics,702 S Irby St,Florence,SC,29501,USA,Southeast,,,Not Verified
Apocalypse Comics,"2126 Hwy 9, Building E Suite 2",Longs,SC,29568,USA,Southeast,,,Not Verified
Corsair Comics,807 Main Street,Myrtle Beach,SC,29577,USA,Southeast,,,Not Verified
Grand Slam,954 Mount Gallant Rd,Rock Hill,SC,29732,USA,Southeast,,,Not Verified
Dave's Comics & Cards,206 Main Street,Fort Mill,SC,29715,USA,Southeast,,,Not Verified
Timmy Mac's,902 W St,Morganton,NC,28655,USA,Southeast,,,Not Verified
Heroes and Dragons,510 Bush River Rd,Columbia,SC,29210,USA,Southeast,,,Not Verified
Comic Nirvana,3935 Sunset Blvd,West Columbia,SC,29169,USA,Southeast,,,Not Verified
Scratch N Spin,513 12th street,West Columbia,SC,29169,USA,Southeast,,,Not Verified
The Tangled Web,418 W Blackstock Rd,Spartanburg,SC,29301,USA,Southeast,,,Not Verified
Silver City Comics,538 Knox Abbott Drive,Cayce,SC,29033,USA,Southeast,,,Not Verified
Green Dragon,7671 Northwoods blvd.,North Charleston,SC,29406,USA,Southeast,,,Not Verified
Soundwave Music & Movies,2139 B. Main Street,Summerville,SC,29483,USA,Southeast,,,Not Verified
Borderlands Comics and Games,1434 Laurens Rd,Greenville,SC,29607,USA,Southeast,,,Not Verified
Richard's Comics & Collectable,214A Laurens Road,Greenville,SC,29607,USA,Southeast,,,Not Verified
Captain's Comics and Toys,1209 Sam Rittenberg Blvd. Suite #D,Charleston,SC,29407,USA,Southeast,,,Not Verified
Augusta Book Exchange 2,592 Bobby Jones Expy # 15,Augusta,GA,30907,USA,Southeast,,,Not Verified
Augusta Book Exchange,1650 Gordon Hwy,Augusta,GA,30906,USA,Southeast,,,Not Verified
Rock Shop Music & Comics,3333 Buford Dr C-01b,Buford,GA,30519,USA,Southeast,,,Not Verified
Galactic Quest,481 W. Pike St. Suite 200B,Lawrencevill,GA,30045,USA,Southeast,,,Not Verified
Stairway Toys,3555 Mercer Univ. Dr. Ste 102-1,Macon,GA,31204,USA,Southeast,,,Not Verified
Joe's Garage Comics and More,"2855 Lawrenceville-Suwanee Rd STE 760,","Suwanee,",GA,30024,USA,Southeast,,,Not Verified
Galactic Quest,4264 Sudderth Rd. Suite C,Buford,GA,30518,USA,Southeast,,,Not Verified
Titan Games & Comics Duluth,2103 Pleasant Hill Rd,Duluth,GA,30096,USA,Southeast,,,Not Verified
FCB Comics and Games,9850 Nesbit Ferry Road #21,Alpharetta,GA,30022,USA,Southeast,,,Not Verified
Book End,6041 N Henry Boulevard Ste C,Stockbridge,GA,30281,USA,Southeast,,,Not Verified
Media Mania,4000 N Henry Blvd,Stockbridge,GA,30281,USA,Southeast,,,Not Verified
Book Nook,3073 North Druid Hills Road,Decatur,GA,30033,USA,Southeast,,,Not Verified
Criminal Records,1154 Euclid Ave NE,Atlanta,GA,30307,USA,Southeast,,,Not Verified
Escape Reality Comics,464 Forks Of The River Pkwy,Sevierville,TN,37862,USA,Southeast,,,Not Verified
Oxford Comics & Games,2855 Piedmont Road NE,Atlanta,GA,30305,USA,Southeast,,,Not Verified
Titan Games and Comics,755 Virginia Ave,Hapeville,GA,30354,USA,Southeast,,,Not Verified
Titan Games & Comics Woodstock,"1105 Parkside Lane, Suite 1212",Woodstock,GA,30189,USA,Southeast,,,Not Verified
Great Escape Comics & Games,1050 East Piedmont Road,Marietta,GA,30062,USA,Southeast,,,Not Verified
Dr. No's Comics & Games,3428 Canton Road,Marietta,GA,30066,USA,Southeast,,,Not Verified
Dave's Comics,107 Rainbow Way,Fayetteville,GA,30214,USA,Southeast,,,Not Verified
Titan Games & Comics Smyrna,2585 Spring Rd #C,Smyrna,GA,30080,USA,Southeast,,,Not Verified
Comic Exchange,3711 Chapman Hwy,Knoxville,TN,37920,USA,Southeast,,,Not Verified
Tall Man Toys & Comics,609 N. Gay Street,Knoxville,TN,37917,USA,Southeast,,,Not Verified
Sci-Fi City,3001 Knoxville Center Dr  #1270,Knoxville,TN,37924,USA,Southeast,,,Not Verified
Nerdvana,6709 Kingston Pk,Knoxville,TN,37919,USA,Southeast,,,Not Verified
Snake Eyes Comics,9317 Kingston Pike #0,Knoxville,TN,37922,USA,Southeast,,,Not Verified
New Krypton Comics,6767 Jubilee Center Way Ste #103,Knoxville,TN,37912,USA,Southeast,,,Not Verified
Clinton Cards Comics & Collect,372 Market Pl,Clinton,TN,37716,USA,Southeast,,,Not Verified
Dicehead Games & Comics,6231 Perimeter Dr,Chattanooga,TN,37421,USA,Southeast,,,Not Verified
Columbus Collectibles,4702 Buena Vista Rd,Columbus,GA,31907,USA,Southeast,,,Not Verified
Comic Hound,6743 Ringgold Rd # B,Chattanooga,TN,37412,USA,Southeast,,,Not Verified
Columbus Book Exchange&Comics,6440 W. Hamilton Pk. Dr.,Columbus,GA,31901,USA,Southeast,,,Not Verified
collectors paradise,510 broad st,gadsden,AL,35901,USA,Southeast,,,Not Verified
Epikos Comics & Games,5864 Brainerd Road,Chattanooga,TN,37411,USA,Southeast,,,Not Verified
Collector's Corner,700 E Glenn Ave # C,Auburn,AL,36830,USA,Southeast,,,Not Verified
Infinity Flux,3643 Hixson Pike,Chattanooga,TN,37415,USA,Southeast,,,Not Verified
The Deep Comics & Games,7026 US Hwy. 431,Albertville,AL,35950,USA,Southeast,,,Not Verified
Bob's Comics,979 Gadsden Hwy,Birmingham,AL,35235,USA,Southeast,,,Not Verified
Legion,3248 Cahaba Heights Road,Vestavia Hills,AL,35243,USA,Southeast,,,Not Verified
Excelsior,3150B Lorna Rd,HOOVER,AL,35216,USA,Southeast,,,Not Verified
Kingdom Comics,1425 Montgomery Highway,Vestavia Hills,AL,35216,USA,Southeast,,,Not Verified
Capitol City Comic Shop,6250 Atlanta Hwy,Montgomery,AL,36117,USA,Southeast,,,Not Verified
Capitol City Comic Shop,177 Eastern Blvd,Montgomery,AL,36117,USA,Southeast,,,Not Verified
The Deep Comics & Games,2312 S. Memorial Pkwy. Suite A,Huntsville,AL,35801,USA,Southeast,,,Not Verified
Comics & Cards Trading Post,7968 Vaughn Rd,Montgomery,AL,36116,USA,Southeast,,,Not Verified
"Haven Comics, Etc.",1871-S Slaughter Rd.,Madison,AL,35758,USA,Southeast,,,Not Verified
THE COMIC SHOP,1815 6TH AVE SE,DECATUR,AL,35601,USA,Southeast,,,Not Verified
Mountain Top Comics,1683 S Jefferson Ave,Cookeville,TN,38501,USA,Southeast,,,Not Verified
Outer Limits Boro,"Broad Street Centre, 1244 NW Broad St",Murfreesboro,TN,37130,USA,Southeast,,,Not Verified
Timely Treasures Collectavles,810 Northwest Broad Street,Murfreesboro,TN,37130,USA,Southeast,,,Not Verified
Collector's Alley,1229 Hampshire Pike,Columbia,TN,38401,USA,Southeast,,,Not Verified
Rick's Comic City,2710 Old Lebanon Rd Suite 3,Nahsville,TN,37214,USA,Southeast,,,Not Verified
The Great Escape,5400 Charlotte Avenue,Nashville,TN,37209,USA,Southeast,,,Not Verified
Secret Headquarters,2418 N. Monroe St. Suite 210,Tallahassee,FL,32303,USA,Southeast,,,Not Verified
Fallot Comics,1482 Apalachee Parkway,Tallahassee,FL,32301,USA,Southeast,,,Not Verified
Little Monster Comics,4440 South HWY 27,Somerset,KY,42501,USA,Southeast,,,Not Verified
Lemonjuice McGee's Comic Caval,450 S Hwy 27,Somerset,KY,42503,USA,Southeast,,,Not Verified
Mad Ox Games & Comics,205 N. Hill St.,London,KY,40741,USA,Southeast,,,Not Verified
The Great Escape,2945 Scottsville Rd SteB17&B18,Bowling Green,KY,42104,USA,Southeast,,,Not Verified
Hoyt's Cosmos of Comics,501 N.W. 23rd  Avenue - Ste C,Gainesville,FL,32609,USA,Southeast,,,Not Verified
Universe of Super Heros,2724 Park Street,Jacksonville,FL,32205,USA,Southeast,,,Not Verified
7th Inning Stretch Sports Card,1941 Bostick St,Dunnellon,FL,34432,USA,Southeast,,,Not Verified
Vibranium Comics and Gaming,2801 SW 20th Str Unit 201,Ocala,FL,34474,USA,Southeast,,,Not Verified
Gotham City Limits,3733 Southside Blvd #7,Jacksonville,FL,32216,USA,Southeast,,,Not Verified
Borderlands Comics and Games√¢‚Ç¨≈Ω,"10230-11 Atlantic Blvd.,",Jacksonville,FL,32225,USA,Southeast,,,Not Verified
The Loot Castle,5764 Stewart St,Milton,FL,32570,USA,Southeast,,,Not Verified
Jonee Zees,2632 US-19,Holiday,FL,34691,USA,Southeast,,,Not Verified
Emerald City Comics,2475 N. McMullen Booth Rd. Suite I,Clearwater,FL,33759,USA,Southeast,,,Not Verified
Heroes Haven,14306 North Dale Mabry Way,Tampa,FL,33618,USA,Southeast,,,Not Verified
Demolition Comics IV,1404 Seminole Blvd,Largo,FL,33770,USA,Southeast,,,Not Verified
Action Games & Comics,782 West Montrose St.,Clermont,FL,34711,USA,Southeast,,,Not Verified
Demolition Comics II,4149 W. Waters Ave.,"Tampa, Fl.",FL,33634,USA,Southeast,,,Not Verified
Demolition Comics,2564 E. Fowler Ave,Tampa,FL,33612,USA,Southeast,,,Not Verified
Cloak & Dagger,138 W. Granada Blvd.,Ormond Beach,FL,32174,USA,Southeast,,,Not Verified
Emerald City Comics,9249 Seminole Blvd.,Seminole,FL,33772,USA,Southeast,,,Not Verified
Anime House,1757 North Nova Road #101,Holly Hill,FL,32117,USA,Southeast,,,Not Verified
Green Shift Comics,5226 North Nebraska Avenue,Tampa,FL,33603,USA,Southeast,,,Not Verified
Demolition Comics,4049 S. Dale Mabry,Tampa,FL,33611,USA,Southeast,,,Not Verified
CLARKS COMICS & MORE,11909 East Doctor Martin Luther King Junior Boulevard,Seffner,FL,33584,USA,Southeast,,,Not Verified
Coliseum of Comics Lakeland,3139 Galloway Road,Lakeland,FL,33810,USA,Southeast,,,Not Verified
Coliseum of Comics,177 Towne Center Circle,Sanford,FL,32771,USA,Southeast,,,Not Verified
Comic Central,1425 WP Ball Blvd,Sanford,FL,32771,USA,Southeast,,,Not Verified
Read More Comics√¢‚Ç¨≈Ω,115 East Brandon Boulevard,Brandon,FL,33511,USA,Southeast,,,Not Verified
"The Comics Club, Inc.",714 West Lumsden Road,Brandon,FL,33511,USA,Southeast,,,Not Verified
Acme Superstore,905 E. State Road 434,Longwood,FL,32750,USA,Southeast,,,Not Verified
The Collective,515 East Altamonte Drive #1023,Altamonte Springs,FL,32701,USA,Southeast,,,Not Verified
World of Comics,2133 South Ridgewood Avenue,South Daytona,FL,32119,USA,Southeast,,,Not Verified
BAMF! Comics & Collectibles,500 E Horatio Ave STE 3,Maitland,FL,32751,USA,Southeast,,,Not Verified
Docking Bay 94 Comics,1823 North Orange Avenue,Orlando,FL,32804,USA,Southeast,,,Not Verified
Coliseum of Comics,121 S. Kentucky Ave.,Lakeland,FL,33801,USA,Southeast,,,Not Verified
Gods and Monsters,5250 International Dr.,Orlando,FL,32819,USA,Southeast,,,Not Verified
Coliseum of Comics Orlando,4722 S. Orange Blossom Trail,Orlando,FL,32839,USA,Southeast,,,Not Verified
A Comic Shop,114 S Semoran Blvd #6,Winter Park,FL,32792,USA,Southeast,,,Not Verified
Coliseum of Comics,3201 E. Colonial Drive,Orlando,FL,32803,USA,Southeast,,,Not Verified
Living Dead Comics,3227 Curry Ford Rd.,Orlando,FL,32806,USA,Southeast,,,Not Verified
Hudson's Comics,200 S. Semoran Blvd.,Orlando,FL,32807,USA,Southeast,,,Not Verified
Coliseum of Comics Kissimmee,22 Broadway Ave.,Kissimmee,FL,34741,USA,Southeast,,,Not Verified
Downtown Comics,222 W. Central Ave.,Winter Haven,FL,33880,USA,Southeast,,,Not Verified
Epic Comics,570 N. Alafaya Trail,Orlando,FL,32828,USA,Southeast,,,Not Verified
The Infinite Mushroom Comic &,3550 South Washington Avenue,Titusville,FL,32780,USA,Southeast,,,Not Verified
Viera Comics,7640 N Wickham Rd #108,Melbourne,FL,32940,USA,Southeast,,,Not Verified
Famous Faces & Funnies,3020 W New Haven Ave,West Melbourne,FL,32904,USA,Southeast,,,Not Verified
Davincis Dreamworks,835 17th St #102,Vero Beach,FL,32960,USA,Southeast,,,Not Verified
Shamrock Comics,3057 Tamiami Trail Unit B,Port Charlotte,FL,33952,USA,Southeast,,,Not Verified
Cool Comics and Games,231 Del Prado Blvd S. #3,Cape Coral,FL,33990,USA,Southeast,,,Not Verified
Hero Trader,13251 McGregor Blvd. #106,Fort Myers,FL,33919,USA,Southeast,,,Not Verified
Comics Cards and Stuff,3453-3 Fowler St.,Fort Myers,FL,33901,USA,Southeast,,,Not Verified
Record Trader,3091 Cleveland Ave,Fort Myers,FL,33901,USA,Southeast,,,Not Verified
Past Present & Future Comics,1387 North Military Trail,West Palm Beach,FL,33409,USA,Southeast,,,Not Verified
Excelsior Comics & Collectable,16 South J Street,Lake Worth,FL,33460,USA,Southeast,,,Not Verified
Tate's Comics + Toys + More...,"801 N. Congress Avenue, #604",Boynton Beach,FL,33426,USA,Southeast,,,Not Verified
Boca Comics & Cards,20423 State Road 7,Boca Raton,FL,33498,USA,Southeast,,,Not Verified
Docking Bay 94,"7710 NW 56th Way, Suite 100",Pompano Beach,FL,33073,USA,Southeast,,,Not Verified
Lost Realms Inc,"100, 7710 Northwest 56th Way,",Pompano Beach,FL,33073,USA,Southeast,,,Not Verified
Zaldiva.com Comics,331 E Commercial Blvd,Oakland Park,FL,33334,USA,Southeast,,,Not Verified
Crossroad Comics,4952 N University Dr.,"Lauderhill,",FL,33351,USA,Southeast,,,Not Verified
Tate's Comics,4566 North University Drive,Lauderhill,FL,33351,USA,Southeast,,,Not Verified
"Past, Present & Future Comics",5917 S University Dr,Davie,FL,33328,USA,Southeast,,,Not Verified
War & Pieces,3716 Davie Rd,Davie,FL,33314,USA,Southeast,,,Not Verified
Earth 2 Comics,7619 Pines Boulevard,Pembroke Pines,FL,33024,USA,Southeast,,,Not Verified
Crazy Ed's Comics,1995 NE 147th St,North Miami,FL,33181,USA,Southeast,,,Not Verified
Mac's Comics & Collectible Inc,2678 SW 87th Ave,Miami,FL,33165,USA,Southeast,,,Not Verified
A&M Comics and BooksA&M Comics,6650 Bird Road,Miami,FL,33155,USA,Southeast,,,Not Verified
Collector's Item,"581 Old Hickory Boulevard F,",Jackson,TN,38305,USA,Southeast,,,Not Verified
Comics Universe,1869 Highway 45 By-Pass,Humboldt,TN,38343,USA,Southeast,,,Not Verified
Van's Comics & Cards,558 Highway 51,Ridgeland,MS,39157,USA,Southeast,,,Not Verified
Comics & Collectibles,4730 Poplar Street #2,Memphis,TN,38117,USA,Southeast,,,Not Verified
Rick's Comic City,1923 Madison St Suite H,Clarksville,TN,37043,USA,Southeast,,,Not Verified
Comic Connection,2128 Fort Campbell Boulevard,Clarksville,TN,37042,USA,Southeast,,,Not Verified
River Records,822 S Highland Street,Memphis,TN,38111,USA,Southeast,,,Not Verified
Comic Cellar,3620-2 Austin Peay Hwy.,Memphis,TN,38128,USA,Southeast,,,Not Verified
Heroes and Dreams,5352 Lakeland Suite #1700,Flowood,MS,39232,USA,Southeast,,,Not Verified
Hobby Crossing,2345 Russellville Rd,Bowling Green,KY,42101,USA,Southeast,,,Not Verified
Dungeon Comics,2424 E Matthews Avenue,Jonesboro,AR,72401,USA,Southeast,,,Not Verified
Galaxy Comics & Games,"2303 Stallings Lane East,",Jonesboro,AR,72401,USA,Southeast,,,Not Verified
Kapow Comics,4747 E. Kiehl Ave,Sherwood,AR,72012,USA,Southeast,,,Not Verified
Kapow Comics,4047 E. Kiehl Ave.,Sherwood,AR,72120,USA,Southeast,,,Not Verified
The Comic Book Store,3217 John F. Kennedy Blvd.,Little Rock,AR,72116,USA,Southeast,,,Not Verified
The Comic Book Store,9307 Treasure Hill Rd.,Little Rock,AR,72227,USA,Southeast,,,Not Verified
Crash Comics,130 Broadway Street,Paducah,KY,42001,USA,Southeast,,,Not Verified
Comic Gallery,1396 Irvin Cobb Drive,Paducah,KY,42003,USA,Southeast,,,Not Verified
Comix Strip,621 Broadway POB 1931,Cape Girardeau,MO,63701,USA,Midwest,,,Not Verified
Hastings,950 Highway 62 E,Mountain Home,AR,72653,USA,Southeast,,,Not Verified
americana hollywood museum,108 west 3rd st,metropolis,IL,62960,USA,Midwest,,,Not Verified
super museum and souvenir,517 market street,metropolis,IL,62960,USA,Midwest,,,Not Verified
Campus Comics,816 E.Main st ste b,Carbondale,IL,62901,USA,Midwest,,,Not Verified
Not Just Comix,339 W Main Street,Park Hills,MO,63601,USA,Midwest,,,Not Verified
The Book Exchange,501 E. DeYoung,Marion,IL,62959,USA,Midwest,,,Not Verified
Fantasy Limited,"112 W Center Street,",Madisonville,KY,42431,USA,Southeast,,,Not Verified
Pop Buzz,"502 South Main Street,",De Soto,MO,63020,USA,Midwest,,,Not Verified
Eclipse Books & Comics,"814 N Pine Street,",Rolla,MO,65401,USA,Midwest,,,Not Verified
Card Corner,106 Main Street,Festus,MO,63028,USA,Midwest,,,Not Verified
Main Street Music,108 N Market Street,Waterloo,IL,62298,USA,Midwest,,,Not Verified
Vintage Stock,2856 S. Glenstone,Springfield,MO,65804,USA,Midwest,,,Not Verified
AnImagination,6055 Telegraph Rd,Saint Louis,MO,63129,USA,Midwest,,,Not Verified
Comic Headquarters,4352 Telegraph Rd,St Louis,MO,63129,USA,Midwest,,,Not Verified
Fantasy Book Incorporated,1113 E Main St,Belleville,IL,62220,USA,Midwest,,,Not Verified
Missouri Comics,4323 W Chestnut Expressway,Springfield,MO,65802,USA,Midwest,,,Not Verified
Fantasy Shop Comics & Games,10560 Baptist Church,"St. Louis,",MO,63128,USA,Midwest,,,Not Verified
Twilight Comics,1a Bellevue Park Plz,Belleville,IL,62226,USA,Midwest,,,Not Verified
Twilight Games & Comics,"4600 N Belt W 1A,",Belleville,IL,62226,USA,Midwest,,,Not Verified
Vintage Stock,2940 W. Sunset,Springdale,AR,72764,USA,Southeast,,,Not Verified
Vintage Stock,2631 N. Kansas Expressway,Springfield,MO,65803,USA,Midwest,,,Not Verified
Vintage Stock,745 E. Joyce Blvd. Suite 120,Fayetteville,AR,72703,USA,Southeast,,,Not Verified
A A Paper Collectibles,1450 Frontage Road,O Fallon,IL,62269,USA,Midwest,,,Not Verified
Twilight Comics,3760 Green Mount Crossing Drive,O Fallon,IL,62269,USA,Midwest,,,Not Verified
All American Collectibles,6510 Chippewa St.,St. Louis,MO,63109,USA,Midwest,,,Not Verified
Legends Comics & Sports Cards,5850 Hampton Avenue,"Saint Louis,",MO,63109,USA,Midwest,,,Not Verified
Mo's Comics & Stories Shop,6510 Chippewa St,St Louis,MO,63109,USA,Midwest,,,Not Verified
Altered State Comics,671 Big Bend Rd,Manchester,MO,63021,USA,Midwest,,,Not Verified
Fantasy Shop Comics & Games,1937 Lincoln Trail (W. Hwy 50),O'Fallon,MO,62208,USA,Midwest,,,Not Verified
GEEK Out Inc,2 E 5th Street,Washington,MO,63090,USA,Midwest,,,Not Verified
The Book Broker,2717 Covert Ave,Evansville,IN,47714,USA,Midwest,,,Not Verified
Fantasy Shop,7238 Manchester RD,Saint Louis,MO,63143,USA,Midwest,,,Not Verified
Comic Relief Again,"15425 Manchester #8,",Ballwin,MO,63011,USA,Midwest,,,Not Verified
Fantasy Shop Comics & Games,8232 N. Lindbergh Blvd,"Florissant,",MO,63032,USA,Midwest,,,Not Verified
Hawghead Comics,1600 S. Greenwood Ave.,Fort Smith,AR,72901,USA,Southeast,,,Not Verified
Star Clipper,6392 Delmar in the Loop,Saint Louis,AL,63130,USA,Southeast,,,Not Verified
Comic Quest,2260 E Morgan Avenue,Evansville,IN,47711,USA,Midwest,,,Not Verified
Comics Unlimited,654 E. Diamond Avenue #B,Evansville,IN,47711,USA,Midwest,,,Not Verified
Vintage Stock,4505 W. Walnut,Rogers,AR,72756,USA,Southeast,,,Not Verified
Fantasy Limited,"507 E 18th Street,",Owensboro,KY,42303,USA,Southeast,,,Not Verified
Dizzy Dugout Cards & Comics,"121 E Main Street,",Collinsville,IL,62234,USA,Midwest,,,Not Verified
Newcastle Comics & Games,2294 McKelvey Road,Maryland Heights,MO,63043,USA,Midwest,,,Not Verified
Magic Comics & Hobbies,727 Robert Blvd,Slidell,LA,70458,USA,Southeast,,,Not Verified
Axtion Comics Cards Games,2200 N Highway 190 # A,Covington,LA,70433,USA,Southeast,,,Not Verified
School of Comics,2981 B Highway 190,Mandeville,LA,70471,USA,Southeast,,,Not Verified
Baker Comics,9930 Florida Blvd,Baton Rouge,LA,70815,USA,Southeast,,,Not Verified
Louisiana Double Play,2834 S Sherwood Frst # C5,Baton Rouge,LA,70816,USA,Southeast,,,Not Verified
School of Comics,660 Jefferson Highway,Baton Rouge,LA,70806,USA,Southeast,,,Not Verified
Walley's Pop Comics,"711 Jefferson Highway, Suite #7",Baton Rouge,LA,70806,USA,Southeast,,,Not Verified
Galactic Goods Cards & Comics,343 West Esplanade Avenue,Kenner,LA,70065,USA,Southeast,,,Not Verified
Media Underground Comics,4524 Shores Dr # 13,Metairie,LA,70006,USA,Southeast,,,Not Verified
BSI Comics,3030 Severn Ave # 7,Metairie,LA,70002,USA,Southeast,,,Not Verified
More Fun Comics,8200 Oak Street,New Orleans,LA,70118,USA,Southeast,,,Not Verified
Terrytown Cards & Comics,506 Terry Pkwy # B1,Terrytown,LA,70056,USA,Southeast,,,Not Verified
and Books Too,3315 Johnston St,Lafayette,LA,70503,USA,Southeast,,,Not Verified
2nd and Charles,2001 Airline Drive,Bossier City,LA,71111,USA,Southeast,,,Not Verified
Excalibur,937 E 70th St.,Shreveport,LA,71106,USA,Southeast,,,Not Verified
Pet Shop,1191 Hillview Blvd,Louisville,KY,40229,USA,Southeast,,,Not Verified
Zone Comic Shop,291 N. Hubbards Lane,Louisville,KY,40207,USA,Southeast,,,Not Verified
Comic Book World,6905 Shepherdsville Road,Louisville,KY,40219,USA,Southeast,,,Not Verified
Comic Vault,450 N Dixie Blvd,Radcliff,KY,40160,USA,Southeast,,,Not Verified
Comic Carnival,7311 US 31 South,Indianapolis,IN,46227,USA,Midwest,,,Not Verified
Downtown Comics,8925 S. Meridian St.,Indianapolis,IN,46217,USA,Midwest,,,Not Verified
Comic Carnival,9729 E. Washington St.,Indianapolis,IN,46229,USA,Midwest,,,Not Verified
Downtown Comics,11 E. Market St.,Indianapolis,IN,46204,USA,Midwest,,,Not Verified
Dee Puppy Comics,4435 N. Franklin St.,Indianapolis,IN,46226,USA,Midwest,,,Not Verified
Comic Carnival,3837 N. High School Rd.,Indianapolis,IN,46254,USA,Midwest,,,Not Verified
Downtown Comics,5767 E. 86th St.,Indianapolis,IN,46250,USA,Midwest,,,Not Verified
Downtown Comics,8336 W. 10th St.,Indianapolis,IN,46234,USA,Midwest,,,Not Verified
Circle City Comics,3454 West 86th Street,Indianapolis,IN,46268,USA,Midwest,,,Not Verified
Comic Carnival,7225 N. Keystone Ave.,Indianapolis,IN,46240,USA,Midwest,,,Not Verified
Danger Room Games & Comics,2213 S. Scatterfield Rd,Anderson,IN,46016,USA,Midwest,,,Not Verified
Reader Copies,1610 S Scatterfield Road,Anderson,IN,46016,USA,Midwest,,,Not Verified
Atomic Comics,120 N Mulberry St,Muncie,IN,47305,USA,Midwest,,,Not Verified
Aw yea comics,107 N High St,Muncie,IN,47305,USA,Midwest,,,Not Verified
Alter Ego Comics,442 E. McGalliard,Muncie,IN,47303,USA,Midwest,,,Not Verified
Bob's Comic Castle,2150 W White River Blvd,Muncie,IN,47303,USA,Midwest,,,Not Verified
Temporal Comics and Sci-Fi,2225 Westwood Sq.,Marion,IN,46952,USA,Midwest,,,Not Verified
BlueMoon Comics Strikes Back,20 1/2 South 16th Street,Lafayette,IN,47906,USA,Midwest,,,Not Verified
Von's Comics,317 W State St,West Lafayette,IN,47906,USA,Midwest,,,Not Verified
Books Comics and Things,5936 West Jefferson Blvd,Fort Wayne,IN,46804,USA,Midwest,,,Not Verified
Summit Sports Comics & Games,4240 W Jefferson Blvd Ste M-8,Fort Wayne,IN,46804,USA,Midwest,,,Not Verified
Books Comics and Things,2212 Maplecrest Rd,Fort Wayne,IN,46815,USA,Midwest,,,Not Verified
The Other Realm,506 East Green Street,Champaign,IL,61820,USA,Midwest,,,Not Verified
Capital Comics and Games,"1135 West Wood Street, Suite 4",Decatur,IL,62522,USA,Midwest,,,Not Verified
Nostalgia Ink,135 E Michigan Ave,Jackson,MI,49201,USA,Midwest,,,Not Verified
The Collector's Zone,1425 Wildwood Ave,Jackson,MI,49201,USA,Midwest,,,Not Verified
Hero Quest Comics and Games,2608 E Grand River Ave,Howell,MI,48843,USA,Midwest,,,Not Verified
BC Comix of Battle Creek,673 Capital Ave SW,Battle Creek,MI,49015,USA,Midwest,,,Not Verified
Discount Hobbie,5700 Beckley Road,Battle Creek,MI,49015,USA,Midwest,,,Not Verified
Titan Games,637 Capital Ave SW,Battle Creek,MI,49015,USA,Midwest,,,Not Verified
Fanfare Sports & Entertainment,4415 S Westnedge Ave,Kalamazoo,MI,49001,USA,Midwest,,,Not Verified
Rocket Comics,4235 Portage Street,Kalamazoo,MI,49001,USA,Midwest,,,Not Verified
21st Century Comics & Games,515 E Grand River Ave,East Lansing,MI,48823,USA,Midwest,,,Not Verified
Capital City Collectibles,1723 E Michigan Ave,Lansing,MI,48912,USA,Midwest,,,Not Verified
Just 4 Fun Hobbies & Comics,300 North Clippert St,Lansing,MI,48912,USA,Midwest,,,Not Verified
Clem's Collectibles,212 S. Washington Square,Lansing,MI,48933,USA,Midwest,,,Not Verified
Comic Doses,3602 Grape Rd. Suite 3,Mishawaka,IN,46545,USA,Midwest,,,Not Verified
Buy Me Toys.Com,6327A University Commons,South Bend,IN,46635,USA,Midwest,,,Not Verified
Tardy's Underground Comics & Collectibles,228 1/2 Trowbridge St,Allegan,MI,49010,USA,Midwest,,,Not Verified
Galactic Greg's,1407 ELincolnway,Valparaiso,IN,46383,USA,Midwest,,,Not Verified
Lightspeed Hobbies,5884 US Hwy 6,Portage,IN,46368,USA,Midwest,,,Not Verified
Apparitions Comics & Books,2757 Ridgemoor Dr. SE,Grand Rapids,MI,49512,USA,Midwest,,,Not Verified
Rookies Sportscards Plus,106 W. Main St.,Lowell,MI,49331,USA,Midwest,,,Not Verified
Goldmine Comics Cards & Collec,65 54th St SW,Wyoming,MI,49548,USA,Midwest,,,Not Verified
Amazing Fantasy Books and Comi,1926 N Main St,Crown Point,IN,46307,USA,Midwest,,,Not Verified
Amazing Fantasy Books & Comics,20523 S. La Grange Rd.,Frankfort,IL,60423,USA,Midwest,,,Not Verified
Acme Comics,115 North Street,Normal,IL,61761,USA,Midwest,,,Not Verified
Amazing Fantasy Books & Comics,1128 S. State St,Lockport,IL,60441,USA,Midwest,,,Not Verified
Graham Crackers Comics,120 N. Bolingbrook Dr.,Bolingbrook,IL,60440,USA,Midwest,,,Not Verified
Aaalways Buying Older Comics,25 E Washington St,Chicago,IL,60602,USA,Midwest,,,Not Verified
Amazing Fantasy Books & Comics,582 Torrence Avenue,Calumet City,IL,60409,USA,Midwest,,,Not Verified
Atlas Comics,4735 N Cumberland,Norridge,IL,60706,USA,Midwest,,,Not Verified
Chicago Comics,3244 N. Clark Street,"Chicago, IL",IL,60657,USA,Midwest,,,Not Verified
Evil Squirrel Comics,6928 N Glenwood Ave,Chicago,IL,60626,USA,Midwest,,,Not Verified
G-Mart Comics,2760 N Milwaukee Ave,Chicago,IL,60647,USA,Midwest,,,Not Verified
Galaxy Comic Zone,3804 N Western Ave,Chicago,IL,60618,USA,Midwest,,,Not Verified
Graham Cracker Comics,3162 N. Broadway,Chicago,IL,60657,USA,Midwest,,,Not Verified
Graham Crackers Comics,77 E. Madison St,Chicago,IL,60602,USA,Midwest,,,Not Verified
Graham Crackers Comics,2562 N Clark Street,Chicago,IL,60614,USA,Midwest,,,Not Verified
One Stop Comics,111 S Ridgeland Ave,Chicago,IL,60302,USA,Midwest,,,Not Verified
Variety Comic Book Store,4602 N Western Ave,Chicago,IL,60625,USA,Midwest,,,Not Verified
Hobby Horse-Emmerlings,208 W Market Street,Taylorville,IL,62568,USA,Midwest,,,Not Verified
Graham Crackers Comics,1550 Ogden Ave.,Downers Grove,IL,60515,USA,Midwest,,,Not Verified
Graham Cracker Comics,"1271 Rickert Dr., Suite #135",Naperville,IL,60540,USA,Midwest,,,Not Verified
Graham Crackers Comics,1271 Rickert Dr. Suite 135,Naperville,IL,60540,USA,Midwest,,,Not Verified
Graham Crackers Comics,1207 E. Butterfield Rd.,Wheaton,IL,60187,USA,Midwest,,,Not Verified
Comix Revolution,606 Davis Street,Evanston,IL,60201,USA,Midwest,,,Not Verified
Heroines and Heroes,1129 Central,Wilmette,IL,60091,USA,Midwest,,,Not Verified
Prairie Archives,"522 E Adams Street,",Springfield,IL,62701,USA,Midwest,,,Not Verified
Comix Revolution,115 West Central Road,Mount Prospect,IL,60056,USA,Midwest,,,Not Verified
Comic Service,1000 E Stanford Avenue,1000 E Stanford Avenue,IL,62703,USA,Midwest,,,Not Verified
Reader's World,1830 Stevenson Drive,"Springfield,",IL,62703,USA,Midwest,,,Not Verified
Hero Headquarters,1530 Lake Cook Road,Wheeling,IL,60090,USA,Midwest,,,Not Verified
Killen's Games - Comics - Toys,2501 Wabash Ave ste a12c,Springfield,IL,62704,USA,Midwest,,,Not Verified
Metropolis Comics,821 First St,La Salle,IL,61301,USA,Midwest,,,Not Verified
Amazing Fantasy Books & Comics,15948 S. Harlem,Tinley Park,IL,60477,USA,Midwest,,,Not Verified
Graham Crackers Comics,610 S. Randall Rd.,St. Charles,IL,60174,USA,Midwest,,,Not Verified
Acme Books & Comics,2218 W Glen Ave,Peoria,IL,61614,USA,Midwest,,,Not Verified
Acme Comics,2218 West Glen Ave,Peoria,IL,61614,USA,Midwest,,,Not Verified
Graham Crackers Comics,901C Lucinda Ave.,DeKalb,IL,60115,USA,Midwest,,,Not Verified
Dreamland Comics,105 W Rockland Road,Libertyville,IL,60048,USA,Midwest,,,Not Verified
Heroic Adventures?,2131 S State Route 157,Edwardsville,IL,62025,USA,Midwest,,,Not Verified
Hometown Comics & Games,110 E. Vandalia,Edwardsville,IL,62025,USA,Midwest,,,Not Verified
Rockheads Comics & Games,2225 63rd St,Kenosha,WI,53143,USA,Midwest,,,Not Verified
Heroes and Dreams LLC,3020 Roosevelt Rd,Kenosha,WI,53142,USA,Midwest,,,Not Verified
White Cap Comics,1120 Burton St SW,Wyoming,MI,49509,USA,Midwest,,,Not Verified
Tardy's Collectors Corner Inc,2009 Eastern Ave Se,Grand Rapids,MI,49507,USA,Midwest,,,Not Verified
Magnum Opus Comic and Video,1422 Wealthy St SE,Grand Rapids,MI,49506,USA,Midwest,,,Not Verified
Kyle's Baseball Cards & Comics,3801 Nameoki Road,"Saint Louis,",MO,62040,USA,Midwest,,,Not Verified
Legendary Comics,5200 Washington Ave Suite 113,Racine,WI,53406,USA,Midwest,,,Not Verified
Vault of Comics and Toys,1626 Rapids Drive,Racine,WI,53404,USA,Midwest,,,Not Verified
Clyde's Comic & Fantasy Sho[,1528 Broadway,Rockford,IL,61104,USA,Midwest,,,Not Verified
White Cap Comics,3916 W River Dr NE,Comstock Park,MI,49321,USA,Midwest,,,Not Verified
"Tomorow Is Yesterday, INC",5600 N 2nd St,Loves Park,IL,61111,USA,Midwest,,,Not Verified
Top Cut Comics,"5600 N 2nd St, Loves Park,",Loves park,IL,61111,USA,Midwest,,,Not Verified
Fantasy Shop Comics,8232 N Lindbergh Blvd,Florissant,MO,63031,USA,Midwest,,,Not Verified
AnImagination,5555 St. Louis Mills Blvd.,Hazelwood,MO,63042,USA,Midwest,,,Not Verified
"Board Game Barrister, LLC",2235 S. Kinnickinnic Ave,Milwaukee,WI,53207,USA,Midwest,,,Not Verified
Cosmic Collectibles,5343 W. Forest Home Ave,Milwaukee,WI,53220,USA,Midwest,,,Not Verified
Lange's Comics & Collectibles,"The Lakes Mall, 5600 Harvey St, Muskegon, MI 49444",Muskegon,MI,49444,USA,Midwest,,,Not Verified
Belich's Nostalgia World,8228 W Lincoln Ave,Milwaukee,WI,53219,USA,Midwest,,,Not Verified
Collectors' Edge Comics,6830 W Lincoln Ave,Milwaukee,WI,53219,USA,Midwest,,,Not Verified
Lost World of Wonders,6913 W Oklahoma Ave,Milwaukee,WI,53219,USA,Midwest,,,Not Verified
Collectors Edge Comics,1804 N Farwell Ave,Milwaukee,WI,53202,USA,Midwest,,,Not Verified
Collectors Edge Comics,2330 S. Kinnickinnic Ave,Milwaukee,WI,53202,USA,Midwest,,,Not Verified
Downtown Books Bought & Sold,327 E Wisconsin Ave,Milwaukee,WI,53202,USA,Midwest,,,Not Verified
F-5 Comics,8118 W National Ave,West Ellis,WI,53214,USA,Midwest,,,Not Verified
A K Comics,2000 Sutler Ave,Beloit,WI,53511,USA,Midwest,,,Not Verified
The Turning Page,2452 N. Murray Ave,Milwaukee,WI,53211,USA,Midwest,,,Not Verified
Neptune Comics,141 E Sunset Dr,Waukesha,WI,53189,USA,Midwest,,,Not Verified
Lake Country Comics,W229N1870 Westwood Dr,Waukesha,WI,53186,USA,Midwest,,,Not Verified
Comic Relief,2224 N 3rd ST,St Charles,MO,63301,USA,Midwest,,,Not Verified
Fantasy Shop Comics & Games,2426 West Clay,St. Charles,MO,63301,USA,Midwest,,,Not Verified
Mid Town,401 Clark Street,Saint Charles,MO,63301,USA,Midwest,,,Not Verified
Collector's Edge Comics,7826 W Burleigh St,Milwaukee,WI,53222,USA,Midwest,,,Not Verified
Cavalry Game and Hobby,511 E. Silver Spring Dr.,Milaukee,WI,53217,USA,Midwest,,,Not Verified
Galaxy Comics,2616 State St,Saginaw,MI,48602,USA,Midwest,,,Not Verified
Coy's Comics,3100 Enterprise Dr,Saginaw,MI,48603,USA,Midwest,,,Not Verified
Coy's Comics,3220 Bay Rd,Saginaw,MI,48603,USA,Midwest,,,Not Verified
Coy's Comics,2735 Bay Road,Sgianaw,MI,48603,USA,Midwest,,,Not Verified
Cashman's Comics,1018 S Madison Ave,Bay City,MI,48708,USA,Midwest,,,Not Verified
Collector's Corner Inc.,4011 Jefferson Ave,Midland,MI,48640,USA,Midwest,,,Not Verified
Vault 302 Comics,302 W Houghton Ave,West Branch,MI,48661,USA,Midwest,,,Not Verified
Ryan's Card & Coin,18 1/2 W Main,Fremont,MI,49412,USA,Midwest,,,Not Verified
The Comic Book E.R.,1037 N. Mitchell St.,Cadillac,MI,49601,USA,Midwest,,,Not Verified
Top Of The Ninth,516 E 8TH STREET,Traverse City,AL,49686,USA,Southeast,,,Not Verified
Green Dragon Comics & More,918 Ludington St,Escanaba,MI,49829,USA,Midwest,,,Not Verified
Great Escape Mark's Comics,340 N Military Ave,Green Bay,WI,54303,USA,Midwest,,,Not Verified
Gnome Games,2160 Ridge Road,Green Bay,WI,54304,USA,Midwest,,,Not Verified
Powers Comics & Collectibles,2300 S Oneida St,Green Bay,WI,54304,USA,Midwest,,,Not Verified
Stargate Comics & Cards,1241 Bellevue St,Green Bay,WI,54302,USA,Midwest,,,Not Verified
Johnny Cee Cards,2005 Grand Ave,Wausau,WI,54403,USA,Midwest,,,Not Verified
Power House Comics,807 W College Ave,Appleton,WI,54914,USA,Midwest,,,Not Verified
"Galaxy Comics, Games, & More",925 Clark St,Stevens Point,AL,54481,USA,Southeast,,,Not Verified
My Parent's Basement,721 Franklin St,Manitowoc,WI,54220,USA,Midwest,,,Not Verified
POWER HOUSE COMICS,807 W. COLLEGE AVE.,"APPLETON, WI",WI,54956,USA,Midwest,,,Not Verified
Galaxy Hobby,2626 Post Rd,Plover,WI,54467,USA,Midwest,,,Not Verified
House of Heroes,407 N Main St,Oshkosh,WI,54901,USA,Midwest,,,Not Verified
Chimera Comics & Cards,820A S Main St,Fond Du Lac,WI,54935,USA,Midwest,,,Not Verified
Planet X Collectibles,1309 Wisconsin Ave,Grafton,WI,53024,USA,Midwest,,,Not Verified
M L Comics,180 S Main St,Thiensville,WI,53092,USA,Midwest,,,Not Verified
Cardinal Comics & Collectibles,111 Ludington Street,Columbus,WI,53925,USA,Midwest,,,Not Verified
"Comic Haven, LLC",705 North Church Street,Watertown,WI,53098,USA,Midwest,,,Not Verified
Clairemont Comics,2543 E Clairemont Ave,Eau Claire,WI,54701,USA,Midwest,,,Not Verified
Clairemont Comics,2443 E. Clairemont Ave,Eau Claire,WI,54701,USA,Midwest,,,Not Verified
Eau Claire Comics & Collectibl,1044 Main St,Eau Claire,WI,54701,USA,Midwest,,,Not Verified
Arcade Comics,N90W16933 Appleton Ave,Menomonee Falls,WI,53051,USA,Midwest,,,Not Verified
Kowabunga Comics,102 N Main St,Oconomowoc,WI,53066,USA,Midwest,,,Not Verified
Frugal Muse East,1193 N. Sherman Ave,Madison,WI,53704,USA,Midwest,,,Not Verified
Half Price Books,4250 E Towne Blvd,Madison,WI,53704,USA,Midwest,,,Not Verified
Prairie Comics and Books,585 N. Main St.,Cottage Grove,WI,53527,USA,Midwest,,,Not Verified
20th Century Books,1421 South Park #200,Madison,WI,53715,USA,Midwest,,,Not Verified
Planet Chaos,1117 Whitewater Ave,Fort Atkinson,WI,53538,USA,Midwest,,,Not Verified
Capital City Comics,1910 Monroe St,Madison,WI,53711,USA,Midwest,,,Not Verified
Half Price Books,626 S Whitney Way,Madison,WI,53711,USA,Midwest,,,Not Verified
The Book Exchange,7260 Ros St.,La Crosse,WI,54603,USA,Midwest,,,Not Verified
Frugal Muse West,7475 Mineral Point Rd,Madison,WI,53717,USA,Midwest,,,Not Verified
Westfield's Comics,7575 Mineral point Road,Madison,WI,53717,USA,Midwest,,,Not Verified
"Jimmyjams Comcs, Cards & Games",113 E. 3rd Street,Winona,MN,55987,USA,Midwest,,,Not Verified
Kryptonite Kollectibles,3000 Milton Ave #104,Janesville,WI,53545,USA,Midwest,,,Not Verified
Cup O Kryptonite,4521 Fleur Dr # F,Des Moines,IA,50321,USA,Midwest,,,Not Verified
Dragon Fire Comics,1800 NW 86th St # 3,Clive,WI,50325,USA,Midwest,,,Not Verified
Mayhem Collectibles Inc,7500 University Ave # D,Des Moines,IA,50325,USA,Midwest,,,Not Verified
Shield Comics,309 Main street,Ames,IA,50010,USA,Midwest,,,Not Verified
Mayhem Collectible Inc,2532 Lincoln Way,Ames,IA,50014,USA,Midwest,,,Not Verified
Spud's Emporium of Comics & Ga,225 E. Main Street,Ottumwa,IA,52501,USA,Midwest,,,Not Verified
Limited Edition Comics,2225 College St,Cedar Falls,IA,50613,USA,Midwest,,,Not Verified
Oak Leaf Comics,1926 Valley Park Drive,Cedar Falls,IA,50613,USA,Midwest,,,Not Verified
CR Collectibles,529 5th Ave. SE,Cedar Rapids,IA,52401,USA,Midwest,,,Not Verified
Now & Then,"1314 4th st SW, Suite 130",Mason City,IA,50401,USA,Midwest,,,Not Verified
Oak Leaf Comics & Collectibles,25 5th Street SW,Mason City,IA,50401,USA,Midwest,,,Not Verified
Daydream Comics,21 S. Dubuque Street,Iowa City,IA,52240,USA,Midwest,,,Not Verified
Alter Ego Comics,331 7th Ave.,Marion,IA,52302,USA,Midwest,,,Not Verified
Majestic Comic & Coin,709 Lake Ave.,Storm Lake,IA,50588,USA,Midwest,,,Not Verified
Kanesville Kollectibles,530 S. 4th Street,Council Bluffs,IA,51503,USA,Midwest,,,Not Verified
Comic City,1720 N. 16th Street,Council Bluffs,IA,51501,USA,Midwest,,,Not Verified
Anarchy Comics & Games,1212 Howard St,Omaha,NE,68102,USA,Midwest,,,Not Verified
Legend Comics,5131 Leavenworth St,Omaha,NE,68106,USA,Midwest,,,Not Verified
Legend Comics and Coffee,5207 Leavenworth Street,Omaha,NE,68106,USA,Midwest,,,Not Verified
Dragon's Lair Comics,8316 Blondo St,Omaha,NE,68134,USA,Midwest,,,Not Verified
Ground Zero Comics,5701 S 77th St,Omaha,NE,68127,USA,Midwest,,,Not Verified
Krypton Comics,2819 S 125th Ave,Omaha,NE,68144,USA,Midwest,,,Not Verified
Dragon's Lair Comics,5022 S 153rd St,Omaha,NE,68137,USA,Midwest,,,Not Verified
EntertainMart,605 N. Belt,St. Joseph,MO,64506,USA,Midwest,,,Not Verified
Midwest Collectibles,3504 Hickory Grove Road,Davenport,IA,52806,USA,Midwest,,,Not Verified
Mellow Blue Planet,2212 5th Ave,Rock Island,IL,61201,USA,Midwest,,,Not Verified
The ComiQ RaCk,2715 18th Ave,Rock Island,IL,61201,USA,Midwest,,,Not Verified
Tim√¢‚Ç¨‚Ñ¢s Corner,1303 30th St,Rock Island,IL,61201,USA,Midwest,,,Not Verified
Comic World and Things,2255 John F Kennedy Road,Asbury,IA,52002,USA,Midwest,,,Not Verified
Acme Comics & Collectibles,1622 Pierce St,Sioux City,IA,51105,USA,Midwest,,,Not Verified
Superstars and Superheroes,1527 N Harrison St,Davenport,IA,52803,USA,Midwest,,,Not Verified
In This Issue Comics,3796 State St,Bettendorf,IA,52722,USA,Midwest,,,Not Verified
Double Play,1401 Madison Avenue,Mankato,MN,56001,USA,Midwest,,,Not Verified
Comic World,719 B Street #Q,Lincoln,NE,68504,USA,Midwest,,,Not Verified
Vintage Stock,"1918 Star Drive, St A",Liberty,MO,64068,USA,Midwest,,,Not Verified
Book Review,1618 Hwy 52 N,Rochester,MN,55901,USA,Midwest,,,Not Verified
Jimmyjams Comics & Games,1611 N. Broadway,Rochester,MN,55906,USA,Midwest,,,Not Verified
Comic Cavern,5404 NW 64th St,Kansa City,MO,64151,USA,Midwest,,,Not Verified
Friendly Frank's Comic Cavern,5404 N.w. 64th St.,Kansas City,MO,64151,USA,Midwest,,,Not Verified
Vintage Stock,4163 Sterling Ave,Kansas City,MO,64133,USA,Midwest,,,Not Verified
B-Bop Comics,3940 Main St,"Kansas City, Mo",MO,64111,USA,Midwest,,,Not Verified
Clint's Books Comics & Games,3941 Main St,Kansa City,MO,64111,USA,Midwest,,,Not Verified
Clints Books Comics & Games,3941 Main Street,Kansas City,MO,64111,USA,Midwest,,,Not Verified
Half Price Books,1002 Westport Rd,Kansas City,MO,64111,USA,Midwest,,,Not Verified
Pulp Fiction Comics & Games,298 Sw Blue Pkwy,Lee's Summit,MO,64063,USA,Midwest,,,Not Verified
Vintage Stock,12280 Shawnee Mission Pky,Shawnee,KS,66216,USA,Midwest,,,Not Verified
Big John's Cards & Collectible,"6401 Highway 40 West,",Columbia,MO,65202,USA,Midwest,,,Not Verified
B-Bop Comics South,5336 W 95th St,"Prairie Village, KS",KS,66207,USA,Midwest,,,Not Verified
Half Price Books,8997 Metcalf Ave,Overland Park,KS,66212,USA,Midwest,,,Not Verified
Pop Culture Comix,9337 W 87th Street,Overland Park,KS,66212,USA,Midwest,,,Not Verified
Vintage Stock,9200 Metcalf Ave,Overland Park,KS,66212,USA,Midwest,,,Not Verified
The Battlezone,11752 W 95th St,Overland Park,KS,66214,USA,Midwest,,,Not Verified
LK Sports Cards & Comics,2457 33rd Ave. #A,Columbus,NE,68601,USA,Midwest,,,Not Verified
Elite Comics,11842 Quivira Road,Overland Park,KS,66210,USA,Midwest,,,Not Verified
Alpha Comics & Games,"120 W Pine Street,","Warrensburg,",MO,64093,USA,Midwest,,,Not Verified
Distant Planet Comics,601 Business Loop 70 W #263,Columbia,MO,65203,USA,Midwest,,,Not Verified
Vintage Stock,8416 W. 135th St.,Overland Park,KS,66223,USA,Midwest,,,Not Verified
Rock Bottom Comics,1029 E Walnut St,Columbia,MO,65201,USA,Midwest,,,Not Verified
World of Games,20777 Holyoke Avenue,Lakeville,MN,55044,USA,Midwest,,,Not Verified
Half Price Books,15309 W 119th St,Olathe,KS,66062,USA,Midwest,,,Not Verified
Vintage Stock,902-A East North Avenue,Belton,MO,64012,USA,Midwest,,,Not Verified
Game Zone Comics & Games,"229 S Ohio Avenue,",Sedalia,MO,65301,USA,Midwest,,,Not Verified
Dragon's Den,2517 S Shirley Ave,Sioux Falls,SD,57106,USA,Midwest,,,Not Verified
Fenix Comix,361 Legend Ln,Peculiar,MO,64078,USA,Midwest,,,Not Verified
Astrokitty Comics & More,"Suite 201 15 E 7th St, Lawrence, KS 66044",Lawrence,KS,66044,USA,Midwest,,,Not Verified
Kwality Comics,1111 Massachusetts St,Lawrence,KS,66044,USA,Midwest,,,Not Verified
Comic Market,1507 SW 21st St,Topeka,KS,66604,USA,Midwest,,,Not Verified
Gatekeeper Hobbies,4123 SW Gage Center Dr # 100,Topeka,KS,66604,USA,Midwest,,,Not Verified
CEDAR CLIFF COLLECTIBLES,1960 Cliff Lake Road,Eagan,MN,55122,USA,Midwest,,,Not Verified
Mind's Eye Comics,1565 Cliff Road Suite 2,Eagan,MN,55122,USA,Midwest,,,Not Verified
Captain Jack's Comics,8730 Lyndale Ave S,Bloomington,MN,55420,USA,Midwest,,,Not Verified
Hot Comics & Collectibles,66090 Nicollet Ave,Richfield,MN,55423,USA,Midwest,,,Not Verified
ABC Cards -N-Comics,309 E. College Dr.,Marshall,MN,56258,USA,Midwest,,,Not Verified
Comic Book College,3145 Hennepin Ave,Minneapolis,MN,55408,USA,Midwest,,,Not Verified
Dreamhaven Books & Comics,912 W Lake St,Minneapolis,MN,55408,USA,Midwest,,,Not Verified
Nostalgia Zone Comic Store,3151 Hennepin Avenue South,Minneapolis,MN,55408,USA,Midwest,,,Not Verified
Midway Books,1579 University Ave W,St. Paul,MN,55104,USA,Midwest,,,Not Verified
Big Brain Comics,1027 Washington Ave S,Minneapolis,MN,55415,USA,Midwest,,,Not Verified
Hot Comics & Collectibles,3532 Winnetka Ave. N.,New Hope,MN,55427,USA,Midwest,,,Not Verified
Source Comics & Games,1601 W. Larpenteur Ave,Falcon Heights,MN,55113,USA,Midwest,,,Not Verified
Antiquarium Books,504 E High St,Jefferson City,MO,65101,USA,Midwest,,,Not Verified
Twin City Comics,3954 Central Ave,Columbia Heights,MN,55421,USA,Midwest,,,Not Verified
Comic book Relief,1155 Wentzville Pky #121,Wentzville,MO,63385,USA,Midwest,,,Not Verified
Granite City Comic,125 5th Ave S,St. Cloud,MN,56301,USA,Midwest,,,Not Verified
Granite City Comics & Games,"514 W St Germain St, , MN 56301",St Cloud,MN,56301,USA,Midwest,,,Not Verified
Comic Junction,2502 S University Dr Suite E,Fargo,ND,58103,USA,Midwest,,,Not Verified
Paradox Cards 'n' Comics,26 Roberts St,Fargo,ND,58102,USA,Midwest,,,Not Verified
Storyteller Comics & Games,520 6th St,Rapid City,SD,57701,USA,Midwest,,,Not Verified
nine8culture,123 E Jackson Blvd Ste 1,Spearfish,SD,57783,USA,Midwest,,,Not Verified
Action Jackson Comics,"402 E Main Street, Suite 800",Bismark,ND,58501,USA,Midwest,,,Not Verified
Collectors Universe,111 S. 5th Street,Bismarck,ND,58501,USA,Midwest,,,Not Verified
Force of Habit Hobby Shop,9 Central Ave. E.,Minot,ND,58701,USA,Midwest,,,Not Verified
Barry's Collectors Corner,1726 S Washington St,Grand Forks,ND,58201,USA,Midwest,,,Not Verified
Grand Cities Games,102 N Washington,Grand Forks,ND,58201,USA,Midwest,,,Not Verified
Grand Cities Games,209 N 5th St,Grand Forks,ND,58203,USA,Midwest,,,Not Verified
Kelly's Komix,1221 10th Ave S,Great Falls,MT,59405,USA,West,,,Not Verified
Full Speed Comics,16 North 9th Avenue,Bozeman,MT,59715,USA,West,,,Not Verified
Muse Comics,2100 Stephens #107,Missoula,MT,59801,USA,West,,,Not Verified
Rook's Comics and Games,2622 West Main Street,Bozeman,MT,59718,USA,West,,,Not Verified
Big Sky Comics & Collectibles,323 24th St W # C,Billings,MT,59102,USA,West,,,Not Verified
The Splash Page,2545 Central Avenue Suite C,Billings,MT,59102,USA,West,,,Not Verified
Lightning Comics Inc,411 W Haycraft Ave # C1,Coeur D Alene,ID,83815,USA,West,,,Not Verified
The Comic Book Shop,Spokane Valley Mall,Spokane,WA,99216,USA,West,,,Not Verified
Hurley's Heroes,824 S. Main,Joplin,MO,64801,USA,Midwest,,,Not Verified
Vintage Stock,3120 S. Main Ste. 7,Joplin,MO,64804,USA,Midwest,,,Not Verified
Comics & Games Warehouse,1123 E Pawnee St,Wichita,KS,67211,USA,Midwest,,,Not Verified
Time Warp,209 S Comanche Avenue,Bartlesvill,OK,74003,USA,Southwest,,,Not Verified
Agents of Coimcs,601 N West St,Wichita,KS,67203,USA,Midwest,,,Not Verified
Agents of Comics,924 W Douglas Ave,Wichita,KS,67203,USA,Midwest,,,Not Verified
Prairie Dog Comics,4800 W Maple St # 122,Wichita,KS,67209,USA,Midwest,,,Not Verified
Prairie Dog Comics,4800 W Maple St #122,Wichita,KS,67209,USA,Midwest,,,Not Verified
Rattman's Comics,104 S Cherokee Avenue,Claremore,OK,74017,USA,Southwest,,,Not Verified
Hall of Heroes,119 E Grand Avenue,Ponca City,OK,74601,USA,Southwest,,,Not Verified
Vintage Stock,2409 W. Kenosha,Broken Arrow,OK,74012,USA,Southwest,,,Not Verified
Mammoth Comics,4616 E 11th St.,Tulsa,OK,74112,USA,Southwest,,,Not Verified
Vintage Stock,9045 North 121 East Avenue,Owasso,OK,74055,USA,Southwest,,,Not Verified
Castle Comics & Gaming,3015 S Sheridan Rd,Tulsa,OK,74129,USA,Southwest,,,Not Verified
Comic Empire of Tulsa,3122 S Mingo Rd,Tulsa,OK,74146,USA,Southwest,,,Not Verified
Comic Empire of Tulsa,3122 S Mingo Road,Tulsa,OK,74146,USA,Southwest,,,Not Verified
Vintage Stock,5353 E. 41st,Tulsa,OK,74135,USA,Southwest,,,Not Verified
World of Comics,5623 E 41st St,Tulsa,OK,74135,USA,Southwest,,,Not Verified
8222 E 103rd Street,Star Base 21,8222 E 103rd Street 134,OK,74133,USA,Southwest,,,Not Verified
Star Base 21,8222 E. 103RD ST. # 134,Tulsa,OK,74133,USA,Southwest,,,Not Verified
Vintage Stock,6808 S. Memorial,Tulsa,OK,74133,USA,Southwest,,,Not Verified
Wizard Asylum Comics,7165 S Mingo Rd,Tulsa,OK,74133,USA,Southwest,,,Not Verified
Links Comic Shop,108 E Peak Boulevard,Muskogee,OK,74403,USA,Southwest,,,Not Verified
Legendary Comics,221 S Perkins Road,Stillwater,OK,74074,USA,Southwest,,,Not Verified
A I Comics,"701 W Edmond Rd, Ste G",Edmond,OK,73003,USA,Southwest,,,Not Verified
All Star Comics,6900 N May Ave # 10A,Oklahoma City,OK,73116,USA,Southwest,,,Not Verified
All-Star Comics,6900 North May Avenue,Oklahoma City,OK,73116,USA,Southwest,,,Not Verified
New World Comics,6219 N Meridian Ave,Oklahoma City,OK,73112,USA,Southwest,,,Not Verified
Vintage Stock,30 East 33rd St,Edmond,OK,73106,USA,Southwest,,,Not Verified
Vintage Stock,"7201 SE 29th St., Ste. 208",Midwest City,OK,73110,USA,Southwest,,,Not Verified
New World Games & Comics,4435 SE 29th St,Oklahoma City,OK,73115,USA,Southwest,,,Not Verified
Atomic Comics,6006 S Western Ave,Oklahoma City,OK,73139,USA,Southwest,,,Not Verified
Vintage Stock,2570 S. Service Rd.,Moore,OK,73160,USA,Southwest,,,Not Verified
Bibliotech Books & Comics,123 E Main Street,Shawnee,OK,74801,USA,Southwest,,,Not Verified
Vintage Stock,1700 24th Ave. NW,Norman,OK,73069,USA,Southwest,,,Not Verified
Ground Zero Comics,2744 E 5th St,Tyler,TX,75701,USA,Southwest,,,Not Verified
Collector's Den,3505 Sheppard Access Rd,Wichita Falls,TX,76306,USA,Southwest,,,Not Verified
Madness Comics & Games,2317 W University Dr Suite 185,Denton,TX,76201,USA,Southwest,,,Not Verified
More Fun Comics and Games,103 West Hickory,Denton,TX,76201,USA,Southwest,,,Not Verified
Resistance Comics and Games,"610 Byron Nelson Blvd, #105",Roanoke,TX,76262,USA,Southwest,,,Not Verified
Half Price Books,3190 S Central Expy,McKinney,TX,75070,USA,Southwest,,,Not Verified
Half Price Books,3221 Preston Rd,Frisco,TX,75034,USA,Southwest,,,Not Verified
Vintage Stock,"2595 Preston Rd., Ste. 400",Frisco,TX,75034,USA,Southwest,,,Not Verified
Half Price Books,3118 W Parker Rd,Plano,TX,75075,USA,Southwest,,,Not Verified
Madness Games & Comics,3000 Custer Rd #310,Plano,TX,75075,USA,Southwest,,,Not Verified
Vintage Stock,1017 N. Central Expwy. #100,Plano,TX,75075,USA,Southwest,,,Not Verified
Boomerang Comics,729 Hebron Parkway,Lewisville,TX,75057,USA,Southwest,,,Not Verified
Half Price Books,103 N Allen Dr,Allen,TX,75013,USA,Southwest,,,Not Verified
Vintage Stock,2397 S. Stemmons Frwy. Ste. C,Lewisville,TX,75067,USA,Southwest,,,Not Verified
Vintage Stock,1327 West Pipeline Rd.,Hurst,TX,76053,USA,Southwest,,,Not Verified
Clockwork Gamer,5611 Colleyville Blvd,Colleyville,TX,76034,USA,Southwest,,,Not Verified
Vintage Stock,2620 N. Belt Line Rd.,Irving,TX,75062,USA,Southwest,,,Not Verified
Lone Star Comics: Fort Worth,5429 S. Hulen Street,Fort Worth,TX,76132,USA,Southwest,,,Not Verified
Half Price Books,13400 Harry Hines Blvd,Farmers Branch,TX,75234,USA,Southwest,,,Not Verified
Generation X Comics,239 N Industrial Blvd,Bedford,TX,76021,USA,Southwest,,,Not Verified
C-BAM!,1845 N. Garland Ave.,Garland,TX,75040,USA,Southwest,,,Not Verified
Half Price Books,"5803 E Northwest Hwy,",Dallas,TX,75231,USA,Southwest,,,Not Verified
Lone Star Comics,4001 W. Green Oaks Blvd.,Arlington,TX,76017,USA,Southwest,,,Not Verified
Vintage Stock,"4115 S. Cooper St., Ste. 201",Arlington,TX,76015,USA,Southwest,,,Not Verified
Vintage Stock,4604 Southwest Loop 820,Fort Worth,TX,76109,USA,Southwest,,,Not Verified
Vintage Stock,5809 Greenville Ave.,Dallas,TX,75206,USA,Southwest,,,Not Verified
Lone Star Comics: Dallas,6465 E. Mockingbird Lane,Dallas,TX,75214,USA,Southwest,,,Not Verified
Half Price Books,13388 Preston Rd,Dallas,TX,75204,USA,Southwest,,,Not Verified
Vintage Stock,5907 Belt Line Rd.,Dallas,TX,75204,USA,Southwest,,,Not Verified
Lone Star Comics,1215 S. Cooper St.,Arlington,TX,76010,USA,Southwest,,,Not Verified
Big World Comics,1104 E Beltline #104,Carrollton,TX,75006,USA,Southwest,,,Not Verified
Vintage Stock,3420 West Camp Wisdom,Dallas,TX,75237,USA,Southwest,,,Not Verified
Vintage Stock,"2305 W. I 20, Suite 120",Grand Prairie,TX,75052,USA,Southwest,,,Not Verified
Kopriva's Collectibles,1407 S 31st St. #H,Temple,TX,76504,USA,Southwest,,,Not Verified
America's Heroes Comics,104 W Rancier Ave,Killeen,TX,76541,USA,Southwest,,,Not Verified
America's Heroes Comics,104 West Rancier,Killeen,TX,76541,USA,Southwest,,,Not Verified
America's Heroes Comics,104 West Rancier Avenue,killeen,TX,76541,USA,Southwest,,,Not Verified
Book Stan,204 N Fort Hood St Ste D,Killeen,TX,76541,USA,Southwest,,,Not Verified
BCS Books and Comics,701 Inwood Dr,Bryan,TX,77802,USA,Southwest,,,Not Verified
Lytle's Comics & Games,2501 Texas Ave S # 110C,College Station,TX,77840,USA,Southwest,,,Not Verified
Rogue's Gallery Comics & Games,1601 S. I-35 Suite 360,Round Rock,TX,78664,USA,Southwest,,,Not Verified
Titan Moon Comics,1540 Cypress Creek Road #108,Cedar PArk,TX,78613,USA,Southwest,,,Not Verified
Ninja Pirate,100 S. 12th St. Suite 105,Pflugerville,TX,78660,USA,Southwest,,,Not Verified
Capstone Comics,2121 W. Parmer Lane Suite #107,Austin,TX,78727,USA,Southwest,,,Not Verified
Dragon's Lair Comics & Fantasy,6111 Burnet Rd.,Austin,TX,78757,USA,Southwest,,,Not Verified
Austin Books & Comics,5002 North Lamar Blvd.,Austin,TX,78751,USA,Southwest,,,Not Verified
Bee Cave Comics & Games,3636 Bee Cave Rd Ste 204,West Lake Hills,TX,78746,USA,Southwest,,,Not Verified
Premiere Comics,3458 Catclaw Dr.,Abilene,TX,79606,USA,Southwest,,,Not Verified
O M,2919 Manchaca Rd,Austin,TX,78704,USA,Southwest,,,Not Verified
Junior's Comics and Cards,"2110 W Slaughter Ln, #147",Austin,TX,78748,USA,Southwest,,,Not Verified
Comic Relief,"1330 Aquarena Springs Dr, #101",San Marcos,TX,78666,USA,Southwest,,,Not Verified
Bedrock City Comic Co.,4602A Washington,Houston,TX,77007,USA,Southwest,,,Not Verified
Bedrock City Comic Co.,6517 Westheimer,Houston,TX,77057,USA,Southwest,,,Not Verified
Nan's Games and Comics Too,2011 Southwest Freeway,Houston,TX,77098,USA,Southwest,,,Not Verified
Odyssey Comics and Cards,2425 Fry Rd.,Katy,TX,77449,USA,Southwest,,,Not Verified
The Pop Culture Company,11319 Katy Freeway,Houston,TX,77079,USA,Southwest,,,Not Verified
Third Planet,2718 Southwest Freeway,Houston,TX,77098,USA,Southwest,,,Not Verified
Garth's World Comics,14128 FM 306,Canyon Lake,TX,78133,USA,Southwest,,,Not Verified
Bedrock City Comic Co.,4683 FM 1960 W.,Houston,TX,77069,USA,Southwest,,,Not Verified
Miracle Machine Inc,6525 Springer St.,Houston,TX,77087,USA,Southwest,,,Not Verified
"Dimension Comics, Music",1908 Haleah Dr.,Seabrook,TX,77586,USA,Southwest,,,Not Verified
Lone Star Heroes: Comics,4706 E. Nasa Pkwy,El Lago,TX,77586,USA,Southwest,,,Not Verified
Bedrock City Comic Co.,106 W. Bay Area Blvd.,Webster,TX,77598,USA,Southwest,,,Not Verified
Bedrock City Comics,4831 HWY 6,Missouri City,TX,77459,USA,Southwest,,,Not Verified
Lone Star Heroes: Comics & Toy,120 TX-332 Ste B-16,Lake Jackson,TX,77566,USA,Southwest,,,Not Verified
Dragon's Lair Comics & Fantasy,7959 Fredericksburg Rd. Suite 129,San Antonio,TX,78229,USA,Southwest,,,Not Verified
Heroes & Fantasies,4945 NW Loop 410 Summit Shopping Center,San Antonio,TX,78229,USA,Southwest,,,Not Verified
Atomic Comics and Gaming,4904 Broadway,San Antonio,TX,78209,USA,Southwest,,,Not Verified
Bazinga Comics,2941 Thousand Oaks #101,San Antonio,TX,78247,USA,Southwest,,,Not Verified
Gravity Damage,5885 Babcock Rd,San Antonio,TX,78240,USA,Southwest,,,Not Verified
Heroes and Fantasies,914 Pat Booker Rd,Universal City,TX,78148,USA,Southwest,,,Not Verified
Collectors Authority,1534 SE Military Dr. #106,San Antonio,TX,78214,USA,Southwest,,,Not Verified
Aliens World,6900 San Pedro Ave #121,San Antonio,TX,78216,USA,Southwest,,,Not Verified
Heroes and Fantasies,226 Bitters Rd,San Antonio,TX,78216,USA,Southwest,,,Not Verified
Heroes and Fantasies,5778 Ingram Rd,San Antonio,TX,78238,USA,Southwest,,,Not Verified
Dragon's Lair Comics & Fantasy,5511 W Loop 1604 N Ste #111,San Antonio,TX,78253,USA,Southwest,,,Not Verified
Mile High Comics Jason St Mega,4600 Jason St,Denver,CO,80211,USA,West,,,Not Verified
Highlander Comics & Games,332 E Colfax Avenue,"Denver,",CO,80203,USA,West,,,Not Verified
All in A Dream Comics,2901 E Colfax Avenue,Denver,CO,80206,USA,West,,,Not Verified
Mile High Comics (Celebrity),760 S Colorado Blvd,Denver,CO,80246,USA,West,,,Not Verified
Mile High Comics (Lakewood),98 Wadsworth Blvd #111,Lakewood,CO,80226,USA,West,,,Not Verified
Atlantis Comics,10815 W. Jewell Ave. Unit J,Lakewood,CO,80232,USA,West,,,Not Verified
Free Time Comics,10343 N Federal Blvd Unit #S,Westminster,CO,80260,USA,West,,,Not Verified
Colorado Coins Cards & Comics,"6695 Wadsworth Boulevard Ab,","Arvada,",CO,80003,USA,West,,,Not Verified
Mile High Comics,9201 N. Washington,Thornton,CO,80229,USA,West,,,Not Verified
I Want More Comics,1020 W. 104th Ave,Northglenn,CO,80234,USA,West,,,Not Verified
Mile High Comics (Moutlon's),1360 W. Littleton Blvd.,Littleton,CO,80120,USA,West,,,Not Verified
Moulton's Comics +Collectibles,1360 W. Littleton Blvd,Littleton,CO,80120,USA,West,,,Not Verified
Aamazing Fantasy Comics,6721 W. Ken Caryl Avenue,Littleton,CO,80128,USA,West,,,Not Verified
Camelot Comics,820 Simms Street Suite 13,Golden,CO,80401,USA,West,,,Not Verified
Hall of Justice Comics and Col,10336 Dransfeldt Rd #8,Parker,CO,80134,USA,West,,,Not Verified
Time Warp Comics,3105 28th St,Boulder,CO,80301,USA,West,,,Not Verified
Grand Slam Sports Cards and Comics,1020 28th Avenue,Greeley,CO,80631,USA,West,,,Not Verified
Gryphon's Games & Comics,2020 S College Ave #b,Ft. Collins,CO,80525,USA,West,,,Not Verified
Grand Slam Sports Cards & Comi,1730 W Eisenhower Blvd,Loveland,CO,80537,USA,West,,,Not Verified
Video Game Exchange & Comics,830 E Fillmore St,Colorado Springs,CO,80907,USA,West,,,Not Verified
Haley's Comics,322 Walnut St,Fort Collins,CO,80524,USA,West,,,Not Verified
Escape Velocity,3347 Cinema Point,Colorado Springs,CO,80922,USA,West,,,Not Verified
Ed's Cards & Comics,5857 Palmer Park Blvd,Colorado Springs,CO,80915,USA,West,,,Not Verified
Muse comics and games,1350 N Academy Blvd.,Colorado springs,CO,80909,USA,West,,,Not Verified
Bargain Comics & Cards,19 E Bijou St,Colorado Springs,CO,80903,USA,West,,,Not Verified
Heroes Only Comics & Games,"3151 E. Nationway, Ste. K5",Cheyanne,WY,82001,USA,West,,,Not Verified
Heroes Only Comics and Games,3151 E. Nationway K5,Cheyenne,WY,82001,USA,West,,,Not Verified
Archenemy Comics,1553 Milwaukee St,Boise,ID,83704,USA,West,,,Not Verified
Comic Book Company,7011 W Fairview Ave,Boise,ID,83704,USA,West,,,Not Verified
Captain Comics,4216 Vista Ave,Boise,ID,83713,USA,West,,,Not Verified
North Star Comics,11 North 2nd Street,Walla Walla,WA,99362,USA,West,,,Not Verified
Captain Bengal's Comic Cove,348 N. 3rd,Pocatello,ID,83201,USA,West,,,Not Verified
Night Flight Comics,210 E. 400 S.,Salt Lake City,UT,84111,USA,West,,,Not Verified
Black Cat Comics,2265 Highland Drive,Salt Lake City,UT,84106,USA,West,,,Not Verified
Far West Comics,3971 S. Redwood Rd.,Salt Lake City,UT,84123,USA,West,,,Not Verified
Night Flight Comics,6222 S. State St.,Salt Lake City,UT,84107,USA,West,,,Not Verified
End Zone Cards & Comics?,585 W 2600 S,Bountiful,UT,84010,USA,West,,,Not Verified
The Nerd Store,3601s 2700w,West Valley,UT,84119,USA,West,,,Not Verified
Dr. Volts Comic Connection,2043 E. 3300 S.,Salt Lake City,UT,84109,USA,West,,,Not Verified
Hastur Games & Comics,6831 South  State Street,Salt Lake City,UT,84047,USA,West,,,Not Verified
The Hidden Keep?,3652 West 9800 South,South Jordan,UT,84095,USA,West,,,Not Verified
HeeBeeGeeBeez,1986 n. Hill Field Rd. #2,Layton,UT,84041,USA,West,,,Not Verified
Fantasy Rules,79 S Main St,Pleasant Grove,UT,84062,USA,West,,,Not Verified
HeeBeeGeeBeez,2574 Washington Blvd.,Ogden,UT,84401,USA,West,,,Not Verified
Dragon's Keep,260 N University Ave,Provo,UT,84601,USA,West,,,Not Verified
HeeBeeGeeBeez,541 n. Main St.,Logan,UT,84321,USA,West,,,Not Verified
Ash Avenue Comics & Books,810 S. Ash Avenue,Tempe,AZ,85281,USA,Southwest,,,Not Verified
Pop Culture Paradise,707 South Forest Avenue,Tempe,AZ,85281,USA,Southwest,,,Not Verified
All About Books & Comics,5060 N Central Ave,Phoenix,AZ,85012,USA,Southwest,,,Not Verified
Atomic Comics,10215 N 28th Dr,Phoenix,AZ,85051,USA,Southwest,,,Not Verified
Dr. Fantasy's Comics 'n More,7480 West Bell rd. #106,Glendale,AZ,85308,USA,Southwest,,,Not Verified
Samurai Comics,1051 E. Camelback Rd,Phoenix,AZ,85014,USA,Southwest,,,Not Verified
Samurai Comics,5024 N 7th St,Phoenix,AZ,85014,USA,Southwest,,,Not Verified
Samurai Comics,10720 W. Indian School Rd.,Phoenix,AZ,85037,USA,Southwest,,,Not Verified
SpazDog Comics,21610 N. 35th Avenue #162,Glendale,AZ,85308,USA,Southwest,,,Not Verified
Collector Haven,116 N. Lindsay Rd. Suite #2,Mesa,AZ,85213,USA,Southwest,,,Not Verified
Atomic Comics,"3155 West Chandler Boulevard,",Chandler,AZ,85226,USA,Southwest,,,Not Verified
Greg's Comics,2722 S Alma School Road 8,Mesa,AZ,85210,USA,Southwest,,,Not Verified
Samurai Comics,1120 South Country Club #107,Mesa,AZ,85210,USA,Southwest,,,Not Verified
Fantasy Comics,2595 N 1st Avenue,Tucson,AZ,85719,USA,Southwest,,,Not Verified
R-Galaxy,2420 N Campbell Avenue,Tucson,AZ,85719,USA,Southwest,,,Not Verified
Charlie's Comic Books,5445 E 22nd Street,Tucson,AZ,85711,USA,Southwest,,,Not Verified
Hard Castle Cards & Games,1130 S Wilmot Road,"Tucson,",AZ,85711,USA,Southwest,,,Not Verified
Heroes & Villains,4533 E Broadway Boulevard,"Tucson,",AZ,85711,USA,Southwest,,,Not Verified
Fan-Quest,850 West 32nd Street,Yuma,AZ,85364,USA,Southwest,,,Not Verified
Pyrimid Comics & Games,108 W Fry Boulevard,Sierra Vista,AZ,85635,USA,Southwest,,,Not Verified
Comic Castle USA,5145 Jurupa ave,Riverside,CA,92563,USA,West,,,Not Verified
I.E. Comics & Games,2807 W. Florida Ave,Hemet,CA,92545,USA,West,,,Not Verified
Players Comics & Cards,11875 Pigeon Pass Rd,Moreno Valley,CA,92557,USA,West,,,Not Verified
Players Dugout,9428 Magnolia Ave,Riverside,CA,92503,USA,West,,,Not Verified
Sphinx Comics,7000 Indiana Ave #120,Riverside,CA,92508,USA,West,,,Not Verified
Comic Cult HD,9594 I Ave Suite F,Hesperia,CA,92345,USA,West,,,Not Verified
Maximum Comics,520 Marks Street,Henderson,NV,89014,USA,West,,,Not Verified
Maximum Comics 2.0,520 Marks St Suite 130,Henderson,NV,89014,USA,West,,,Not Verified
Maximum Comics 2.0,520 S Marks St,Henderson,NV,89014,USA,West,,,Not Verified
Cheese Boy Comics,8060 S. Rainbow Blvd #125,Las Vegas,NV,89139,USA,West,,,Not Verified
Cosmic Comics,3330 E. Tropicana Ave. #G,Las Vegas,NV,89121,USA,West,,,Not Verified
Asylum Comics,915 East Charlston Blvd.,Las Vegas,NV,89104,USA,West,,,Not Verified
HellPop! in the Arts Factory,107 E. Charleston Blvd Suite 105b,Las Vegas,NV,89104,USA,West,,,Not Verified
Kool Komics,953 E Sahara Ave # B9,Las Vegas,NV,89104,USA,West,,,Not Verified
Alternate Reality Comics,4800 S Maryland Pkwy # D,Las Vegas,NV,89119,USA,West,,,Not Verified
Maximum Comics,5130 S Fort Apache Rd,Las Vegas,NV,89148,USA,West,,,Not Verified
MaximuM Comics 1.0,5130 S Fort Apache Rd #285,Las Vegas,NV,89148,USA,West,,,Not Verified
Silver Cactus Comics,480 N Nellis Blvd,Las Vegas,NV,89110,USA,West,,,Not Verified
Torpedo Comics,7300 Arroyo Crossing Pkwy #105,Las Vegas,NV,89113,USA,West,,,Not Verified
Desert Oasis Comics,"73-241 Hwy 111, Suite 4B",Palm Desert,CA,92260,USA,West,,,Not Verified
Celestial Comics,9440 W Sahara Ave #170,Las Vegas,NV,89117,USA,West,,,Not Verified
Dark Tower Comics,6300 W Charleston Blvd,Las Vegas,NV,89146,USA,West,,,Not Verified
Dreamwell Comics,5706 W Charleston Blvd,Las Vegas,NV,89146,USA,West,,,Not Verified
Heroes for Sale LV,6338 W Sahara Ave,Las Vegas,NV,89146,USA,West,,,Not Verified
Comic Oasis,3121 N Rainbow Blvd,Las Vegas,NV,89108,USA,West,,,Not Verified
Avatar Comics and Games,881 S. Rainbow Blvd.,Las Vegas,NV,89145,USA,West,,,Not Verified
Maximum Comics 3.0,7950 W. Tropical Parkway,Las Vegas,NV,89149,USA,West,,,Not Verified
Velvet Underground,4241 W Charleston Blvd,Las Vegas,NV,89102,USA,West,,,Not Verified
All Star Comics & Games,4406Dyer St.,El Paso,TX,79930,USA,Southwest,,,Not Verified
Astro Zombies,3100 Central Ave SE,Albuquerque,NM,87106,USA,Southwest,,,Not Verified
University Comic Warehouse,2116 Central Ave SE,Albuquerque,NM,87106,USA,Southwest,,,Not Verified
Lobo Anime & Comics,13140 Central Ave SE # C,Albuquerque,NM,87123,USA,Southwest,,,Not Verified
Howard's Rare Comics,5316 Beebe Street Northeast,Albuquerque,NM,87111,USA,Southwest,,,Not Verified
Lobo Comics & Toys,1016 Juan Tabo Blvd NE,Albuquerque,NM,87112,USA,Southwest,,,Not Verified
Tall Tales Comics & Novelties,1410 Wyoming Blvd NE # D,Albuquerque,NM,87112,USA,Southwest,,,Not Verified
University Comic Warehouse,9617 Menaul Blvd NE,Albuquerque,NM,87112,USA,Southwest,,,Not Verified
Age Of Comics,5505 Osuna Rd NE,Albuquerque,NJ,87109,USA,Northeast,,,Not Verified
Noble Collectibles,8216 Montgomery Boulevard Northeast,Albuquerque,NM,87109,USA,Southwest,,,Not Verified
Addicted To Comics & Hobbies,5201 Lomas Blvd NE,Albuquerque,NM,87110,USA,Southwest,,,Not Verified
True Believers Comic&Gallery,435 S Guadalupe St,Santa Fe,NM,87501,USA,Southwest,,,Not Verified
Comic Kingdom,595 E Moana Ln,Reno,NV,89502,USA,West,,,Not Verified
Dj Comic Kingdom & Collecibles,1300 E. Plum Lane,Reno,NV,89502,USA,West,,,Not Verified
DK's Sierra Mountain Comics,1801 Hwy 50 East,Carson City,NV,89701,USA,West,,,Not Verified
Dreamwell Comics,4250 Cochise St,Carson City,NV,89701,USA,West,,,Not Verified
Castle Comics & Games,4100 Cameron Park Drive #111,Cameron Park,CA,95682,USA,West,,,Not Verified
A-1 Comics,818 Sunrise Ave,Roseville,CA,95661,USA,West,,,Not Verified
A-1 Comics,5361 Auburn Blvd.,Sacramento,CA,95841,USA,West,,,Not Verified
A-1 Comics,5361 Auburn Blvd,Sacramento,CA,95841,USA,West,,,Not Verified
Adventures In Comics & Games,6026 Fair Oaks Blvd,Carmichael,CA,95608,USA,West,,,Not Verified
GamersCircle Comics,608 E Bidwell St,Folsom,CA,95630,USA,West,,,Not Verified
World's Best Comics and Toys,2608 Watt Ave,Sacramento,CA,95821,USA,West,,,Not Verified
Empire's Comics Vault,2357 Arden Way,Sacramento,CA,95825,USA,West,,,Not Verified
Great Escape Games,1537 Howe Ave # 200,Sacramento,CA,95825,USA,West,,,Not Verified
Broadway Comics & Cards,1508 Broadway,Sacramento,CA,95818,USA,West,,,Not Verified
Metropolis Comix,8241 Bruceville Road Suite 160,Sacramento,CA,95823,USA,West,,,Not Verified
Comics & Collectibles,1904 Fruitridge Rd,Sacramento,CA,95822,USA,West,,,Not Verified
Comic Grapevine,9 W Pine St,Lodi,CA,95240,USA,West,,,Not Verified
Bizarro World,505 Main Street,Woodland,CA,95695,USA,West,,,Not Verified
Bizarro World,706 5th Street,Davis,CA,95616,USA,West,,,Not Verified
Scorpio Anime,10963 N Ham Ln,Lodi,CA,95242,USA,West,,,Not Verified
Grapevine Comics And Cards,9299 Thornton Rd,Stockton,CA,95209,USA,West,,,Not Verified
Al's Comic Shop,1847 Pacific Ave,Stockton,CA,95204,USA,West,,,Not Verified
Average Ape Comics and Games,2335 Balls Ferry Rd,Anderson,CA,96007,USA,West,,,Not Verified
Krier's Cards & Comics,3900 Pelandale Ave # 305,Modesto,CA,95356,USA,West,,,Not Verified
Collector's Choice,1714 Churn Creek Rd,redding,CA,96002,USA,West,,,Not Verified
Bonanza Books & Comics,2308 Mchenry Ave,Modesto,CA,95350,USA,West,,,Not Verified
Invincible Comics,1035 W. Orangeburg Ave.,Modesto,CA,95350,USA,West,,,Not Verified
Waterfront Comics,609 Main Street,Suisun,CA,94585,USA,West,,,Not Verified
Kings Comics and Games,245 East 11th Street,Tracy,CA,95376,USA,West,,,Not Verified
Flying Colors Comics,2980 Treat Blvd.,Concord,CA,94518,USA,West,,,Not Verified
"Comic Cards, Etc",1063C San Pablo Ave,pinole,CA,94564,USA,West,,,Not Verified
Comic Ink,7980 Amador Valley Blvd,Dublin,CA,94568,USA,West,,,Not Verified
Heroes and Villains Comics,264 Main Street,Pleasanton,CA,94566,USA,West,,,Not Verified
Fantasy Books & Games,2247 1st St,Livermore,CA,94550,USA,West,,,Not Verified
Back Issue Comics,695 E Lewelling Blvd,Hayward,CA,94541,USA,West,,,Not Verified
Crush Comics & Cards,2869 Castro Valley Blvd,Castro Valley,CA,94546,USA,West,,,Not Verified
Anime V,80 Shattuck Sq,Berekley,CA,94704,USA,West,,,Not Verified
Comic Relief of Berkeley,2026 Shattuck Ave,Berekley,CA,94704,USA,West,,,Not Verified
Image Comics Inc,1942 University Ave # 305,Berekley,CA,94704,USA,West,,,Not Verified
Comic Shop,665 Bancroft Ave,San Leandro,CA,94577,USA,West,,,Not Verified
M & M Cards & Comics,935 Manor Blvd,San Leandro,CA,94579,USA,West,,,Not Verified
Alameda Sports Cards & Comics,1412 Park St,Alameda,CA,94501,USA,West,,,Not Verified
Heroes Comics,110 E. Shaw Ave.,Fresno,CA,93710,USA,West,,,Not Verified
Treasure Island Comics,"40819 Fremont Blvd, Fremont",Fremont,CA,94538,USA,West,,,Not Verified
Treasure Island Comics,5018 mowry ave,Fremont,CA,94538,USA,West,,,Not Verified
Black Cat Comics,73 Milpitas Blvd,Milpitas,CA,95035,USA,West,,,Not Verified
Green Machine Comics,2086 Newpark Mall,Newark,CA,94560,USA,West,,,Not Verified
Jeffrey's Toys,685 Market St,San Francisco,CA,94105,USA,West,,,Not Verified
Little Comic Shop,729 Sacramento Street,San Francisco,CA,94108,USA,West,,,Not Verified
The Collectors Cave,2072 Union Street,San Francisco,CA,94123,USA,West,,,Not Verified
Al's Comics,1803 E. Market St,San Francisco,CA,94103,USA,West,,,Not Verified
Isotope,326 Fell St,San Francisco,CA,94102,USA,West,,,Not Verified
Comix Experience,305 Divisadero Street,San Francisco,CA,94117,USA,West,,,Not Verified
Neon Monster,901 Castro Street,San Francisco,CA,94114,USA,West,,,Not Verified
Cards and Comics Central,5424 Geary Boulevard,San Francisco,CA,94121,USA,West,,,Not Verified
Amazing Fantasy,650 Irving St.,San Francisco,CA,94122,USA,West,,,Not Verified
Comic Outpost,2381 Ocean Ave.,San Francisco,CA,94127,USA,West,,,Not Verified
Amazing Adventure,3115 Vincente,San Francisco,CA,94116,USA,West,,,Not Verified
Heroes Comics Cards and Toys,24 E. Campbell Avenue,Campbell,CA,95008,USA,West,,,Not Verified
Capitol Cards and Comics,536 S Bascom Ave,San Jose,CA,95128,USA,West,,,Not Verified
Comic Collector Shop,568 El Camino Real #A,Sunnyvale,CA,94087,USA,West,,,Not Verified
Comics Conspiracy,913 W El Camino Real,Sunnyvale,CA,94087,USA,West,,,Not Verified
Comics Conspiracy,115-A E. Fremont Ave.,Sunnyvale,CA,94087,USA,West,,,Not Verified
Comics Conspiracy,913 W. El Camino Real,Sunnyvale,CA,94087,USA,West,,,Not Verified
Hijinx Comics,2050 Lincoln Ave,San Jose,CA,95125,USA,West,,,Not Verified
Illusive Comics and Games,"2725 El Camino, Suite 105",Santa Clara,CA,95051,USA,West,,,Not Verified
Legends Comics & Games,"10123 N. Wolfe Road, Suite 2108",Cupertino,CA,95014,USA,West,,,Not Verified
Whats Hot Comics & Cards,1061 Lafayette St,Santa Clara,CA,95125,USA,West,,,Not Verified
Whats Hot Comics & Cards,1061 Lafayette Street,Santa Clara,CA,95050,USA,West,,,Not Verified
Anime 101,313 Vineyard Town Center,Morgan Hill,CA,95037,USA,West,,,Not Verified
DJ'S COLLECTIBLE SHOPPE,214 NORTH IRWIN ST,Hanford,CA,93230,USA,West,,,Not Verified
Comic City A,5703 E Beverly Blvd,Los Angeles,CA,90022,USA,West,,,Not Verified
Metropolis Comics,16509 Bellflower Blvd,Bellflower,CA,90706,USA,West,,,Not Verified
Comic Cult,1047 W. Carson Street,Torrance,CA,90502,USA,West,,,Not Verified
A Shop Called Quest,300 S. Santa Fe,Los Angeles,CA,90013,USA,West,,,Not Verified
A Shop Called Quest,101 N. Indian Hill Blvd,Claremont,CA,91711,USA,West,,,Not Verified
Ambrosia Comics & Collectibles,10679 West Pico Blvd,Los Angeles,CA,90064,USA,West,,,Not Verified
Brave New World Comics,22722 Lyons Avenue #6,Santa Clarita,CA,91321,USA,West,,,Not Verified
California Comic,355 S Western Ave,Los Angeles,CA,90020,USA,West,,,Not Verified
Collector's Paradise,7131 Winnetka Avenue,Winnetka,CA,91306,USA,West,,,Not Verified
Collectors Exchange,3126 South Sepulveda Blvd,Los Angeles,CA,90034,USA,West,,,Not Verified
Comics Factory,1298 E Colorado Blvd,Pasadena,CA,91106,USA,West,,,Not Verified
Comicsmash!,11824 Ventura Blvd,Studio City,CA,91604,USA,West,,,Not Verified
DJ's Universal Comics,11038 Ventura Blvd,Studio City,CA,91604,USA,West,,,Not Verified
Dreamworld Comics,12402 W Washington Blvd,Culver City,CA,90066,USA,West,,,Not Verified
Earth-2 Comics & Collectibles,15017 Ventura Blvd.,Sherman Oaks,CA,91403,USA,West,,,Not Verified
Golden Apple,7018 Melrose Ave,Los Angeles,CA,90038,USA,West,,,Not Verified
Hi De Ho Comics & Books,1431 Lincoln Boulevard,Santa Monica,CA,90401,USA,West,,,Not Verified
Jay and Silent Bob's Secret Stash,1045 Westwood Blvd,Los Angeles,CA,90024,USA,West,,,Not Verified
JPM Comics and Games,1000 E Rte 66 # G,Glendora,CA,91740,USA,West,,,Not Verified
Mega City One,7301 Melrose Ave,Los Angeles,CA,90046,USA,West,,,Not Verified
Meltdown Comics & Collectibles,7522 W. Sunset Blvd.,Los Angeles,CA,90046,USA,West,,,Not Verified
Orange Comics,3500 W 8th St,Los Angeles,CA,90005,USA,West,,,Not Verified
Secret Headquarters,3817 W. Sunset Blvd,Los Angeles,CA,90026,USA,West,,,Not Verified
Secret Headquarters?Address:,3817 W. Sunset Blvd.,Los Angeles,CA,90026,USA,West,,,Not Verified
Things from Another World,"1000 Universal Center Dr., Citywalk #179",Universal City,CA,91608,USA,West,,,Not Verified
Western Comics,730 S Western Ave # 106,Los Angeles,CA,90005,USA,West,,,Not Verified
Pulp Fiction,4501 E Carson St # 104,Long Beach,CA,90808,USA,West,,,Not Verified
Amazing Comics and Cards,5555 E Stearns St # 103,Long Beach,CA,90815,USA,West,,,Not Verified
Frank & Son Collectible Show,19649 San Jose Ave,City of Industry,CA,91748,USA,West,,,Not Verified
Alakazam Comics,"333 East 17th Street, Ste. 19",Costa Mesa,CA,92627,USA,West,,,Not Verified
Majestix CCG,"2075 Newport Blvd, Suite 104",Costa Mesa,CA,92627,USA,West,,,Not Verified
A Castle of Books,7159 Katella Ave #D,Stanton,CA,90680,USA,West,,,Not Verified
Beach Ball Comics,3024 W Ball Rd # G,Anaheim,CA,92804,USA,West,,,Not Verified
Candy Comic Books,5242 Beach Blvd,Buena Park,CA,90621,USA,West,,,Not Verified
Coffee and a Comic,beach blvd,Huntington Beach,CA,92648,USA,West,,,Not Verified
Comic Book Hideout,215 W. Commonwealth Ave.,Fullerton,CA,92832,USA,West,,,Not Verified
Comic Hero University,1001 S. Lemon St. Ste B,Fullerton,CA,92832,USA,West,,,Not Verified
Comic Universe,18902 Brookhurst St,Fountain Valley,CA,92708,USA,West,,,Not Verified
Comics Unlimited,16344 Beach Blvd.,Westminster,CA,92683,USA,West,,,Not Verified
Corner Store Comics,"980 E Orangethorpe Ave, Suite A",Anaheim,CA,92801,USA,West,,,Not Verified
JNJ Comic Books,11765 Edinger Ave,Fountain Valley,CA,92708,USA,West,,,Not Verified
Korean Comic Book Store,4943 La Palma Ave,La Palma,CA,90623,USA,West,,,Not Verified
Minky's Comic Book Store,9636 Garden Grove Blvd # 2,Garden Grove,CA,92844,USA,West,,,Not Verified
Phat Collectibles,301 E Imperial Hwy,La Habra,CA,90631,USA,West,,,Not Verified
"The Realm, Games and Comics","860 W. Imperial Hwy J,K",Brea,CA,92821,USA,West,,,Not Verified
Alakazam! Comics,"4237 Campus Drive, Ste B162",Irvine,CA,92612,USA,West,,,Not Verified
Arsenal Comics & Games,1610-1 Newbury Rd,Newbury Park,CA,91320,USA,West,,,Not Verified
"Comics, Toons, N' Toys",13542 Newport Ave,Tustin,CA,92780,USA,West,,,Not Verified
Nuclear Comics,28985 Golden Lantern St,Laguna Niguel,CA,92677,USA,West,,,Not Verified
Arsenal Comics & Games,3431 Telegraph Rd,Ventura,CA,93003,USA,West,,,Not Verified
Seth's Games and Anime,2379 East Main Street,Ventura,CA,93003,USA,West,,,Not Verified
Endgame comics and Collectible,1803 E Main St,Ventura,CA,93001,USA,West,,,Not Verified
A Shop Called Quest,5 E Citrus Ave #101,Redlands,CA,92373,USA,West,,,Not Verified
A Shop Called Quest,"5 East Citrus Ave, Ste 101",Redlands,CA,92373,USA,West,,,Not Verified
Invincible Ink,630 Nordahl Road,San Marcos,CA,92069,USA,West,,,Not Verified
Knowhere Games and Comics,125 Vallacitos De Oro,San Marcos,CA,92069,USA,West,,,Not Verified
I.E. Comics & Games,310 East Florida Avenue,Hemet,CA,92543,USA,West,,,Not Verified
Superheroes in Training,1131 East Washington Avenue,Escondido,CA,92025,USA,West,,,Not Verified
"Comickaze Comics, Cards, Video",5525 Clairemont Mesa Blvd.,San Diego,CA,92117,USA,West,,,Not Verified
SOCAL Comics,8280 Clairemont Mesa Blvd Ste 124,San Diego,CA,92111,USA,West,,,Not Verified
Sky High Comics,625 S. Rancho Santa Fe Rd,San Marcos,CA,92078,USA,West,,,Not Verified
San Diego Comics,6937 El Cajon Blvd,San Diego,CA,92115,USA,West,,,Not Verified
Snowstorm Comics,1432 Ridgeback Road Apartment N,Chula Vista,CA,91910,USA,West,,,Not Verified
Collector Maniacs,3571 Waialae Ave Ste 102a,Honolulu,HI,96816,USA,West,,,Not Verified
Gecko Books & Comics,3613 Waialae Ave.,Honolulu,HI,96816,USA,West,,,Not Verified
Other Realms,1050 Ala Moana Blvd Suite 2300,Honolulu,HI,96814,USA,West,,,Not Verified
"Other Realms, Ltd.",1050 Ala Moana Blvd,Honolulu,HI,96814,USA,West,,,Not Verified
Excalibur Books & Comics,2444 SE Hawthorn Blvd,Portland,OR,97214,USA,West,,,Not Verified
Future Dreams Books,1847 East Burnside Suite 116,Portlan,OR,97214,USA,West,,,Not Verified
Things from Another World,4133 NE Sandy Blvd.,Portland,OR,97214,USA,West,,,Not Verified
Guapo Comics & Books  -,6416 SE Foster Road,Portland,OR,97206,USA,West,,,Not Verified
Things from Another World,4390 SW Lloyd Ave.,Beaverton,OR,97005,USA,West,,,Not Verified
Things From Another World,4390 SW Lloyd Ave,Beaverton,OR,97005,USA,West,,,Not Verified
Cosmic Monkey Comics Inc,5335 NE Sandy Blvd.,Portland,OR,97213,USA,West,,,Not Verified
Things From Another World,10956 SE Main Street,Milwaukie,OR,97222,USA,West,,,Not Verified
Ancient Wonders,19060 SW Boones Fy. Rd.,"Tualatin, OR",OR,97062,USA,West,,,Not Verified
I Like Comics,2101 East 4th Plain Boulevard,Vancouver,WA,98661,USA,West,,,Not Verified
North West Comic Gallery,230 Liberty Street,Salem,OR,97301,USA,West,,,Not Verified
Wild Things Games & Comics,241 Commercial St NE,Salem,OR,97301,USA,West,,,Not Verified
Vista Sports Cards & Comics,1038 14th Ave.,Longview,WA,98632,USA,West,,,Not Verified
Amazing Stories,1405 Commercial St.,Astoria,OR,97103,USA,West,,,Not Verified
Emerald City Comics,770 East 13th Avenue,Eugene,OR,97401,USA,West,,,Not Verified
Hooker's Sports Cards,"293 W 7th, Eugene",Eugene,OR,97401,USA,West,,,Not Verified
Nostalgia Collectibles,527 Willamette Street,Eugene,OR,97401,USA,West,,,Not Verified
Danger Room Comics,201 W 4th Ave,Olympia,WA,98501,USA,West,,,Not Verified
Gabi's Olympic Cards and Comic,4230 Pacific Ave,Lacey,WA,98503,USA,West,,,Not Verified
Comics The Gathering,15022 Pacific Ave S.,Parkland,WA,98444,USA,West,,,Not Verified
Arcane Comics And More,5809 15th Avenue Northwest,"Seattle, WA",WA,98107,USA,West,,,Not Verified
Dreaming Comics & GamesAddress,5226 University Way Northeast,"Seattle, WA",WA,98105,USA,West,,,Not Verified
"DreamStrands Comics, Inc.",115 North 85th Street,"Seattle, WA",WA,98103,USA,West,,,Not Verified
GOLDEN AGE COLLECTABLES,"1501 PIKE PLACE, #401 LOWER LEVEL","SEATTLE, WA",WA,98101,USA,West,,,Not Verified
Izilla Toys,1429 12th Avenue,"Seattle, WA",WA,98122,USA,West,,,Not Verified
Zanadu Comics,1307 NE 45th,Seattle,WA,98105,USA,West,,,Not Verified
Zanadu Comics,1923 3rd Ave,Seattle,WA,98101,USA,West,,,Not Verified
Mighty Moose Comics,4015 Factoria Blvd SE,Bellevue,WA,98006,USA,West,,,Not Verified
J & J Collectibles,10616 Main St,Bellevue,WA,98004,USA,West,,,Not Verified
Dragon's Lair Comics & Fantsy,14725 NE 20th St #A,Bellevue,WA,98007,USA,West,,,Not Verified
Mill Geek Comics,17928 Bothell Everett Highway #B,Bothell,WA,98012,USA,West,,,Not Verified
Heroes Haven,635 SE Jackson St.,Roseburg,OR,97470,USA,West,,,Not Verified
Games Plus,3131 Smokey Point Dr. #G,Arlington,WA,98223,USA,West,,,Not Verified
Iguana Comics,2751 North Pacific Hwy,Medford,OR,97501,USA,West,,,Not Verified
Iguana Comics,329 NE 6th Street,Grants Pass,OR,97526,USA,West,,,Not Verified
The Comic Book Shop,1401 N Division St.,Spokane,WA,99202,USA,West,,,Not Verified
The Comic Book Shop,Northtown Mall,Spokane,WA,99205,USA,West,,,Not Verified
Merlyn's Science Fiction,19 W Main Ave,Spokane,WA,99201,USA,West,,,Not Verified
Boscos Comics Cards & Games,2606 Spenard Rd.,Anchorage,AK,99503,USA,West,,,Not Verified
