name,address,city,state,zip_code,country,region,phone,email,website,status
Pastimes Comics & Games,233 Golf Mill Dr,Niles,IL,60714,USA,Midwest,(847) 470-9636,info@pastimes.net,pastimes.net,Open
Elsewhere Comics & Collectible,2361 Vermont St,Blue Island,IL,60406,USA,Midwest,(708) 489-1454,elsewherecomics@comcast.net,elsewherecomics.com,Open
Blerds Underground,15 1/2 S La Grange Rd,La Grange,IL,60525,USA,Midwest,(708) 352-1230,comics@blerdsunderground.com,stores.comichub.com/blerdsunderground,Open
ComicWerx Collectibles,2315 S 1st St,Springfield,IL,62704,USA,Midwest,(901) 213-7217,[email protected],comicwerx.com,Open
Collectors Emporium,17681 Cumberland Rd,Noblesville,IN,46060,USA,Midwest,(317) 995-4798,indycollectorsemporium@gmail.com,indycollectorsemporium.com,Open
Retro Trading Cards & Collectibles,4121 Cleveland St,Gary,IN,46408,USA,Midwest,(219) 455-9727,RetrotradingcardsNcollectibles@gmail.com,retrotradingcardscollectibles.com,Open
Normal Block Entertainment,706 E Lincolnway,Valparaiso,IN,46383,USA,Midwest,(219) 548-9970,[email protected],normalblockentertainment.com,Open
Who North America,8901 S State Rd 67 Suite F,Camby,IN,46113,USA,Midwest,(317) 481-8189,whona@whona.com,whona.com,Open
Krypton Comics,77 E Washington St,Martinsville,IN,46151,USA,Midwest,(765) 318-6904,krypton_comics@yahoo.com,kryptoncomics.net,Open
Screaming Monkey Comics,11 Ridge Rd,Munster,IN,46321,USA,Midwest,(219) 301-7920,screamerboy23@hotmail.com,screamingmonkeycomics.com,Open
The Hero House,1112 Prospect St,Indianapolis,IN,46203,USA,Midwest,(317) 636-7990,herohousecomics@hotmail.com,facebook.com/herohousecomics,Open
Warehouse Comics Cards & Gaming,620 W Edison Rd Ste 140,Mishawaka,IN,46545,USA,Midwest,(574) 287-3485,information@warehousecomics.com,warehousecomics.com,Open
B.E. Comics,126 W Van Buren St,Columbia City,IN,46725,USA,Midwest,(260) 248-8020,info@beckent.com,beckent.com,Open
TCB Games & Collectibles,656 Eastern Blvd,Clarksville,IN,47129,USA,Midwest,(812) 725-0120,TCBGamesandCollectibles@gmail.com,tcbgamesandcollectibles.com,Open
Galactic Greg's,1407 Lincolnway,Valparaiso,IN,46383,USA,Midwest,(219) 464-0119,galacticgregs@yahoo.com,galacticgregs.com,Open
Berndt Comics & toys,625 W Coliseum Blvd,Fort Wayne,IN,46808,USA,Midwest,(260) 585-3285,berndtcomics@aol.com,berndtcomicsandcollectibles.com,Open
Coffee Break,205 W Water St,Decorah,IA,52101,USA,Midwest,(515) 943-8567,jake@coffeebreakdecorah.com,coffeebreakdecorah.com,Open
Quest Haven Books & Comics,104 N 1st Ave,Winterset,IA,50273,USA,Midwest,(515) 468-0917,contact@questhavenbooks.com,questhavenbooks.com,Open
Bookmarks Retail,4302 SE 4th St,Des Moines,IA,50315,USA,Midwest,(515) 259-1901,Help@bookmarksretail.store,bookmarksretail.store,Open
StarFighter Comics,4501 Southern Hills Dr,Sioux City,IA,51106,USA,Midwest,(712) 224-0070,StarFighterComics@gmail.com,starfightercomics.com,Open
Meltdown Games + Comics,19 3rd Ave NW,Pocahontas,IA,50574,USA,Midwest,(712) 335-7284,info@meltdown.store,meltdown.store,Open
Dungeons and Dodgers,1018 Central Ave,Fort Dodge,IA,50501,USA,Midwest,(515) 302-8670,dungeonsanddodgers@gmail.com,dungeons-and-dodgers-llc.square.site,Open
Jay's CD and Hobby,1421 22nd St,West Des Moines,IA,50266,USA,Midwest,(515) 457-3881,info@jayscdandhobby.com,jaystoysandgames.com,Open
Jay's CD & Hobby,3800 Merle Hay Rd,Des Moines,IA,50310,USA,Midwest,(515) 276-8100,info@jayscdandhobby.com,jaystoysandgames.com,Open
Rodman Comics,318 S Ankeny Blvd,Ankeny,IA,50023,USA,Midwest,(515) 965-4592,rodmancomics@gmail.com,rodmancomics.com,Open
Chops Comics,1410 Kasold Dr Ste A8,Lawrence,KS,66049,USA,Midwest,(785) 766-3656,info@chopscomics.com,chopscomics.com,Open
Wizard's Alley,114 N St Francis Ave Suite 200,Wichita,KS,67202,USA,Midwest,(316) 262-6642,[email protected],wizardsict.com,Open
Hooked on Comics & Cards,3074 SW 29th St Suite 1,Topeka,KS,66614,USA,Midwest,(785) 408-1313,Hookedoncomicstopeka@gmail.com,hookedcomics.com,Open
CRA Z COMICS,207 London Shopping Center,London,KY,40741,USA,Southeast,(606) 401-4702,[email protected],,Open
Knight's Comics & Games,325 3rd St,Henderson,KY,42420,USA,Southeast,(270) 827-4334,kevin_d_knight@bellsouth.net,knightscomicsandgames.com,Open
Heroes Realm,1624 Old Paris Rd Ste 140,Lexington,KY,40505,USA,Southeast,(859) 268-0097,heroesrealm@twc.com,facebook.com/HeroesRealm,Open
Derby Comics and Games,709 Mt Eden Rd Suite 4,Shelbyville,KY,40065,USA,Southeast,(502) 437-5007,derbycomicsandgames@gmail.com,derbycomicsandgames.com,Open
A+ Comics & Collectibles,466 Southland Dr,Lexington,KY,40503,USA,Southeast,(859) 276-1118,apluscomicshop@yahoo.com,apluscomics.com,Open
Etown Comics,1704 N Dixie Ave Ste A003,Elizabethtown,KY,42701,USA,Southeast,(270) 769-0100,max@etowncomics.com,etowncomics.com,Open
Japan Imports,8870 Bankers St,Florence,KY,41042,USA,Southeast,(859) 869-0119,japanimportsky@gmail.com,japanimportsinc.com,Open
Infinite Collectibles,3215 Irvin Cobb Dr Ste 103,Paducah,KY,42003,USA,Southeast,(270) 415-5859,infinitecollectibles@gmail.com,infinitecomicsandcollectibles.com,Open
The Great Escape,2433 Bardstown Rd,Louisville,KY,40205,USA,Southeast,(502) 456-2216,thegreatescapelouisville@gmail.com,thegreatescapeonline.com,Open
The Vault Comix,1008 Eastland Dr Suite D,Lexington,KY,40505,USA,Southeast,(859) 303-4002,thevaultcomix@gmail.com,thevaultcomix.com,Open
Game X Change,4525 Outer Loop,Louisville,KY,40219,USA,Southeast,(502) 290-9238,louisville@gxc-stores.com,gogamexchange.com,Open
Big Bang,4786 Frederica St,Owensboro,KY,42301,USA,Southeast,(270) 688-5800,bigbang.comics.games@gmail.com,buybigbang.com,Open
Stronghold Comics & Collectibles,2508 Johnston St,Lafayette,LA,70503,USA,Southeast,(337) 443-0743,customerservice@strongholdcollectibles.com,strongholdcollectibles.com,Open
Paper Heroes,3941 Ryan St Ste A,Lake Charles,LA,70605,USA,Southeast,(337) 478-2143,cinquemano@xspedius.net,paperheroesstore.square.site,Open
Showcase Comics and Collectables,1400 Corporate Square Dr,Slidell,LA,70458,USA,Southeast,(985) 214-9100,atomicfrogstudios@charter.net,showcasecomicsla.com,Open
D-Squared Collectibles,475 Pleasant St,Lewiston,ME,04240,USA,Northeast,(207) 241-2395,dsquaredcollectibles@gmail.com,d-squared.org,Open
Crown Collectibles,830 Main St Unit D4,Presque Isle,ME,04769,USA,Northeast,(207) 701-7405,crowncollectibles@outlook.com,crowncollectibles.com,Open
3D Games Farmington,174 Broadway,Farmington,ME,04938,USA,Northeast,(207) 779-1944,brian@3dgamesfarmington.com,3dgamesfarmington.com,Open
Eagle Hill Stamps & Coins,351 Main St,Presque Isle,ME,04769,USA,Northeast,(207) 764-5701,eaglehill@mfx.net,,Open
Portals Games & Comics,100 N Main St,Stevensville,MD,21666,USA,Northeast,(410) 800-8787,contact@portalsshop.com,portalsshop.com,Open
Portals Games & Comics,8249B Dickerson Ln,Salisbury,MD,21804,USA,Northeast,(410) 800-8787,contact@portalsshop.com,portalsshop.com,Open
Portals Games & Comics,415A E Dover St,Easton,MD,21601,USA,Northeast,(410) 800-8787,contact@portalsshop.com,portalsshop.com,Open
Dreamers & Make-Believers,400 S Highland Ave,Baltimore,MD,21224,USA,Northeast,(410) 624-5624,hello@dreamersbooks.com,dreamersbmore.com,Open
Universal Comics,5403 East Dr,Arbutus,MD,21227,USA,Northeast,(410) 536-1210,Shop@UniversalComics.com,universalcomics.com,Open
Third Eye Comics,4744 Cherry Hill Rd,College Park,MD,20740,USA,Northeast,(301) 699-0498,info@thirdeyecomics.com,thirdeyecomics.com,Open
Comics to Astonish,1332 Londontown Blvd Suite 110,Eldersburg,MD,21784,USA,Northeast,(301) 829-1017,comicss2u@aol.com,comicstoastonish.com,Open
Cards Comics & Collectibles,51 Main St,Reisterstown,MD,21136,USA,Northeast,(410) 526-7410,cardscomicscollectiblesweb@gmail.com,cardscomicscollectibles.com,Open
VTC Games & More,393 N Main St Ste 102-103,Mansfield,MA,02048,USA,Northeast,(774) 265-7290,info@venturetradeco.com,venturetradeco.com,Open
The Cape Comics,795 W Main St,Hyannis,MA,02601,USA,Northeast,(508) 212-3772,thecapecomics@gmail.com,thecapecomics.com,Open
Valley Wild Books,492 King St,Littleton,MA,01460,USA,Northeast,(978) 339-4523,valleywildbooks@gmail.com,valleywildbooks.com,Open
Brookline Booksmith,279 Harvard St,Brookline,MA,02446,USA,Northeast,(617) 566-6660,orders@brooklinebooksmith.com,brooklinebooksmith.com,Open
Friar Tuck's Comics & Collectibles,310 Harvard St 2nd Floor,Brookline,MA,02446,USA,Northeast,(617) 505-5559,rob@friartuckscomics.com,friartuckscomics.com,Open
Paper Asylum,260 Cabot St,Beverly,MA,01915,USA,Northeast,(978) 998-4692,paperasylum.corporate@gmail.com,paper-asylum.com,Open
Rubber Chicken Comics,15 N Main St Ste A4,Bellingham,MA,02019,USA,Northeast,(508) 966-2210,RCCOMIC@AOL.COM,rubberchickencomics.com,Open
Newbury Comics,38 Pleasant St,Northampton,MA,01060,USA,Northeast,(413) 586-8526,customerservice@newburycomics.com,newburycomics.com,Open
Mint Collectibles,325 Main Street,North Reading,MA,01864,USA,Northeast,(978) 664-6600,mintcomicsncards@gmail.com,mintcomicsncards.com,Open
Nick's Comic Strip,85 Andover St Unit K Ste 149 N,Danvers,MA,01923,USA,Northeast,(978) 304-0396,[email protected],nickscs.com,Open
Zombie Hideout,362 Cooley St,Springfield,MA,01128,USA,Northeast,(413) 273-1837,zombie.hideout@yahoo.com,zombie-hideout.com,Open
Little Giant Comics & Collectibles,15 Union St Ste 315,Lawrence,MA,01840,USA,Northeast,(978) 569-6027,jason@littlegiantcomics.com,littlegiantcomics.com,Open
Gary Dolgoff Comics,116 Pleasant St Suite 213,Easthampton,MA,01027,USA,Northeast,(413) 529-0326,gary@gdcomics.com,gdcomics.com,Open
Crazy4Comics,276 West Main Street,Northborough,MA,01532,USA,Northeast,(774) 535-2646,info@gocrazy4comics.com,crazy4comics.com,Open
Sarge & Red's Toys and Collectibles,45157 Van Dyke Ave,Utica,MI,48317,USA,Midwest,(586) 843-3399,sargeandreds@gmail.com,sargeandreds.com,Open
Casperson Books,302 Broadway,Niles,MI,49120,USA,Midwest,(269) 362-1978,acaspersonbooks@comcast.net,caspersonbooks.com,Open
Secret Crisis Comics,1165 S Main St,Chelsea,MI,48118,USA,Midwest,(734) 593-7110,secretcrisiscomics@gmail.com,secretcrisiscomics.com,Open
Rabbit Hole-Comics,441 E Main St,Hartford,MI,49057,USA,Midwest,(269) 621-5274,rabbithole.comicshartford@gmail.com,rabbithole-comics.com,Open
Vault of Midnight,2857 E Grand Blvd,Detroit,MI,48202,USA,Midwest,(313) 481-2165,events@vaultofmidnight.com,vaultofmidnight.com,Open
Rebel's Sanctuary,135 Washington St,Manistee,MI,49660,USA,Midwest,(231) 887-4274,rebellioussanctuary@gmail.com,rebelsmanistee.com,Open
9planets comics and collectibles,20702 Van Born Rd,Dearborn Heights,MI,48125,USA,Midwest,(313) 724-6482,9planetscc@gmail.com,,Open
Comic City,2125 S Telegraph Ste D,Bloomfield Township,MI,48302,USA,Midwest,(248) 334-4139,bloomfield@comiccity.com,comiccity.com,Open
Fanfare,4415 S Westnedge Ave,Kalamazoo,MI,49008,USA,Midwest,(269) 349-8866,info@fanfareland.com,fanfareland.com,Open
Argos Comics & Used Book Shop,1405 Robinson Rd SE,Grand Rapids,MI,49506,USA,Midwest,(616) 454-0111,argos@argosbooks.com,argosbooks.com,Open
The Prop Shop Vintage Toys and More!,3735 Lapeer Rd Unit A,Port Huron,MI,48060,USA,Midwest,(810) 216-6610,casey@thepropshopsite.com,thepropshopsite.com,Open
Warp 9 Comics & Collectibles,21 W 14 Mile Rd,Clawson,MI,48017,USA,Midwest,(248) 288-5699,warp9comics@gmail.com,warpninecomics.com,Open
J&T Comics,31364 Harper Ave,St Clair Shores,MI,48082,USA,Midwest,(586) 405-9066,jfcomicshop@gmail.com,jtcomics.com,Open
Taiga Games,145 W Washington St,Marquette,MI,49855,USA,Midwest,(906) 273-2747,taigagamestore@gmail.com,taigagames.square.site,Open
Media Reload,13285 Hall Rd,Utica,MI,48315,USA,Midwest,(586) 799-7466,mediareloadburton@att.net,mediareload.net,Open
Nankin Hardware & Hobby,35101 Ford Rd,Westland,MI,48185,USA,Midwest,(734) 722-5700,nankinhobby@nankinhardware.com,nankinhardware.com,Open
Wargames North,313 N Mitchell St,Cadillac,MI,49601,USA,Midwest,(231) 775-2522,jmiller@wargamesnorth.com,wargamesnorth.com,Open
Superdan's Comics Online Store,14945 Imlay City Rd,Capac,MI,48014,USA,Midwest,(810) 523-1033,superdan1976@frontier.com,,Open
Comic Culture,201 E Broadway St,Mt Pleasant,MI,48858,USA,Midwest,(989) 773-8464,ComicCultureCo@gmail.com,,Open
Time Travelers,3116 Twelve Mile Rd,Berkley,MI,48072,USA,Midwest,(248) 548-7213,thetraveler@timetravelersonline.com,timetravelersonline.com,Open
ClockTower Collectibles,518 N Main St,Chelsea,MI,48118,USA,Midwest,(734) 593-9137,hello@clocktowercomix.com,clocktowercomix.com,Open
Story Arc Comics & Collectibles,5753 Egan Dr,Savage,MN,55378,USA,Midwest,(952) 882-7282,storyarccomics@gmail.com,storyarccomics.com,Open
Issues Needed Comics,15465 Cedar Ave Suite 160,Apple Valley,MN,55124,USA,Midwest,(952) 683-9339,wanvigcomics@gmail.com,issuesneededcomics.com,Open
Rogue Robot Games & Comics,3 S 4th Ave W,Duluth,MN,55802,USA,Midwest,(218) 727-8101,mail@roguerobotgames.com,roguerobotmn.com,Open
Roy's Comics & Games,210 3rd St NW,Bemidji,MN,56601,USA,Midwest,(218) 333-6759,royscomics@hotmail.com,royscomicsgames.com,Open
Collector's Connection,2220 Mountain Shadow Dr,Duluth,MN,55811,USA,Midwest,(218) 726-1360,collconn@gmail.com,collectorsconnectionduluth.com,Open
Greatest Hits Music & Books,675 W Main St,Tupelo,MS,38804,USA,Southeast,(662) 205-4464,joehh19@yahoo.com,ghmusicandbooks.com,Open
Three Alarm Comics,15210 Lemoyne Blvd,Biloxi,MS,39532,USA,Southeast,(228) 257-3245,3alarmcomics@cableone.net,threealarmcomics.com,Open
Azure Comics,1214 S Main St Suite C,Poplarville,MS,39470,USA,Southeast,(601) 795-9080,Azurecomicscollectibles@gmail.com,azurecomics.com,Open
The Hero Complex,124 Jungermann Rd,St Peters,MO,63376,USA,Midwest,(636) 782-4376,info@theherocomplex.com,theherocomplex.com,Open
Griffins Keep Cards Comics and Games,304 East Jackson Street Ste 5A,Willard,MO,65781,USA,Midwest,(417) 425-1313,support@griffinskeep.us,griffinskeep.us,Open
Nerd City Comics,3322 S Campbell Ave,Springfield,MO,65807,USA,Midwest,(417) 371-1542,nerdcitycomics@gmail.com,,Open
Apex Comics,2713 Cantrell Road,Harrisonville,MO,64701,USA,Midwest,(913) 568-9476,apexcomicsllc@gmail.com,,Open
MJofComics,5377 State Hwy N,Cottleville,MO,63304,USA,Midwest,(636) 244-3626,mjofcomics@gmail.com,mjofcomics.com,Open
"Endless Comics, Games and Cards",440a Rue Saint Francois,Florissant,MO,63031,USA,Midwest,(314) 837-7333,Sales@endlesscgc.com,endlesscgc.com,Open
The Record Space,8716 Gravois Rd,Saint Louis,MO,63123,USA,Midwest,(314) 437-2727,junker138@msn.com,therecordspace.com,Open
The Opened Book,606 Mark Twain Ave,Hannibal,MO,63401,USA,Midwest,(573) 221-6449,Jadecrone56@gmail.com,theopenedbook.com,Open
"Rublemizers Comics, Toys, Collectibles",3165 S Campbell Ave,Springfield,MO,65807,USA,Midwest,(417) 882-0070,elvishulkme@yahoo.com,dltoysrublemizers.wixsite.com/store,Open
Hurley's Heroes Games & Hobbies,824 S Main St,Joplin,MO,64801,USA,Midwest,(417) 782-6642,hurleysheroes@gmail.com,hurleysheroes.com,Open
Collect-A-Bid Auctions,206 SW McClendon,Lees Summit,MO,64081,USA,Midwest,(816) 507-9121,Steve@collect-a-bid.com,collect-a-bid.com,Open
Graybeard's Collectibles,3972 US Hwy 93 North Suite G,Stevensville,MT,59870,USA,West,(406) 777-5238,graybeardcollectibles@gmail.com,graybeardcollectibles.com,Open
Splash Page,2545 Central Ave Unit J,Billings,MT,59102,USA,West,(406) 652-9444,scott@splashpagemontana.com,splashpagemontana.com,Open
The Comic Cop Bookstore,821 W Oklahoma Ave Suite 4,Grand Island,NE,68801,USA,Midwest,(308) 391-1646,whantcomics@gmail.com,comic-cop.com,Open
Trade-A-Tape Comic Center,145 S 9th St,Lincoln,NE,68508,USA,Midwest,(402) 435-6063,[email protected],tradeatapecomiccenter.com,Open
Ground Zero Hobby,5710 S 77th St,Ralston,NE,68127,USA,Midwest,(402) 733-7212,gzomaha@cox.net,gzomaha.com,Open
Dragon's Lair Comics & Games,2311 N 90th St,Omaha,NE,68134,USA,Midwest,(402) 399-9141,lair@dragons-lair.com,dragons-lair.com,Open
Rogue Toys/Comics,2115 S Rainbow Blvd,Las Vegas,NV,89146,USA,West,(702) 330-3945,roguetoys@yahoo.com,roguetoys.com,Open
COSMIC COMICS!,3830 E Flamingo Rd Ste F-2,Las Vegas,NV,89121,USA,West,(702) 451-6611,info@cosmiccomicslv.com,cosmiccomics.vegas,Open
Frank-N-Freds Comics & Cards,1910 Idaho St Unit 103,Elko,NV,89801,USA,West,(775) 777-1325,franknfreds@aol.com,franknfreds.com,Open
Action Comics & Games,210 N Boulder Hwy Ste 160,Henderson,NV,89015,USA,West,(702) 387-5566,vegaschess@msn.com,actioncomicsandsports.com,Open
The Sci Fi Center,900 Karen Ave Suite B209,Las Vegas,NV,89109,USA,West,(702) 900-4335,thescificenterinfo@gmail.com,thescificenter.com,Open
Poor Boy Comics & Collectibles,3680 S Maryland Pkwy Suite 399,Las Vegas,NV,89169,USA,West,(725) 777-3165,poorboycomics@gmail.com,poorboycomics.com,Open
Desert Wind Comics,2421 Tech Center Ct Suite 100,Las Vegas,NV,89128,USA,West,(702) 592-4792,[email protected],desertwindcomics.com,Open
"Miller's Comics, Cards, Collectables and Toys",62 Lafayette Rd,North Hampton,NH,03862,USA,Northeast,(603) 379-9308,Millersccct@gmail.com,millersccct.com,Open
Toy City,133 Key Rd,Keene,NH,03431,USA,Northeast,(603) 352-3131,toycity@choiceonemail.com,toycityonline.com,Open
Double Midnight Comics,67 S Main St,Concord,NH,03301,USA,Northeast,(603) 715-2683,concord@dmcomics.com,dmcomics.com,Open
Eyes of the Owl,59B Glendon St,Wolfeboro,NH,03894,USA,Northeast,(603) 569-4040,info@usedbqqks.com,usedbqqks.com,Open
Neon Mermaid Comics,240 Mathistown Rd #110,Little Egg Harbor Township,NJ,08087,USA,Northeast,(609) 756-6182,info@neonmermaidcomics.com,neonmermaidcomics.com,Open
Final Boss Comics & Games,10 Gordon Ave,Lawrence Township,NJ,08648,USA,Northeast,(609) 447-1093,FinalBossComics@gmail.com,finalbosscomics.com,Open
Mutation Comics & More,18 Charles St,Medford,NJ,08055,USA,Northeast,(856) 316-7236,info@mutationcomics.com,mutation.store,Open
Comic Lair,1606 S Broad St,Trenton,NJ,08610,USA,Northeast,(609) 695-8855,comic-lair@comic-lair.com,comic-lair.com,Open
Pandora's Box Toys & Collectibles,191 Route 15,Lafayette Township,NJ,07848,USA,Northeast,(973) 827-3003,PandorasBoxNJ@gmail.com,pandorasboxnj.com,Open
Shadow Hobbies,1012 McBride Ave,Woodland Park,NJ,07424,USA,Northeast,(973) 689-6442,support@shadowracing.com,shadowhobbies.com,Open
Farpoint Toys & Collectibles,5113 Harding Hwy,Mays Landing,NJ,08330,USA,Northeast,(609) 829-8697,contact@farpointtoys.com,farpointtoys.com,Open
Crossroad Comics and Collectibles,23 S Broadway,Pitman,NJ,08071,USA,Northeast,(856) 582-0396,info@crossroadcomics.com,crossroadcomics.com,Open
Zapp Comics & Cards,700 Tennent Rd,Manalapan Township,NJ,07726,USA,Northeast,(732) 617-1333,zappcomics@aol.com,zappcomics.com,Open
Fat Moose Comics,53 A Parsippany Rd,Whippany,NJ,07981,USA,Northeast,(973) 884-4898,fatmoose97@aol.com,fatmoosecomics.com,Open
Ron's Comic World,1690 Route 38,Mt Holly,NJ,08060,USA,Northeast,(609) 267-6999,comicworld@comcast.net,ronscomicworld.com,Open
Panther Comics,5200 NJ-42,Blackwood,NJ,08012,USA,Northeast,(856) 366-4052,pctoys15@gmail.com,panther-comics.com,Open
The 616 Comics,PO Box 324,Mantua Township,NJ,08051,USA,Northeast,,the616comics@gmail.com,the616comics.com,Open
Anthony's Comic Book Art,43 Romeo St,Moonachie,NJ,07074,USA,Northeast,(917) 821-8893,anthony@anthonyscomicbookart.com,anthonyscomicbookart.com,Open
Comic Crypt,73 Highway 35,Eatontown,NJ,07724,USA,Northeast,(732) 747-8686,comiccrypt@aol.com,amazingstoriesnj.com,Open
Plunder Palace,914 Township Ln,Cherry Hill Township,NJ,08002,USA,Northeast,(856) 528-2646,plunderpalace@startmail.com,plunderpalace.com,Open
True Believers,713 Bloomfield Ave,Verona,NJ,07044,USA,Northeast,(973) 239-0012,verona@shoptruebelievers.com,shoptruebelievers.com,Open
New World Manga,93 E Mount Pleasant Ave,Livingston,NJ,07039,USA,Northeast,(973) 597-0625,nwmanga@hotmail.com,newworldmanga.com,Open
Adventureland Store,100 Premium Outlets Dr,Blackwood,NJ,08012,USA,Northeast,(856) 772-5900,adventurelandstore@gmail.com,https://adventurelandstore.com,Open
Farpoint Frank's,1343 Harding Hwy,Richland,NJ,08350,USA,Northeast,(609) 829-8697,info@farpointtoys.com,https://farpointtoys.com,Open
All In One Collectibles,540 Rt. 10 West,Randolph,NJ,07869,USA,Northeast,(973) 664-0912,all_in_one_collectibles@yahoo.com,http://allinonecollectibles.com,Open
Farpoint at Woodbury Antiques,66 S Broad St,Woodbury,NJ,08096,USA,Northeast,(856) 853-2999,info@farpointtoys.com,https://farpointtoys.com,Open
Searchlight Comics,6 Maple Ct,Butler,NJ,07405,USA,Northeast,(800) 893-1373,robert@searchlightcomics.com,https://searchlightcomics.com,Open
Amy's Bookcase,2530 San Juan Blvd,Farmington,NM,87401,USA,Southwest,(505) 327-4647,amysbookcase@yahoo.com,https://amysbookcase1.com,Open
Treasure Hunt Games,701 N Prince St Suite B,Clovis,NM,88101,USA,Southwest,(575) 935-3624,infothgamesinc@gmail.com,https://www.thgamesinc.com,Open
Don's Paperback Books,1013 San Mateo Blvd SE,Albuquerque,NM,87108,USA,Southwest,(505) 268-0520,sales@dons.com,https://www.dons.com,Open
Big Adventure Comics,328 S Guadalupe St Ste G,Santa Fe,NM,87501,USA,Southwest,(505) 992-8783,info@bigadventurecomics.com,http://bigadventurecomics.com,Open
Twin Suns Comics and Games,6301 Riverside Plaza NW Ste L-1,Albuquerque,NM,87120,USA,Southwest,(505) 433-9490,Twinsunscomics@gmail.com,http://twinsunscomics.com,Open
Spineworks Comics NYC,7410 69th Rd 2FL,Middle Village,NY,11379,USA,Northeast,(646) 360-0526,spineworkscomicsnyc@gmail.com,https://spineworkscomicsnyc.com,Open
Beldame Books,71 Lawrence St Suite 118E,Glens Falls,NY,12801,USA,Northeast,(518) 682-9065,beldamebooks@gmail.com,beldamebooks.com,Open
The Imperial Castle Toy Shop,33 E Main St Suite 1,Pawling,NY,12564,USA,Northeast,(845) 493-0428,John@Imperialcastletoyshop.com,imperialcastletoyshop.com,Open
Bearded Dragon Games,41 Dietz St,Oneonta,NY,13820,USA,Northeast,(607) 432-5722,beardeddragon@mail.com,beardeddragongames.online,Open
Word Up,2113 Amsterdam Ave,New York,NY,10032,USA,Northeast,(347) 688-4456,info@wordupbooks.com,wordupbooks.com,Open
Comics Etc.,1115 E Main St Door 8,Rochester,NY,14609,USA,Northeast,(585) 473-7150,comicsetc1@gmail.com,comicsetc.biz,Open
FOXPROWL COLLECTABLES,440 Ellicott St,Batavia,NY,14020,USA,Northeast,(585) 250-0897,sales@foxprowl.com,foxprowl.com,Open
Two Kings Comics,171 W Main St,Victor,NY,14564,USA,Northeast,(585) 398-8021,info@twokingscomics.com,twokingscomics.com,Open
Collectibles Galore,615 S Main St,North Syracuse,NY,13212,USA,Northeast,(315) 373-0793,[email protected],,Open
Cosmic Comics and Games,846 Merrick Rd,Baldwin,NY,11510,USA,Northeast,(516) 763-1133,sales@ccandgonline.com,cosmiccomicsandgames.com,Open
Sound Go Round,305 Vestal Pkwy E,Vestal,NY,13850,USA,Northeast,(607) 785-0002,sgrjay@gmail.com,soundgoroundny.com,Open
Midtown Comics Times Square,200 W 40th St Fl 2,New York,NY,10018,USA,Northeast,(212) 302-8192,info@midtowncomics.com,midtowncomics.com,Open
Anime Castle,35-32 Union St,Flushing,NY,11354,USA,Northeast,(347) 438-1296,store@animecastle.com,animecastle.com,Open
Best Comics International,1300 Jericho Tpke,New Hyde Park,NY,11040,USA,Northeast,(516) 328-1900,tommybest@aol.com,bestcomics.com,Open
Jetpulse Studios,260 65th St,Brooklyn,NY,11220,USA,Northeast,(347) 291-1588,[email protected],jakejetpulse.com,Open
Squiggy's Dugout,237 E Main St,New Rochelle,NY,10801,USA,Northeast,(914) 636-7585,squiggysdugout@gmail.com,squiggysdugout.com,Open
Midtown Comics,32-11 41st St,Queens,NY,11103,USA,Northeast,(212) 302-8192,info@midtowncomics.com,midtowncomics.com,Open
Dave & Adam's Retail Store,8075 Sheridan Dr,Williamsville,NY,14221,USA,Northeast,(716) 626-0000,service@pressingstation.com,dacardworld.com,Open
Larger Than Life,4100 NY-31,Clay,NY,13041,USA,Northeast,(315) 622-1891,Sales@LargerthanLife-Comics.com,largerthanlifetoys.com,Open
Fordham Comics,390 E Fordham Rd,Bronx,NY,10458,USA,Northeast,(718) 563-8505,fordhamudining@gmail.com,,Open
Larger Than Life,9090 Destiny USA Dr,Syracuse,NY,13204,USA,Northeast,(315) 423-8697,Sales@LargerthanLife-Comics.com,largerthanlifetoys.com,Open
Route 110 Comic Show,535 Broad Hollow Road,Melville,NY,11747,USA,Northeast,(631) 470-4966,mark@licomicbookexpo.com,route110comicshow.com,Open
ComicConnect,36 W 37th St FL 6,New York,NY,10018,USA,Northeast,(888) 779-7377,support@comicconnect.com,comicconnect.com,Open
Wally's World O Comixs,12 South Broad Suite 1,Norwich,NY,13815,USA,Northeast,(607) 316-4365,wallysworldocomixs@gmail.com,wallysworldocomixs.com,Open
Brooklyn Comic Shop,321-331 DeKalb Ave,Brooklyn,NY,11205,USA,Northeast,,info@brooklyncomicshop.com,brooklyncomicshop.com,Open
Kent Comics,1110 Route 52,Carmel Hamlet,NY,10512,USA,Northeast,(845) 228-0849,kentcomics@hughes.net,kentcomics.com,Open
The Collector,2111 E 18th St,Brooklyn,NY,11229,USA,Northeast,(917) 474-8976,thecollectorbrooklyn@gmail.com,linktr.ee/thecollectorbrooklyn,Open
Comics For Collectors,124 W State St,Ithaca,NY,14850,USA,Northeast,(607) 272-3007,comics@comicsforcollectors.com,comicsforcollectors.com,Open
St. Mark's Comics,51 35th St Ste-B118,Brooklyn,NY,11232,USA,Northeast,(212) 598-9439,sales@stmarkscomics.com,stmarkscomics.com,Open
The Comic Book Shop,118 Bruton Street,Troy,NC,27371,USA,Southeast,(910) 571-1904,thecomicbookshopintroy@gmail.com,thecomicbookshopintroy.com,Open
Doc's Basement,427 East Catawba Street Suite B,Belmont,NC,28012,USA,Southeast,(980) 283-7297,docsbsmt2@att.net,docsbasement.net,Open
Lostboy Comics,7499 US-264,Washington,NC,27889,USA,Southeast,(252) 468-2713,sales@lostboycomics.com,lostboycomics.com,Open
Dragon's Den,"643 Greenway Rd, Suite O",Boone,NC,28607,USA,Southeast,(828) 295-2698,dragonsdenboone@gmail.com,dragonsdenboone.com,Open
Dragon's Lair Comics,"6243 Yadkin Rd, Suite 104",Fayetteville,NC,28303,USA,Southeast,(910) 491-5747,dragonslairnc@gmail.com,dragonslairnc.com,Open
Fanboy Comics,"419 S College Rd, Ste 32",Wilmington,NC,28403,USA,Southeast,(910) 452-7828,fanboycomics@bellsouth.net,fanboycomics.biz,Open
Comic Envy,333 Merrimon Ave A,Asheville,NC,28801,USA,Southeast,(828) 252-7600,comicenvystore@gmail.com,comicenvy.com,Open
NOSTALGIA NEWSSTAND,"1322 E 10th St, Ste C",Greenville,NC,27858,USA,Southeast,(252) 758-6909,nostalgianewsstand@gmail.com,nostalgianewsstand.blogspot.com,Open
Reader's Corner,3201 Hillsborough St,Raleigh,NC,27607,USA,Southeast,(919) 828-7024,readcorner@aol.com,,Open
Lion's Eye Games,"1249 Hargett St, Suite B",Jacksonville,NC,28540,USA,Southeast,(910) 333-9562,li0nseyegames@gmail.com,lionseyegames.com,Open
Crowemag Toys,3721-110 Lynn Rd,Raleigh,NC,27613,USA,Southeast,(919) 719-9087,store@crowemagtoys.com,crowemagtoys.com,Open
Heroes Aren't Hard To Find,417 Pecan Ave,Charlotte,NC,28204,USA,Southeast,(704) 375-7462,heroes@heroesonline.com,heroesonline.com,Open
Ssalefish Comics,"1622 Stanley Rd, Suite 118",Greensboro,NC,27407,USA,Southeast,(336) 897-3623,ssalefishgso@gmail.com,ssalefish.net,Open
Ssalefish Comics Concord,"10099 Weddington Rd, Suite 118",Concord,NC,28027,USA,Southeast,(980) 258-0198,ssalefishconcord@gmail.com,ssalefish.net,Open
Fan-Tastic Cards & Comics,"100 District Dr, Unit 010",Asheville,NC,28803,USA,Southeast,(828) 505-0933,support@fan-tasticshop.com,fan-tasticshop.com,Open
Rebel Base Comics & Toys,"701 S Sharon Amity, Suite C",Charlotte,NC,28211,USA,Southeast,(704) 442-9660,rebelbasecomicsandtoys@gmail.com,rebelbasecomics.com,Open
DreamDaze Comics Fun & Games,2801-1B Ward Blvd,Wilson,NC,27893,USA,Southeast,(252) 281-5586,ddcfg@dreamdazecfg.com,dreamdazecfg.com,Open
All Things Collectible,5102 Wilkinson Blvd,Gastonia,NC,28056,USA,Southeast,(704) 824-0010,sportscardsandall@hotmail.com,getyousomecollectibles.com,Open
Spandex City,8420 Bellhaven Blvd,Charlotte,NC,28216,USA,Southeast,(704) 909-7168,service@spandexcity.com,spandexcity.com,Open
Ssalefish Comics,"3232 Silas Creek Pkwy, Suite 20",Winston-Salem,NC,27103,USA,Southeast,(336) 760-9851,ssalefish@hotmail.com,ssalefish.net,Open
Imperial Comics & Games,105 N Lafayette St,Shelby,NC,28150,USA,Southeast,(704) 600-6253,info@imperialcomicsandgames.com,imperialcomicsandgames.com,Open
Jedicomicguy,91 South Catawba Avenue,Old Fort,NC,28762,USA,Southeast,(828) 668-4282,jedicomicguy@gmail.com,,Open
Comic Realms,106 N Mandan St,Bismarck,ND,58501,USA,Midwest,(701) 751-4540,orders@comicrealms.com,comicrealms.com,Open
Red Curtain Comics & Collectibles,3235 Manchester Rd Suite 11,Akron,OH,44319,USA,Midwest,(234) 334-1050,redcurtaincomics@gmail.com,redcurtaincomics.com,Open
House of M Comics and Arcade,1369 Ohio Pike Suite 7,Amelia,OH,45102,USA,Midwest,(513) 760-3517,info@hofmcincy.com,hofmcincy.com,Open
Krazzy Comics,1010 N Hamilton Rd,Gahanna,OH,43230,USA,Midwest,(614) 502-9293,krazzycomics@gmail.com,mykrazzycomics.com,Open
Crooked Dog Comics,1373 Central Ave,Middletown,OH,45044,USA,Midwest,,hello@crookeddogcomics.com,crookeddogcomics.com,Open
Worlds Greatest Comics,5974 Westerville Rd,Westerville,OH,43081,USA,Midwest,(614) 891-3000,worldsgreatestcomics@yahoo.com,wgcomics.com,Open
Bill's Books & More,2215 6th St SW,Canton,OH,44706,USA,Midwest,(330) 453-3996,info@billsbooksandmore.com,billsbooksandmore.com,Open
Monarch Comics,4400 Heatherdowns Blvd Ste 11A,Toledo,OH,43614,USA,Midwest,(419) 382-1451,monarchcomics@sbcglobal.net,monarchcomics.net,Open
Rockin' Rooster Comics & Games,5000 Glenway Ave,Cincinnati,OH,45238,USA,Midwest,(513) 661-7625,Rockinroostercomics@gmail.com,rockinroostercomics.com,Open
Kidforce Collectibles,103 Front St,Berea,OH,44017,USA,Midwest,(440) 239-7777,kidforce7@att.net,kidforcecollectibles.com,Open
Wonder Comics & More,100 N Miami St,Trenton,OH,45067,USA,Midwest,(513) 468-4001,wondercomicsmore@gmail.com,wondercomicsmore.business.site,Open
Up Up & Away!,9687 Kenwood Rd,Blue Ash,OH,45242,USA,Midwest,(513) 936-6300,blue_ash@upupandawaycomics.com,uuacomics.com,Open
Rubber City Comics,74 E Mill St,Akron,OH,44308,USA,Midwest,(330) 548-5992,store@rubbercitycomics.com,rubbercitycomics.com,Open
Paper Street Trading Company,4409 Montgomery Rd,Norwood,OH,45212,USA,Midwest,(513) 918-3192,paperstreettradingcompany@gmail.com,instagram.com/paperstreettrading,Open
Comic Shop Plus,235 S 21st St,Newark,OH,43055,USA,Midwest,(740) 344-5471,jeremy@mentaladventures.com,comicshopplus.com,Open
New Dimension Comics,67800 Mall Ring Rd Unit 875,St Clairsville,OH,43950,USA,Midwest,(740) 695-1020,ohiovalley@ndcomics.com,ndcomics.com,Open
Wizard's Asylum Comics and Games,3717 W Main St,Norman,OK,73072,USA,Southwest,(405) 292-4263,wizardsasylum@gmail.com,wizardsnorman.com,Open
Speeding Bullet Comics,614 N Porter Ave,Norman,OK,73071,USA,Southwest,(405) 360-6866,sbcomics@aol.com,speedingbulletcomics.com,Open
Atomik Pop!,7884 S Western Ave,Oklahoma City,OK,73139,USA,Southwest,(405) 635-0848,atomikpop@sbcglobal.net,atomikpop.com,Open
Village Sanctuary Comics & Games,9420 N May Ave,Oklahoma City,OK,73120,USA,Southwest,(405) 407-2213,sanctuary@villagemethodist.org,sanctuary-comics.com,Open
Impulse Creations Comics & Collectibles,8228 E 61st St Ste 121,Tulsa,OK,74133,USA,Southwest,(918) 408-3718,staff@impulsecreations.com,impulsecreations.com,Open
Excalibur Comics,2444 SE Hawthorne Blvd,Portland,OR,97214,USA,West,(503) 231-7351,excaliburcomicspdx@gmail.com,excaliburcomicspdx.com,Open
Future Dreams,1847 E Burnside St Ste 116,Portland,OR,97214,USA,West,(503) 231-8311,fdb@hevanet.com,futuredreams.biz,Open
Doomed Planet Comics,3138 Dobson St #3,Pittsburgh,PA,15219,USA,Northeast,(412) 478-7624,Bill@doomedplanetcomics.com,doomedplanetcomics.com,Open
Pittsburgh Comics,113 E McMurray Rd,McMurray,PA,15317,USA,Northeast,(724) 941-5445,colin@pittsburghcomics.com,pittsburghcomics.com,Open
Phantom of the Attic Comics,411 S Craig St,Pittsburgh,PA,15213,USA,Northeast,(412) 621-1210,phantomattic@gmail.com,phantom-attic.com,Open
Comix Connection,6200 Carlisle Pike Ste C,Mechanicsburg,PA,17050,USA,Northeast,(717) 591-2727,cardscomicscollectilbes@yahoo.com,comixconnection.com,Open
Comic Swap,110 S Fraser St,State College,PA,16801,USA,Northeast,(814) 234-6005,info@comicswap.biz,comicswap.net,Open
New Dimension Comics,108 S Main St,Butler,PA,16001,USA,Northeast,(724) 282-5283,butler@ndcomics.com,ndcomics.com,Open
Eide's Entertainment,1121 Penn Ave,Pittsburgh,PA,15222,USA,Northeast,(412) 261-0900,musicdept@eides.com,eides.com,Open
New Dimension Comics,516 Lawrence Ave,Ellwood City,PA,16117,USA,Northeast,(724) 758-2324,ellwood@ndcomics.com,ndcomics.com,Open
Geekadrome : Games and Comics,534 Brookline Blvd,Pittsburgh,PA,15226,USA,Northeast,(412) 344-2494,geekadrome@gmail.com,geekadrome.com,Open
Captain's Comics & Toys,1209 Sam Rittenberg Blvd,Charleston,SC,29407,USA,Southeast,(843) 766-6611,info@captainscomics.com,captainscomics.com,Open
901 Comics,2162 Young Ave,Memphis,TN,38104,USA,Southeast,(901) 421-8819,901comicsmidtown@gmail.com,901comics.com,Open
Outer Limits Comics,209 S Royal Oaks Blvd Ste 116,Franklin,TN,37064,USA,Southeast,(615) 790-2392,info@OLComics.com,olcomics.com,Open
"Epikos Comics, Cards, & Games",271 Northgate Mall Dr,Hixson,TN,37343,USA,Southeast,(423) 531-4184,hixson@epikosccg.com,epikosccg.com,Open
McKay's Knoxville,230 Papermill Pl Way,Knoxville,TN,37919,USA,Southeast,(865) 444-4251,support@mckaybooks.com,mckaybooks.com,Open
Star Comics,3504 34th St,Lubbock,TX,79410,USA,Southwest,(806) 744-0727,mystarcomics@gmail.com,starcomicsonline.com,Open
Titan Comics,3128 Forest Ln Ste 250,Dallas,TX,75234,USA,Southwest,(214) 350-4420,info@titancomics.com,titancomics.com,Open
8th Dimension Comics & Games,15558 FM 529,Houston,TX,77095,USA,Southwest,(281) 856-6506,info@8thdimensioncomics.com,8thdimensioncomics.com,Open
Third Planet Sci-Fi Superstore,2718 Southwest Fwy,Houston,TX,77098,USA,Southwest,(713) 528-1067,3rdPlanetSocialNetworking@Gmail.com,third-planet.com,Open
Generation X Games & Comics,3504 Harwood Rd Ste 304,Bedford,TX,76021,USA,Southwest,(817) 540-5556,genxcomics@hotmail.com,generation-x-comics-and-games.myshopify.com,Open
Fat Ogre Games & Comics,525 Sawdust Rd Ste 101,Spring,TX,77380,USA,Southwest,(281) 292-8444,info@fatogre.com,fatogregames.com,Open
Heroes & Fantasies,920 Pat Booker Rd,Universal City,TX,78148,USA,Southwest,(210) 945-4376,281comics@heroesandfantasies.com,heroesandfantasies.com,Open
Dr. Volt's Comic Connection,79 S Rio Grande,Salt Lake City,UT,84101,USA,West,(801) 485-6114,drvolts@gmail.com,drvolts.com,Open
Amazing Fantasy Comics,13901B Warwick Blvd,Newport News,VA,23602,USA,Southeast,(757) 877-6030,afcomics@aol.com,afcomics.com,Open
Zeno's Books,,Chesapeake,VA,23325,USA,Southeast,(757) 420-2344,zenosbooks@yahoo.com,,Open
Painted Visions Comic Cards,,Woodbridge,VA,22192,USA,Southeast,(703) 730-8457,adam.paintedvisions@gmail.com,paintedvisionscomics.com,Open
Richmond Comix,,North Chesterfield,VA,23235,USA,Southeast,(804) 594-2845,richmix@richmondcomix.com,richmondcomix.com,Open
Atlantis Games & Comics,,Portsmouth,VA,23701,USA,Southeast,(757) 465-1617,atlantiscomicsva@gmail.com,atlantis-comics.com,Open
Big Lick Comics,,Roanoke,VA,24012,USA,Southeast,(540) 655-4643,biglickcomics@gmail.com,biglickcomics.com,Open
World's Best Comics & Games,,Newport News,VA,23601,USA,Southeast,(757) 595-9005,info@worldsbestcomics.biz,worldsbestcomics.biz,Open
The Comic Monster,,Fredericksburg,VA,22408,USA,Southeast,(540) 287-3537,Getthecomicmonster@gmail.com,thecomicmonster.com,Open
Olympic Cards & Comics,,Lacey,WA,98503,USA,West,(360) 459-7721,olympiccardsandcomics@gmail.com,olympiccardsandcomics.com,Open
Harley's Hobby Shop,,Puyallup,WA,98375,USA,West,(253) 693-9161,harleen@harleyshobbyshop.com,stores.comichub.com/harleyshobbyshop,Open
Action City Comics & Toys,,Federal Way,WA,98003,USA,West,(253) 529-9710,support@actioncitycomics.online,actioncitycomics.online,Open
Wit's End Bookstore,,Marysville,WA,98270,USA,West,(360) 386-8997,witsendbookstore@yahoo.com,witsendbookstore.com,Open
Central City Comics,,Ellensburg,WA,98926,USA,West,(509) 962-4376,centralcitycomics@gmail.com,centralcitycomics.com,Open
Stargazer Comics,,Tacoma,WA,98406,USA,West,(253) 310-6996,stargazercomics@gmail.com,stargazercomics.com,Open
Infinite Frontiers Collectibles,,Kennewick,WA,99336,USA,West,(509) 585-4000,infinitefrontiers@gmail.com,,Open
"Midgard Comics, Games & More",,Federal Way,WA,98003,USA,West,(253) 874-3084,Captain@midgardcgm.com,midgardcgm.com,Open
Arcane Comics & More,,Shoreline,WA,98133,USA,West,(206) 781-4875,info@arcanecomicbooks.com,arcanecomicbooks.com,Open
Subspace Comics,,Lynnwood,WA,98037,USA,West,(425) 744-2767,hq@subspacecomics.com,subspacecomics.com,Open
Everett Comics,,Everett,WA,98201,USA,West,(425) 252-8181,everettcomics@aol.com,everettcomics.com,Open
Docking Bay 93,224 Stewart Rd #115,Mount Vernon,WA,98273,USA,West,(360) 428-5808,db932007@hotmail.com,dockingbay93.com,Open
Giant Nerd Books,607 W Garland Ave,Spokane,WA,99205,USA,West,(509) 868-0420,giantnerdbooks@gmail.com,giantnerdbooks.com,Open
Phoenix Comics & Games,113 Broadway E,Seattle,WA,98102,USA,West,(206) 328-4554,info@phoenixseattle.com,shop.phoenixseattle.com,Open
Adventures Underground,,Richland,WA,99354,USA,West,(509) 946-9893,orders@AdvUnderground.com,advunderground.com,Open
Tails to Astonish,,Seattle,WA,98136,USA,West,(206) 397-4373,tailstoastonish@gmail.com,tailstoastonish.com,Open
Digital Heroes,120 E Alder St,Walla Walla,WA,99362,USA,West,(509) 525-0380,info@digitalheroes.com,digitalheroes.com,Open
Merlyn's Comics and Games,,Spokane,WA,99201,USA,West,(509) 624-0957,merlynsinspokane@gmail.com,merlyns.biz,Open
Bel-Kirk Stamp Coin & Comics,,Kirkland,WA,98033,USA,West,(425) 827-4790,sales@belkirkstamps.com,belkirkstamps.com,Open
Hills of Comics,,Auburn,WA,98001,USA,West,(253) 333-8841,hillsofcomics@live.com,,Open
Tricky's Pop Culture Emporium,,Tacoma,WA,98406,USA,West,(253) 272-5288,deadlunchbox@yahoo.com,misstrickys.com,Open
Cheryl's Comics & Toys,,Charleston,WV,25304,USA,Southeast,(304) 925-7269,cherylscomics@yahoo.com,,Open
Artefaktual Comics and Games,,Philippi,WV,26416,USA,Southeast,(304) 460-5754,artefaktual@gmail.com,artefaktualcomics.com,Open
Multiverse Comics,,Parkersburg,WV,26101,USA,Southeast,(304) 893-9082,mick@mvscomics.com,mvscomics.com,Open
Lost Legion Games & Comics,,South Charleston,WV,25303,USA,Southeast,(304) 205-7919,lostlegiongamesandcomics@gmail.com,lostlegiongamesandcomics.com,Open
The Bugle,,Sheboygan,WI,53081,USA,Midwest,,YourDailyBugle@gmail.com,,Open
OtherWorlds Books & More,,Sturgeon Bay,WI,54235,USA,Midwest,(920) 600-1692,otherworlds18@gmail.com,otherworldssturgeonbay.com,Open
Westfield Comics,,Madison,WI,53717,USA,Midwest,(608) 833-4444,etc@westfieldcomics.com,westfieldcomics.com,Open
Heroes Welcome,,Menomonie,WI,54751,USA,Midwest,(715) 505-4660,john@heroeswelcomestore.com,heroeswelcome.online,Open
Graham Crackers Comics,901 Lucinda Ave Ste C,DeKalb,IL,60115,USA,Midwest,(815) 748-3883,kevinhealy@grahamcrackers.com,grahamcrackers.com,Open
River City Hobbies,,La Crosse,WI,54601,USA,Midwest,(608) 519-2269,rivercityhobbies1@gmail.com,rivercityhobbies.com,Open
Inner Child Comics & Collectibles,5921 6th Avenue A,Kenosha,WI,53140,USA,Midwest,(262) 653-0400,stevenkahn@sbcglobal.net,,Open
JayDogComics,,Watertown,WI,53094,USA,Midwest,(262) 349-3678,JayDogComics@gmail.com,jaydogcomics.com,Open
Nerds4Ever,,Newcastle,WY,82701,USA,West,(307) 689-6074,307nerds4ever@gmail.com,307nerds4ever.com,Open
Collectors Hub,,Cheyenne,WY,82001,USA,West,(307) 514-1225,CollectorsHubCCG@gmail.com,collectorshubccg.com,Open
Spellbound Apothecary and Entertainment,,Casper,WY,82609,USA,West,(307) 224-9421,contact@spellboundcasper.com,spellboundcasper.com,Open
Geek Boutique,1175 Main St,Clinton,MA,01510,USA,Northeast,(978) 733-4737,customerservice@tosscomics.com,shopgeekboutique.com,Open
Geek Geek Nerd Nerd,106 SE Evergreen Ave Suite J,Redmond,OR,97756,USA,West,(541) 527-4987,geekgeeknerdnerd@gmail.com,stores.comichub.com/geek_geek_nerd_nerd,Open
Geek Out,209 Cogswell Ave,Pell City,AL,35125,USA,Southeast,(205) 858-9305,,geekoutworld.com,Open
GeekMe,3770 Carman Road Suite 3,Schenectady,NY,12303,USA,Northeast,(518) 630-6005,,geekme.us,Open
Gibby's Comics,297 North Spruce Rd (inside Rocky Hill Antiques),Exeter,CA,93221,USA,West,(559) 898-2428,gibbyscomicsandcollectibles@gmail.com,gibbyscomics.com,Open
Goblin Comics,317 E Saint Patrick St,Rapid City,SD,57701,USA,Midwest,(605) 858-2404,goblincomic64@gmail.com,yelp.com/biz/goblin-comics-rapid-city,Open
Golden Eagle Comics & Games,2910 N 5th Street Hwy #A,Reading,PA,19605,USA,Northeast,(610) 921-3160,geaglecomics@aol.com,goldeneaglecomics.com,Open
Golden Unicorn Comics,4 N Kennedy Dr,McAdoo,PA,18237,USA,Northeast,(570) 929-1027,,,Open
Goldmine Comics & Cards,65 54th St SW,Grand Rapids,MI,49548,USA,Midwest,(616) 534-7227,goldminecomics@comcast.net,goldminecomics.com,Open
Gonzo Toys N Comics,10910 Katy Freeway Ste 178,Houston,TX,77043,USA,Southwest,(832) 403-9287,lamydoc1@gmail.com,yelp.com/biz/gonzo-toys-n-comics-houston,Open
Gorilla Todd Comics,6718 W Cheyenne Ave,Las Vegas,NV,89108,USA,West,(702) 470-8447,gorillatoddcomics@gmail.com,gorillatoddcomics.com,Open
Got Books,814 S Washington St,Shelby,NC,28150,USA,Southeast,(704) 466-3492,info@gotbooksonline.com,gotbooksonline.com,Open
Got Comics,330 E Army Trail Rd,Glendale Heights,IL,60139,USA,Midwest,(224) 353-4902,gotcomicsinc@yahoo.com,gotcomicsinc.com,Open
Gotham City Comics,151 N Country Club Dr,Mesa,AZ,85201,USA,Southwest,(480) 649-3065,,batcavecomic.com,Open
Gotham City Limit,4195 Southside Blvd Suite 104,Jacksonville,FL,32216,USA,Southeast,(904) 641-3335,ben@gothamcitylimit.com,gothamcitylimit.com,Open
Gotham Comics & Toys,44a Hamburg Turnpike,Riverdale,NJ,07457,USA,Northeast,(201) 257-7733,jameson@gothamcomicsnj.com,gothamcomicsnj.com,Open
Great Stories,1167 Providence Rd Unit 4,Whitinsville,MA,01588,USA,Northeast,(508) 266-0051,great_stories@hotmail.com,greatstoriesinc.com,Open
Green Dragon Comic Shop,1 Victory Hwy,Chepachet,RI,02814,USA,Northeast,(401) 949-2076,GreenDragonComics@yahoo.com,facebook.com/greendragoncomics,Open
Greenbush Out-of-Print Comics,501 Columbia Turnpike Suite G,Rensselaer,NY,12144,USA,Northeast,(518) 894-7336,goopcomics@yahoo.com,greenbushcomics.com,Open
Gregs Comics,2722 S Alma School Rd #8,Mesa,AZ,85210,USA,Southwest,(480) 752-1881,hhwolfman@aol.com,gregscomics.com,Open
Ground Zero Comics,15139 Pearl Rd,Strongsville,OH,44136,USA,Midwest,(440) 572-9599,gzcomics@yahoo.com,groundzerocomicsandcards.com,Open
Ground Zero Comics,2744 E 5th St,Tyler,TX,75701,USA,Southwest,(903) 566-1185,info@groundzerocomics.com,groundzerocomics.com,Open
Grumpy Bob's Emporium,2915 N Center St,Maryville,IL,62062,USA,Midwest,(618) 288-3491,grumpybobsemporium@gmail.com,grumpybobsonline.com,Open
Grumpy's Comics,111 E University Dr Suite 108,Denton,TX,76209,USA,Southwest,(940) 591-9771,grumpyscomics@gmail.com,grumpyscomicsdenton.com,Open
Guild of Blades Retail,775 E 14 Mile Rd,Clawson,MI,48017,USA,Midwest,(248) 430-4980,,gobretail.com,Open
Gulf Coast Cosmos Comicbook Co.,2408 Wheeler Avenue,Houston,TX,77004,USA,Southwest,(346) 418-9040,gcccomics@gmail.com,gcccomicshtx.com,Open
Guns N Comics,2304 S French Ave,Sanford,FL,32771,USA,Southeast,(321) 972-1493,,gunsncomics.net,Open
Gyromite Comics,13850 Florida Blvd,Livingston,LA,70754,USA,Southeast,(225) 435-0418,gyromitecomics@gmail.com,gyromitecomics.com,Open
Hot Comics and Collectibles,26 W 66th St,Richfield,MN,55423,USA,Midwest,(612) 798-3936,hotcomicsdotcom@gmail.com,hotcomicsandcollectibles.com,Open
Hot Flips,87-B Eads St,West Babylon,NY,11704,USA,Northeast,(800) 922-3547,hotflipsnj@yahoo.com,hotflips.com,Open
Hot Spot Collectibles and Toys,680 E 56th St F,Brownsburg,IN,46112,USA,Midwest,(317) 742-5089,sales@hotspotcollectiblesandtoys.com,hotspotcollectiblesandtoys.com,Open
House Of Games,562 Tusculum Blvd,Greeneville,TN,37745,USA,Southeast,(423) 972-6500,houseofgames76@gmail.com,houseofgames.store,Open
Hub City Collectibles,2606 50th St,Lubbock,TX,79413,USA,Southwest,(806) 370-0057,hubcitycollectibles.lbk@gmail.com,https://www.facebook.com/p/Hub-City-Collectibles-61570591795586/,Open
Hyped Cards & Collectibles,13696 Southcove Dr,Sterling Heights,MI,48313,USA,Midwest,(586) 275-8038,info@hypedcc.com,hyped.cards,Open
Hypno Comics & Games,720 East St Suite 2,Pahrump,NV,89048,USA,West,(775) 513-6213,hypnocomics@gmail.com,hypnocomics.com,Open
ITS GEEKY Comics & Collectibles,7415 El Cajon Blvd,La Mesa,CA,91942,USA,West,(619) 414-7647,its_geeky@live.com,instagram.com/its_geeky,Open
Iguana Comics & Gifts,100 NE Midland Ave,Grants Pass,OR,97526,USA,West,(541) 474-9730,iguanacomics@hotmail.com,facebook.com/IguanaComics,Open
Jim & Dan Comics and Collectibles,1 E Dayton St,West Alexandria,OH,45381,USA,Midwest,(937) 839-7068,jimdancomics@gmail.com,jimanddancomics.com,Open
Jimbo's Comics and Collectibles,2337 Pinto Lane,Las Vegas,NV,89107,USA,West,(917) 407-4194,admin@jimboscomics.com,jimboscomics.com,Open
Jimmyjams Comics Cards & Games,113 E 3rd Street,Winona,MN,55987,USA,Midwest,(507) 453-0271,jimmyjamswinona@gmail.com,facebook.com/jimmyjamswinona,Open
Jmz Comics & Collectibles,12 East Pennsylvania Avenue,Pen Argyl,PA,18072,USA,Northeast,(610) 881-4149,jmzcomicsncollectibles@gmail.com,ebay.com/usr/jmzcomics75,Open
Johnny Destructo's Hero Complex,4327 Main St,Philadelphia,PA,19127,USA,Northeast,(215) 482-7700,jdsherocomplex@gmail.com,jdsherocomplex.com,Open
Johnny Scott Comics & Games,1312 N Mantua St,Kent,OH,44240,USA,Midwest,(330) 474-7049,sstjohn1@yahoo.com,https://www.facebook.com/JohnnyScottEnterprises/,Open
Jomio and Rueliete's Cards and Comics,2101 County Road 381,Early,TX,76802,USA,Southwest,(325) 998-5783,darovinshowalter@yahoo.com,jomio-and-ruelietes-cards-and-comics.myshopify.com,Open
Journey Into Comics,1635 River Valley Cir S #633,Lancaster,OH,43130,USA,Midwest,(740) 653-5955,journeyin2comics@gmail.com,journeyin2comics.com,Open
13th Verse Comics,3200 West Ridge Rd,Greece,NY,14626,USA,Northeast,585-663-2377,michael@13thversecomics.com,store.13thversecomics.com,Open
1811 Comics,56 E Spring St,Williamsville,NY,14221,USA,Northeast,716-633-2424,sweetjennyswilliamsville@aol.com,sweetjennyswilliamsville.com,Open
4th World Comics,33 NY-111,Smithtown,NY,11787,USA,Northeast,631-366-4440,,fourthworldcomics.com,Open
A & J Comics Cards and Collectibles,411 S 3rd St,Union City,TN,38261,USA,South,731-599-9939,,facebook.com/pages/A-J-Comics-Cards-and-Collectibles,Open
A-1 Comics,850 E Bidwell St Ste 160,Folsom,CA,95630,USA,West,916-983-7907,,a-1comics.com,Open
Absolute Best Comics Toys,43961 15th St W,Lancaster,CA,93534,USA,West,661-206-9719,K_Adams@att.net,https://www.facebook.com/p/Absolute-Best-Comics-Toys-Games-61568483395365/,Open
Acme Comics & Books,2218 W Glen Ave,Peoria,IL,61614,USA,Midwest,309-691-9816,acmeone@comcast.net,acmecomicspeoria.com,Open
Alameda Sports Cards & Comics,1515 Webster St,Alameda,CA,94501,USA,West,510-769-0644,p94501@aol.com,alamedacardsandcomics.com,Open
All American Cards and Comics,161 W Market St,Warren,OH,44481,USA,Midwest,330-393-3137,iuz22000@yahoo.com,facebook.com/pages/all-american-cards-and-comics/162251137284,Open
All Heroes Comics,4410 Lake Ave,Rochester,NY,14612,USA,Northeast,585-865-9113,,allheroescomics.com,Open
All in A Dream Comics,3115 E Colfax Ave,Denver,CO,80206,USA,West,303-333-8616,,allinadream.us,Open
All-Star Comics,12325 N May Ave #113,Oklahoma City,OK,73120,USA,Southwest,405-842-7800,staff@allstarcomicsokc.com,allstarcomicsokc.com,Open
Allstar Comics & Games,4406 Dyer St,El Paso,TX,79930,USA,Southwest,915-562-0443,,facebook.com/AllStarElPaso,Open
Alpha Comics & Games,120 W Pine Street,Warrensburg,MO,64093,USA,Midwest,660-747-3830,bri@alphacomics.com,https://www.facebook.com/alphacomicsandgames,Open
Als Comic Shop,1847 Pacific Ave,Stockton,CA,95204,USA,West,209-464-1513,alscomics21@gmail.com,alscomics.com,Open
Alternate Reality Comics,5300 S Eastern Ave #130,Las Vegas,NV,89119,USA,West,702-736-3673,,alternaterealitycomics.net,Open
Amazing Fantasy,650 Irving St,San Francisco,CA,94122,USA,West,415-681-4344,amazingfantasy00@aol.com,amazingfantasy.com,Open
Americas Heroes Comics & Games,3401 W Stan Schlueter Loop Ste 8,Killeen,TX,76549,USA,Southwest,254-634-8200,americasheroescomics@yahoo.com,americasheroescomicskilleen.com,Open
Antiquarium Books & Collectibles,504 E High St,Jefferson City,MO,65101,USA,Midwest,573-636-1112,antiquarium05@gmail.com,antiquarium.tripod.com,Open
Arcade Entertainment,N90W16933 Appleton Ave,Menomonee Falls,WI,53051,USA,Midwest,262-251-6363,arcade.entertainment.wi@gmail.com,arcade-entertainment.com,Open
Ash Avenue Comics & Books,806 S Ash Ave,Tempe,AZ,85281,USA,Southwest,480-858-9447,drew@ashavecomics.com,ashavecomics.com,Open
Atomic Comics Games & Music,2418 W 7th St,Muncie,IN,47302,USA,Midwest,765-288-1500,,atomicgamesindiana.com,Open
Atomic Comics,11414 Artesia Blvd Ste A,Artesia,CA,90701,USA,West,562-319-7572,,facebook.com/nov018,Open
Atomic Comics,86 W Washington St,Hagerstown,MD,21740,USA,Northeast,301-739-0177,atomicspawn@aol.com,instagram.com/atomic_comics_hagerstown,Open
Axtion Comics Cards Games,2200 N Highway 190,Covington,LA,70433,USA,Southeast,985-809-2939,,,Open
B and D Sports Cards and Comics,1326 Piney Forest Road,Danville,VA,24540,USA,Southeast,434-836-9133,,instagram.com/bd.cardsandcomics,Open
B-Bop Comics South,8709 Metcalf Ave,Overland Park,KS,66212,USA,Midwest,(913) 383-1777,info@bbopcomics.com,bbopcomics.com,Open
B-Town Comics & Games,1604 Mount Pleasant St,Burlington,IA,52601,USA,Midwest,(319) 209-2768,btowncomicshop@gmail.com,btowncomicsandgames.com,Open
BaT Comics & Games,218 Broadway St,Chico,CA,95928,USA,West,(530) 898-0550,bat@batcomics.com,batcomicsandgames.com,Open
Babylon Collectibles,225 Deer Park Ave,Babylon,NY,11702,USA,Northeast,(631) 482-9056,hello@babyloncollectibles.com,babyloncollectibles.com,Open
Back To the Past Collectibles,20770 Parker St,Farmington Hills,MI,48336,USA,Midwest,(313) 533-3130,frontcounter@gobacktothepast.com,gobacktothepast.com,Open
Bases Cards & Comics,42035 12th St W #106,Lancaster,CA,93534,USA,West,(661) 942-1396,,comicshoplocator.com/Retailer/StoreProfile/1167,Open
Beachcomber Collectibles,6692 Black Horse Pike,Egg Harbor Township,NJ,08234,USA,Northeast,(609) 645-1031,bccollectibles@hotmail.com,beachcombercoinsinc.com,Open
Bells Comics Cards and Games,25 Pine Grove Square,Grove City,PA,16127,USA,Northeast,(724) 458-4081,bellscomics@zoominternet.net,facebook.com/groups/bellscomics,Open
Bethany Beach Comics and Gaming,38017 Fenwick Shoals Blvd,Selbyville,DE,19975,USA,South,(302) 539-0210,cgobbde@gmail.com,facebook.com/ComicsAndGamingBBD,Open
Bittermanns Comics and More,117 Main St,East Greenville,PA,18041,USA,Northeast,(610) 489-7357,,,Open
Blackbird Comics,5615 Losee Rd #105,North Las Vegas,NV,89081,USA,West,(702) 399-2948,lvblackbirdcomics@gmail.com,theblackbirdroost.com,Open
Bobs Comic Castle,2150 W White River Blvd,Muncie,IN,47303,USA,Midwest,(765) 282-1563,,facebook.com/Bobs-Comic-Castle,Open
Bobs Comics,979 Gadsden Hwy,Birmingham,AL,35235,USA,Southeast,(205) 833-6914,,,Open
Buy Me Toys & Comics,4615 Grape Road Suite C,Mishawaka,IN,46545,USA,Midwest,(574) 271-8697,info@buymetoys.com,buymetoys.com,Open
Capital City Comics,1910 Monroe St,Madison,WI,53711,USA,Midwest,(608) 251-8445,tba@capcitycmx.com,,Open
Capitol City Comic Shop,415 Coliseum Blvd,Montgomery,AL,36109,USA,Southeast,334-215-3335,robcomix@aol.com,instagram.com/capitol_city_comics,Open
Captains Comics Toys and Games,6551 S Main St,Ashtabula,OH,44004,USA,Midwest,440-661-0443,,captainscomics.com,Open
Chautauqua Comics,214 Fairmount Ave,Jamestown,NY,14701,USA,Northeast,716-664-2287,info@chautauquacomics.com,chautauquacomics.com,Open
Clairemont Comics,2215 Fairfax St,Eau Claire,WI,54701,USA,Midwest,715-831-2112,charsh@clairemontcomics.com,clairemontcomics.com,Open
Cleveland Comics,5120 Mayfield Road,Lyndhurst,OH,44124,USA,Midwest,440-442-1986,,cleveland-comics.com,Open
Clints Books Comics & Games,3941 Main St,Kansas City,MO,64111,USA,Midwest,816-561-2848,clintsbooks@gmail.com,clintscomics.net,Open
Close Encounters Comics,1861 Hooper Ave,Toms River,NJ,08753,USA,Northeast,732-503-4672,,,Open
Collectors Choice,54 Main Street,Brockport,NY,14420,USA,Northeast,585-637-8556,collectors_choice@hotmail.com,facebook.com/CollectorsChoiceBrockport,Open
Collectors Corner,7911 Harford Rd,Parkville,MD,21234,USA,Northeast,410-668-3353,collectorscornermd@comcast.net,collectorscornermd.com,Open
Collectors Den,4020 Rhea Rd Ste 4E,Wichita Falls,TX,76308,USA,Southwest,940-386-9404,collectorsdenz@yahoo.com,collectors-den.com,Open
Collectors Edge Comics North,7826 W Burleigh St,Milwaukee,WI,53222,USA,Midwest,414-445-5055,shop@CollectorsEdgeComics.com,collectorsedgecomics.com,Open
Collectors Ink,2593 CA-32,Chico,CA,95973,USA,West,530-345-0958,collectorsink@ymail.com,collectorsink.com,Open
Collectors Inn,3107 Delaware Avenue,Kenmore,NY,14217,USA,Northeast,716-873-8633,collectorsinn@gmail.com,collectorsinn.com,Open
Comic Book Hideout,215 W Commonwealth Ave,Fullerton,CA,92832,USA,West,657-217-0624,cbhideout@gmail.com,comicbookhideout.com,Open
Comic Book Palace,620 Primrose St #3,Haverhill,MA,01830,USA,Northeast,978-372-1477,cbpalace@aol.com,comicbookpalace.com,Open
Comic Books 101,101 N Franklin St,Titusville,PA,16354,USA,Northeast,814-657-6372,comics101@zoominternet.net,,Open
Comic Cards Etc,1063C San Pablo Ave,Pinole,CA,94564,USA,West,510-724-7587,sales@wizcatcol.com,comiccardsetc.com,Open
Comic Cubicle,4809 Courthouse St STE 2,Williamsburg,VA,23188,USA,Southeast,757-229-5299,cmccubicle@aol.com,,Open
Comic Cult,1047 W Carson St,Torrance,CA,90502,USA,West,310-328-5830,comicculttorrance@gmail.com,comiccult.com,Open
Comic Empire of Tulsa,3122 S Mingo Rd,Tulsa,OK,74146,USA,Southwest,918-664-5808,comicempireoftulsa@gmail.com,thecomicempire.com,Open
Comic Explosion,214 E Nepessing St,Lapeer,MI,48446,USA,Midwest,810-667-3972,comic.explosion@gmail.com,facebook.com/pages/comic-explosion/111515155570973,Open
Comic Haven LLC,705 North Church Street,Watertown,WI,53098,USA,Midwest,(920) 262-0880,,instagram.com/comicheaven.llc,Open
Comic Kingdom,595 E Moana Ln,Reno,NV,89502,USA,West,(775) 823-9074,comickingdomreno@gmail.com,facebook.com/renocomickingdom,Open
Comic Quest,23811 Bridger Rd Ste 111,Lake Forest,CA,92630,USA,West,(949) 951-9668,comicquestdon@aol.com,comicquest.org,Open
Comic World,1204 4th Avenue,Huntington,WV,25701,USA,Southeast,(304) 522-3923,,facebook.com/ComicWorld,Open
Comic World,122 E Gannon Ave,Zebulon,NC,27597,USA,South,(919) 404-8011,comicworldzebulon@gmail.com,comicworldzebulon.com,Open
Comic Zen,301 W Main St Apt A,Lansdale,PA,19446,USA,Northeast,(267) 263-4219,comiczenpa@gmail.com,comiczenpa.com,Open
Comics & Stuff,2304 W Gray St,Tampa,FL,33609,USA,South,(813) 405-4797,cardstash@gmail.com,comicstuffonline.com,Open
Comics Are Go,5188 Detroit Rd,Sheffield Village,OH,44035,USA,Midwest,(440) 695-8401,comicsarego@gmail.com,comicsarego.com,Open
Comics Cards and Collectibles,170 Elm Plaza,Waterville,ME,04901,USA,Northeast,(207) 716-1342,,comics-cards-collectibles.myshopify.com,Open
Comics Place,105 E Holly St,Bellingham,WA,98225,USA,West,360-733-2224,info@thecomicsplace.com,thecomicsplace.com,Open
Comics Toons N Toys,13542 Newport Ave,Tustin,CA,92780,USA,West,(714) 730-2117,,webuycomics.squarespace.com,Open
Comics Universe,1869 Highway 45 Bypass,Jackson,TN,38305,USA,Southeast,(731) 664-9131,,facebook.com/ComicsUniverse,Open
Comics Vs Toys,1613 Colorado Blvd,Los Angeles,CA,90041,USA,West,323-258-2300,comicsvstoys@gmail.com,comicsvstoys.com,Open
Comics World,1002 Graham Ave,Windber,PA,15963,USA,Northeast,(814) 467-4116,pcomicon@gmail.com,facebook.com/ComicsWorldPa,Open
Comics and Cool Stuff,300 E High St,Carlisle,PA,17013,USA,Northeast,(717) 210-1192,comicsandcoolstuff@gmail.com,ebay.com/str/funkojoe,Open
Comics-N-Stuff,2525 El Camino Real Suite 260,Carlsbad,CA,92008,USA,West,760-729-2975,,comics-n-stuff.com,Open
Comics-N-Stuff,555 Broadway Ste 214,Chula Vista,CA,91910,USA,West,619-426-2637,,comics-n-stuff.com,Open
Comix Revolution Evanston,606 Davis Street,Evanston,IL,60201,USA,Midwest,(847) 866-8659,comixrev@gmail.com,online-revolution.com,Open
Comix Revolution Mount Prospect,115 W Central Road,Mount Prospect,IL,60056,USA,Midwest,847-506-0800,comixrev1@yahoo.com,online-revolution.com,Open
Comix Revolution,115 W Central Rd,Mt Prospect,IL,60056,USA,Midwest,847-506-0800,comixrev1@yahoo.com,online-revolution.com,Open
Corning Comics & Collectibles,106 Bridge St,Corning,NY,14830,USA,Northeast,607-973-2620,josh@corningcomics.com,corningcomics.com,Open
Cosmic Comics And Toys,28400 Five Mile Rd,Livonia,MI,48154,USA,Midwest,586-420-0834,cosmiccomicsandtoys76@gmail.com,facebook.com/cosmiccomicsandtoys,Open
Cosmic Comix,230 Palm Ave,Auburn,CA,95603,USA,West,530-887-1147,Cosmiccomix@yahoo.com,facebook.com/cosmiccomix,Open
Cosmic Slop Comics-Video,5 E 16th St,Antioch,CA,94509,USA,West,925-754-8740,,facebook.com/cosmicslopcomics,Open
Crazy Eds Comics,1995 NE 147th St,North Miami,FL,33181,USA,Southeast,(305) 947-6776,crazyed@crazyedscomics.com,crazyedscomics.com,Open
Darkstone Comics,69 Brookside Ave Ste 208,Chester,NY,10918,USA,Northeast,(845) 614-5178,admin@darkstonecomics.com,darkstonecomics.com,Open
Daves Comics & Collectibles,1723 Columbus St,Bakersfield,CA,93305,USA,West,(661) 374-4099,,instagram.com/daves_comics_,Open
Davincis Dreamworks,835 17th St #102,Vero Beach,FL,32960,USA,Southeast,(772) 770-3807,,facebook.com/davincisdreamworks,Open
Diggers Comics and Collectibles,114 E Florida Ave,Hemet,CA,92543,USA,West,(951) 484-8248,digger@diggerscomics.com,diggerscomics.com,Open
Dimensions Comics Music & More,1908 Hialeah Dr Ste B,Seabrook,TX,77586,USA,Southwest,(281) 942-3171,dimensionscomics@gmail.com,dimensions-comics.com,Open
Discount Hobby,5700 Beckley Road Ste E20c,Battle Creek,MI,49015,USA,Midwest,(269) 979-2262,,discounthobby.com,Open
Dizzy Dugout Cards & Comics,121 E Main Street,Collinsville,IL,62234,USA,Midwest,(618) 345-6453,facebook@dizzydugout.com,dizzydugout.com,Open
Dork Forest Comics,14 E Main St,Clifton Springs,NY,14432,USA,Northeast,(315) 462-6011,dorkforestcomics@yahoo.com,facebook.com/dorkforestcomics,Open
Dr Volts Comic Connection,79 S Rio Grande St,Salt Lake City,UT,84101,USA,West,(801) 485-6114,drvolts@gmail.com,drvolts.com,Open
Dragons Keep,260 N University Ave,Provo,UT,84601,USA,West,(801) 373-3482,thedragonskeep@gmail.com,dragonskeep.com,Open
Dragons Lair Comics & Fantasy,2438 W Anderson Ln Ste B1,Austin,TX,78757,USA,Southwest,512-454-2399,info@dlair.net,dlair.net,Open
Dream-Land Comics,4626 Broadway,Depew,NY,14043,USA,Northeast,716-901-5484,bloseller1975@roadrunner.com,https://www.facebook.com/profile.php?id=100064713755193&locale=en_GB#,Open
Dreamwell Comics,4250 Cochise St,Carson City,NV,89703,USA,West,775-887-1255,dreamwell@att.net,facebook.com/pages/Dreamwell-Comics/115450145144081,Open
Earth Prime Comics,154 Church St,Burlington,VT,05401,USA,Northeast,802-860-0581,,instagram.com/earthprimevt,Open
Earth-2 Comics & Collectibles,15017 Ventura Blvd,Sherman Oaks,CA,91403,USA,West,818-386-9590,earth2comics@gmail.com,earth2comics.com,Open
Eds Cards & Comics,5857 Palmer Park Blvd,Colorado Springs,CO,80915,USA,West,719-596-9128,,,Open
Empire Comics,1069 Abbott Rd,Buffalo,NY,14220,USA,Northeast,716-382-8459,empirecomicssouthbuffalo@outlook.com,empirecomicssouthbuffalo.com,Open
Endgame Comics and Collectibles,294 E Main St Ste A,Ventura,CA,93001,USA,West,805-628-9006,,,Open
Exile Comics,2688 Third Ave,Bronx,NY,10454,USA,Northeast,917-471-9474,,instagram.com/exilecomicsny,Open
Expired Robot,1477 NJ-23 Unit 4,Butler,NJ,07405,USA,Northeast,973-750-1377,,expiredrobot.com,Open
Fan-Quest Comics and Games,850 W 32nd St #1,Yuma,AZ,85364,USA,West,928-726-0247,honeygurl9@yahoo.com,facebook.com/groups/139025569500754,Open
Fantasy Books & Games,2247 First St,Livermore,CA,94550,USA,West,925-449-5233,fantasybooksandgames@gmail.com,fantasybooksandgames.com,Open
Fantasy Books,1113 E Main St,Belleville,IL,62220,USA,Midwest,618-235-0844,info@fantasybooksinc.com,fantasybooksinc.com,Open
Fourth World Comics,33 Route 111,Smithtown,NY,11787,USA,Northeast,631-366-4440,,fourthworldcomics.com,Open
Friendly Franks Comic Cavern,6320 NW Barry Rd,Kansas City,MO,64154,USA,Midwest,816-746-4569,,bbopcomics.com,Open
Funky Town Toys - Comics & Collectibles,45249 Van Dyke Ave,Utica,MI,48317,USA,Midwest,586-843-3684,funkytowntoys@gmail.com,facebook.com/FunkyTownToys,Open
Funny Business Comic Shop,896 N Garey Ave,Pomona,CA,91767,USA,West,909-868-1974,samanieg@verizon.net,fbcomicshop.com,Open
Galaxy Collectibles,431 5th Ave,Brooklyn,NY,11215,USA,Northeast,718-499-3222,galaxycomicsparkslope@aol.com,enterthegalaxy.com,Open
"Adventure, Ink",108 E Main St,Milan,MI,48160,USA,Midwest,(734) 545-8899,adventureinkcomics@gmail.com,adventureink.xyz,Open
"Books, Comics & Things",5808 W Jefferson Blvd,Fort Wayne,IN,46804,USA,Midwest,(260) 755-2425,bct@bctcomics.com,bctcomics.com,Open
"CardWizards Cards, Comics & More",5605 W 7th St,Texarkana,TX,75501,USA,Southwest,(903) 490-3802,cardwizardstxk@gmail.com,thecardwizards.com,Open
"Dimensions Comics, Music & More",323 W Main St,La Porte,TX,77571,USA,Southwest,(281) 942-3171,dimensionscomics@gmail.com,dimensions-comics.com,Open
"Fistful of Cards Toys, Games & Comics",901 S China Lake Blvd Ste 300,Ridgecrest,CA,93555,USA,West,(442) 966-9891,fistfulofcardsrc@gmail.com,fistfulofcardstoysgames.com,Open
"Game Over Comics, Cards, And Collectibles",911 B S Main St,Burlington,NC,27215,USA,Southeast,(336) 270-0538,gameoverccc@gmail.com,gameovercomics.net,Open
"Mr K's Used Books, Music and More",4 Mark Twain Ct,Johnson City,TN,37604,USA,Southeast,(423) 610-1088,,mrksusedbooks.com,Open
"Rainbow Comics, Cards & Collectibles",6891 A St Ste 104,Lincoln,NE,68510,USA,Midwest,(402) 975-8332,taylorfromrainbow@gmail.com,rainbowcomicsandcards.com,Open
"Raven's Comics, Collectibles & Books",2016 E Southport Rd #1,Indianapolis,IN,46227,USA,Midwest,(317) 787-8288,,,Open
"Retro 2 New Games, Comics, and Cards",2403 Hwy 71 S Ste B,Marianna,FL,32448,USA,Southeast,(850) 693-1221,retro2newgames007@gmail.com,,Open
"SCG Hobby, Latrobe",1025 Latrobe 30 Plaza Suite 129,Latrobe,PA,15650,USA,Northeast,(724) 879-4648,latrobe@scghobby.com,scghobby.com,Open
"The Cave Cards, Comics & Collectibles",6625 Superior Ave,Sarasota,FL,34231,USA,Southeast,(941) 284-5952,,thecaveccc.com,Open
"The Comic Book Shop, Spokane Valley",11510 E Sprague Ave,Spokane Valley,WA,99206,USA,West,(509) 703-7600,comicbookshopvalley@gmail.com,thecomicbookshop.net,Open
"The Daycare Kids? Comics, Toys and Antiques",704 Ingram Blvd,West Memphis,AR,72301,USA,Southeast,(870) 733-4059,thedaycarekids@gmail.com,facebook.com/Mr.RobertsDaycareKids,Open
"The Deep Comics, Games & Toys",2205 Mock Road SW,Huntsville,AL,35801,USA,Southeast,(256) 532-1292,edward@deepcomics.com,deepcomics.com,Open
"The Grumpy Old Man's Comics, Art & Collectibles",1737 NW 56th St Suite 102,Seattle,WA,98107,USA,West,(206) 257-0557,grumpyoldmanscomicsart@gmail.com,grumpyoldmanscomicsartcollectibles.com,Open
"The Multiverse Comics, Games, & Collectibles",931 Melbourne Rd,Hurst,TX,76053,USA,Southwest,(817) 616-3052,staff@multiverse.shop,multiverse.shop,Open
"Why So Serious Comics, Cards, & Collectibles",324 S Duke St,La Fayette,GA,30728,USA,Southeast,(706) 639-0685,seriouscomics324@gmail.com,,Open
1 Stop Card Shop and Games,17777 Lower Boones Ferry Rd Suite C,Lake Oswego,OR,97035,USA,West,(503) 305-7620,info@1StopCardShopAndGames.com,1stopcardshopandgames.com,Open
1.21 Gigawatts Comics Toys and Nostalgia,601 N Main St,Borger,TX,79007,USA,Southwest,(407) 927-8606,gigawattscomicsntoys@gmail.com,https://www.facebook.com/1.21Gigawattscomics/,Unknown
181 Comics and Collectables,8907 Benbrook Blvd Suite A,Fort Worth,TX,76126,USA,Southwest,(817) 439-9767,181comicsllc@gmail.com,linktr.ee/181comics,Open
217 Comics Cards & Games,1820 Adlai Stevenson Dr,Springfield,IL,62703,USA,Midwest,(217) 572-0791,,217comics.com,Open
26/40 Comics,1068 Highlands Dr,Erie,CO,80516,USA,West,(912) 596-3365,,instagram.com/2640_comics,Open
3 C's Hobby & Model,12755 County Road 35,Sterling,CO,80751,USA,West,(970) 522-1089,,3-cs-hobbies.business.site,Open
3 Keys Comics,595 W Exchange St,Crete,IL,60417,USA,Midwest,(708) 279-7643,wesellcomixx@gmail.com,3keyscomics.com,Open
3rd Coast Comics,3828 S Texas Ave,Bryan,TX,77802,USA,Southwest,(979) 492-2013,terry@thirdcoastcomics.com,3rdcoastcomicshop.square.site,Open
4th Wall Comics,1224 Millersville Pike,Lancaster,PA,17603,USA,Northeast,(717) 208-3524,4thwallcomicslancaster@gmail.com,4thwallcomicslancaster.com,Open
808 Collectibles,945 Kamehameha Hwy #10,Pearl City,HI,96782,USA,West,(808) 230-5980,,,Open
901 Comics East,8551 Macon Rd,Cordova,TN,38018,USA,Southeast,(901) 249-7959,901comicseast@gmail.com,901comics.com,Open
A AND A Comics,970 N French Rd,Buffalo,NY,14228,USA,Northeast,(716) 553-7678,,ebay.com/str/aandacomics,Unknown
A New Chapter,109 E Wood St,Paris,TN,38242,USA,Southeast,(731) 363-0571,anewchapterparis@gmail.com,,Unknown
A to Z Comics,1300 SW US Highway 40,Blue Springs,MO,64015,USA,Midwest,(816) 224-0505,,atozcomics.com,Open
A walk in time,1626 6th Ave,Charleston,WV,25387,USA,Southeast,(304) 220-0476,awalkintime2020@gmail.com,awalkintime.com,Open
A&A Comic Book Store,421 N Pennsylvania Ave,Lansing,MI,48912,USA,Midwest,(517) 303-3445,rubengarciaaacbs@gmail.com,aacomicbookstore.com,Open
A+ Comics & Collectibles II,115 N Locust Hill Dr,Lexington,KY,40509,USA,Southeast,(859) 269-6633,staff2@apluscomics.com,apluscomics.com,Open
AA Comics and Cards,610 Cumberland St,Lebanon,PA,17042,USA,Northeast,(717) 644-9345,contact@aacomicsandcards.com,aacomicsandcards.com,Open
Acme Comics Downtown,335 S Davie St,Greensboro,NC,27401,USA,Southeast,(336) 663-7041,shopacme@acmecomics.com,acmecomics.com,Open
Adam's Action Figures & Comics,4039 State Route 14,Rootstown,OH,44272,USA,Midwest,(330) 518-7324,adamsabol7@netzero.net,adamsactionfiguresandcomics.com,Open
Adventures in Ink,15201 Ronald Reagan Blvd Suite 210,Leander,TX,78641,USA,Southwest,(512) 671-0392,eliroberts@aiicomics.com,aiicomics.com,Open
Air Capital Comics,2611 E Harry St,Wichita,KS,67211,USA,Midwest,(316) 630-8060,contact@aircapitalcomics.com,aircapitalcomics.com,Open
Alchemist's Cove Games & Comics,25 W Main St Suite 4,Schuylkill Haven,PA,17972,USA,Northeast,(570) 593-8187,alchemistscove@gmail.com,alchemistscove.com,Open
Alien Entertainment Store,702 S Main St,Lombard,IL,60148,USA,Midwest,(630) 519-3415,cs@alienentertainmentstore.com,alienentertainment.com,Open
Jack's Comics & More,1395 US-1 Ste C,St. Augustine,FL,32084,USA,Southeast,(904) 829-0944,allbookscomics@gmail.com,jackscomicsandmore.com,Open
All C's Collectibles,2510 E Arapahoe Rd,Centennial,CO,80122,USA,West,(303) 770-0042,allcs@comcast.net,allcscollectibles.com,Open
All Star Books and Collectibles,29207 Gratiot Ave,Roseville,MI,48066,USA,Midwest,(313) 348-0515,,,Open
All Star Cards,3800 W Saginaw Hwy Ste 4,Lansing,MI,48917,USA,Midwest,(517) 977-0109,allstarny3800@yahoo.com,facebook.com/p/All-Star-Cards-100058870164029,Open
All Star Comics,3520 FM 365,Nederland,TX,77627,USA,Southwest,(409) 724-6077,allstar.comics@gmail.com,allstarcomicsonline.com,Open
Alpha Comics and Games,1601 Willow Lawn Dr Suite 300-B,Richmond,VA,23230,USA,Southeast,(804) 282-5532,alex@alphacomics.com,alphacomics.com,Open
Alpha Quadrant Games,3353 East State Road 60,Valrico,FL,33594,USA,Southeast,(813) 786-5605,alphaquadrant13@gmail.com,alphaquadrantgames.com,Open
Alter Ego Comics & Games,2828 N Main St,Baytown,TX,77521,USA,Southwest,(281) 839-7127,alteregoccg@gmail.com,alteregocng.com,Open
Alternate Dimension Toys,126 S State St Ste 101,Newtown,PA,18940,USA,Northeast,(215) 944-8595,alternatedimensiontoys@gmail.com,instagram.com/alternatedimensiontoys,Open
Amaya Bros Comics,357 Cambridge St,Cambridge,MA,02141,USA,Northeast,(617) 714-4108,info@amayabroscomics.com,amayabroscomics.com,Open
Amazing Action Comics,1715 N Portland Ave,Oklahoma City,OK,73107,USA,Southwest,(405) 708-3828,,,Open
Amazing Imaginarium,1113 Howard St,Omaha,NE,68102,USA,Midwest,(402) 594-7061,imaginariumomaha@gmail.com,amazingimaginarium.com,Open
America's Heroes Comics & Games,3401 W Stan Schlueter Loop Ste 8,Killeen,TX,76549,USA,Southwest,(254) 501-8556,,americasheroescomicskilleen.com,Open
AnZ Comics,12525 Fondren Rd Suite N,Houston,TX,77035,USA,Southwest,(409) 292-9552,info@anzcomics.com,anzcomics.com,Open
Anastasia's Collectibles,805 S Harbor Blvd,Fullerton,CA,92832,USA,West,(714) 784-6892,anastasiascollectibles@hotmail.com,acdisney.square.site,Open
Andyseous Odyssey,2910 S Beckley Ave Suite 175,Dallas,TX,75224,USA,Southwest,(469) 493-7156,info@andyseous-odyssey.com,andyseous-odyssey.com,Open
Angelo's Comics,181 Balboa St,San Marcos,CA,92069,USA,West,(619) 727-0414,comicsbyangelo@gmail.com,ebay.com/str/angeloscomicbooksandmore,Open
Angry Comics,1330 Bragg Blvd,Fayetteville,NC,28301,USA,Southeast,(910) 920-0389,angrycomics@me.com,angrycomics.com,Open
Animazed,8613 Glenwood Ave Suite 101,Raleigh,NC,27617,USA,Southeast,(919) 836-6015,animazedstore@gmail.com,animazedstore.com,Open
Anime Pavilion,7700 Backlick Rd Suite C,Springfield,VA,22150,USA,Southeast,(703) 534-1544,manager@animepavilion.com,animepavilion.com,Open
Another Comic Shop,1341 E Kearney St Ste 100,Springfield,MO,65803,USA,Midwest,(417) 812-9483,jeff@anothercomicshop.biz,anothercomicshop.com,Open
Another Planet Comics & Other Stuff,530 SW 11th St,Lawton,OK,73501,USA,Southwest,(580) 919-8564,anotherplanetcomics65@gmail.com,ebay.com/str/anotherplanetcomics,Open
Apotheosis Comics & Lounge,3206 S Grand Blvd,Saint Louis,MO,63118,USA,Midwest,(314) 802-7090,astlcomics@gmail.com,shopapotheosis.com,Open
Arkham Asylum Comics,2550 S Nova Rd Unit 8,South Daytona,FL,32119,USA,Southeast,(386) 310-4540,arkham.comics.2023@gmail.com,arkhamasylumcomics.com,Open
Arkham Gift Shoppe Comics,4091 William Flynn Hwy #500,Allison Park,PA,15101,USA,Northeast,(412) 486-3140,arkhamgiftshoppe@gmail.com,arkhamgiftshoppe.com,Open
Asylum Comics,5360 N Mesa St Ste L12,El Paso,TX,79912,USA,Southwest,(915) 875-8600,asylumcomics1@gmail.com,facebook.com/asylumcomicsandcards,Open
B.L.R. Comics,171 East Huron Avenue,Bad Axe,MI,48413,USA,Midwest,(989) 975-2834,b.l.r.comics@gmail.com,facebook.com/profile.php?id=61563181840561,Open
BAMF Comics,101 Carolina Ave,Crewe,VA,23930,USA,Southeast,(434) 538-0055,,bamf-comics.mybigcommerce.com,Open
Baby Gorilla Comics and Collectibles,424 W Lincoln Hwy Suite 203,Penndel,PA,19047,USA,Northeast,(267) 461-1335,,babygorillacomics.com,Open
Back To the Past Comics,20770 Parker St,Farmington Hills,MI,48336,USA,Midwest,(313) 533-3130,frontcounter@gobacktothepast.com,gobacktothepast.com,Moved
Bad Dog Comics,405 W Main St,Albemarle,NC,28001,USA,Southeast,(704) 982-4708,emyers@baddogcomics.com,instagram.com/baddogcomics,Open
BamPowComics & Collectibles,8228 Mayfield Rd Suite 2B,Chesterland,OH,44026,USA,Midwest,(440) 999-0106,,bampowcomics.org,Open
Bankston's Comics and Collectibles,1321 S Valley Mills Dr,Waco,TX,76711,USA,Southwest,(254) 755-0070,Info@bankstons.com,bankstons.com,Open
Barbarian Comics,11242 Triangle Ln,Wheaton,MD,20902,USA,Northeast,(301) 946-4184,info@barbariancomics.com,barbariancomics.com,Open
Bartertown Collectibles,2235 Empire Blvd Ste 3,Webster,NY,14580,USA,Northeast,(585) 201-9084,bartertowncollectibles@yahoo.com,facebook.com/bartertown.collectibles,Open
Basement Bar Collectibles,1116 Main St Suite A,Benton,KY,42025,USA,Southeast,(270) 387-0122,basementbarcollectibles@gmail.com,basementbarcollectibles.com,Open
Batcave Treasures and Toys,7535 US-64,Bartlett,TN,38133,USA,Southeast,(815) 514-6104,,batcavetreasuresandtoys.com,Open
BearCave CCG,8820 Reseda Blvd,Northridge,CA,91324,USA,West,661-425-4810,,bearcaveccg.com,Open
Bearded Comics & Collectibles,101 E Main St,Crawfordsville,IN,47933,USA,Midwest,206-302-8851,Beardedcandc@gmail.com,facebook.com/beardedcandc,Open
Beardy Weirdy's Comics,325 McGill Ave NW,Concord,NC,28027,USA,Southeast,704-242-1119,beardyweirdyscomicsandtoys@gmail.com,facebook.com/beardyweirdyscomics,Open
Bedrock City Comic Co,4831 Hwy 6,Missouri City,TX,77459,USA,Southwest,832-987-1994,bedrock6@bedrockcity.com,bedrockcity.com,Open
Bedrock City Comic Co.,1266 N Fry Rd,Houston,TX,77084,USA,Southwest,713-628-8684,bedrock7@bedrockcity.com,bedrockcity.com,Open
Bedrock City Comic Company,102 W Bay Area Blvd,Webster,TX,77598,USA,Southwest,281-557-2748,bedrock4@bedrockcity.com,bedrockcity.com,Open
Bedrock City Comic Company,6516 Westheimer Rd Ste D,Houston,TX,77057,USA,Southwest,713-780-0675,bedrock@bedrockcity.com,bedrockcity.com,Open
Bender's Books & Cards,22 S Mallory St,Hampton,VA,23663,USA,Southeast,757-723-3741,,facebook.com/benders,Open
Bennie's Comic Books & Sports Cards,462 N Sharpsville Ave,Sharon,PA,16146,USA,Northeast,724-347-3390,crah@infonline.net,bennies-comic-book-sports.business.site,Open
Bent Wookee Comix,127 Fairfield Ave,Johnstown,PA,15906,USA,Northeast,814-539-0085,bwilt@hotmail.com,facebook.com/BENTWOOKEECOMIX,Open
Berzerk Comics,6823 S US Hwy 1,Port Saint Lucie,FL,34952,USA,Southeast,772-530-3079,berzerkcomics@outlook.com,berzerkcomics.com,Open
Beyond Tomorrow Comics,327 N Northwest Hwy,Palatine,IL,60067,USA,Midwest,847-705-6633,beyondtomorrowcomics@gmail.com,linktr.ee/beyondtomorrowcomics,Open
Big Alpaca Comics,5885 Babcock Rd,San Antonio,TX,78240,USA,Southwest,726-300-2833,info@bigalpacacomics.com,bigalpacacomics.com,Open
Big Apple Comics & Collectibles,4561 S Western St,Amarillo,TX,79109,USA,Southwest,806-353-3078,george.cortinez@gmail.com,bigapplecomics.com,Open
Big Bang Comics and Collectibles,437 Broad St,Sewickley,PA,15143,USA,Northeast,412-259-8742,bigbangcomicsandcollectibles@gmail.com,bigbangcomicsandcollectibles.com,Open
Comic World,1265 S Cotner Blvd #18,Lincoln,NE,68510,USA,Midwest,(402) 466-6066,m.brunton3@ntlworld.com,comicworldnebraska.com,Moved
East Bay Comics,116 Union St,Providence,RI,02903,USA,Northeast,401-310-0505,ebcomix@gmail.com,ebcomix.com,Moved
Fisk Comics,16254 Whittier Blvd,Whittier,CA,90603,USA,West,562-693-1309,,instagram.com/fiskcomics,Moved
Collect Co.,101 Short St,Lebanon,TN,37087,USA,Southeast,(615) 466-7066,contact@shopcollectco.com,shopcollectco.com,Open
Collected Comics & Games,2823 Alta Mere Dr,Fort Worth,TX,76116,USA,Southwest,(817) 945-1722,collectedftw@staycollected.com,collectedcomics.com,Open
Collected Comics & Games,5684 Denton Hwy,Haltom City,TX,76148,USA,Southwest,(817) 576-3656,collectedkeller@staycollected.com,collectedcomics.com,Open
Collectibles Unlimited,25 South St,Concord,NH,03301,USA,Northeast,(603) 228-3712,collectiblesunlimited@comcast.net,collectiblesunlimited.biz,Open
Collecting Problems,1682 Katy Ln,Fort Mill,SC,29708,USA,Southeast,(803) 833-2716,collectingproblems@gmail.com,collectingproblems.com,Open
Collectivity The Comic Shoppe,308 N Salisbury Ave,Granite Quarry,NC,28146,USA,Southeast,(704) 637-2578,collectivity@att.net,facebook.com/CollectivityTheComicShoppe,Open
Collector Cave,47 Cole Street Fl 1,Yonkers,NY,10710,USA,Northeast,(646) 822-6884,orders@collectorcave.shop,collectorcave.shop,Open
Collector Supreme,1500 Polaris Pkwy Ste 2008,Columbus,OH,43240,USA,Midwest,(614) 468-1265,collectorsupreme@hotmail.com,https://www.facebook.com/CollectorSupremeLLC/,Open
Collector's Cove,135 Jonesboro Rd,Piney Flats,TN,37686,USA,Southeast,(423) 538-8413,sales@collectorscove.net,collectorscove.net,Open
Collector's Den,205 S East St Ste 101,Culpeper,VA,22701,USA,Southeast,(540) 407-2860,contactus@collectors-den.com,collectors-den.com,Open
Collector's Den,4020 Rhea Rd Ste 4E,Wichita Falls,TX,76308,USA,Southwest,(940) 386-9404,collectorsdenz@yahoo.com,collectorsdenwf.com,Open
Collector's Edge Comics,7826 W Burleigh St,Milwaukee,WI,53222,USA,Midwest,(414) 445-5055,shop@CollectorsEdgeComics.com,collectorsedgecomics.com,Open
Collector's Lair,5327-B Williamson Rd,Roanoke,VA,24012,USA,Southeast,(540) 265-2625,collair3@aol.com,https://www.facebook.com/CollectorsLairRoanoke/,Open
Collectors Asylum,20549 W Main St,Lannon,WI,53046,USA,Midwest,(262) 422-4049,parbs4@gmail.com,collectors-asylum-collectibles-store.business.site,Open
Collectors Corner,17 N Main St,Bel Air,MD,21014,USA,Northeast,(410) 838-1777,collectorscornermd@comcast.net,collectorscornermd.com,Open
Chimp's Comix & Video Games,919 E Winona Ave,Warsaw,IN,46580,USA,Midwest,(574) 268-2274,questions@chimpscomix.com,chimpscomix.com,Open
Choice Comics,98-1268 Kaahumanu St Suite 104,Pearl City,HI,96782,USA,West,(808) 499-9478,,choice-comics.com,Open
Cjs Comics & Toys,3238 NE 12th Ave,Oakland Park,FL,33334,USA,Southeast,(954) 566-7227,cjscomics@gmail.com,cjcomics.wixsite.com/cjscomics,Open
Clan McDonald Comics,710 E Ogden Avenue Suite 600,Naperville,IL,60563,USA,Midwest,(630) 885-2170,info@clanmcdonaldcomics.com,clanmcdonaldcomics.com,Open
Clobberin' Comics,120 W Dixie Ave,Elizabethtown,KY,42701,USA,Southeast,(270) 234-0038,store@clobberincomics.com,clobberincomics.com,Open
Clockwork Comics,512 Boston Post Rd,Orange,CT,06477,USA,Northeast,(203) 795-8409,thorver@aol.com,clockworkcomicsandcards.com,Open
Cloud City Comics & Collectibles,12 Commerce St,Thomasville,NC,27360,USA,Southeast,(336) 420-7157,cloudcitycomicsnc@gmail.com,facebook.com/profile.php?id=100090667666713,Open
Cloud City Games,344 Stroud Mall Rd Suite 136,Stroudsburg,PA,18360,USA,Northeast,(272) 200-3009,stroud@cloudcitygames.com,cloudcitygames.com,Open
Cloud City Games,257 Lehigh Valley Mall,Whitehall Township,PA,18052,USA,Northeast,(610) 351-2491,lvm@cloudcitygames.com,cloudcitygames.com,Open
Coach P's Universe,112 Eisenhower Pkwy,Livingston,NJ,07039,USA,Northeast,(973) 994-0240,coachpsusales@gmail.com,coachpsuniverse.com,Open
Codex Comics & Collectibles,125 W High St,Ebensburg,PA,15931,USA,Northeast,(814) 472-2233,codexcomics@yahoo.com,codexcomicshop.com,Open
Excalibur Comics Cards & Games,2811 N State Line Ave,Texarkana,TX,75503,USA,Southwest,(903) 792-5767,excaliburmail@bellsouth.net,excaliburccg.com,Open
Excelsior Games and Comics,306 S Lafayette St,Greenville,MI,48838,USA,Midwest,(616) 225-3350,info@excelsiorgnc.com,excelsiorgnc.com,Open
Extraordinary Universal Comics,14665 W Lisbon Rd,Brookfield,WI,53005,USA,Midwest,(262) 202-8044,exu.catacomics@gmail.com,exucomics.com,Open
Eye Opener,15 Center Ct,Newington,CT,06111,USA,Northeast,(860) 666-5862,eyeopenercomics@gmail.com,theeyeopener.tripod.com,Open
Fallout Comics,7617 NE Martin Luther King Jr Blvd,Portland,OR,97211,USA,West,(503) 784-2136,george.romero186@gmail.com,facebook.com/FalloutComicsPortland,Open
FYC Comics,118 N Michigan St,Plymouth,IN,46563,USA,Midwest,(574) 933-1470,fyc_comics@yahoo.com,fyccomics.com,Open
Fallout Comics,1482 Apalachee Pkwy,Tallahassee,FL,32301,USA,Southeast,(850) 765-6654,,falloutcomics.com,Open
Fama's Comics,406 2nd St,Beckley,WV,25801,USA,Southeast,(304) 253-1974,gfamacomics@gmail.com,theroguetrader.net,Open
Family Cards and Games,7962 W Sample Rd,Margate,FL,33063,USA,Southeast,(954) 400-8448,familycag@gmail.com,familycag.com,Open
Fan2Fan,6588 Caroline St,Milton,FL,32570,USA,Southeast,(850) 220-3599,,fan2fancollectibles.com,Open
Fanboy Collectibles & Comics,2390 Ingleside Ave,Macon,GA,31204,USA,Southeast,(478) 238-4128,fanboycollectiblescomics@gmail.com,fanboycollectiblescomics.com,Open
Fantastic Comics,1708A Martin Luther King Jr Way,Berkeley,CA,94709,USA,West,(510) 982-1451,contact@fantasticcomics.net,fantasticcomics.net,Open
Gotham Comics,15 E Main St Ste B-1,Westminster,MD,21157,USA,Southeast,(410) 848-7447,gothamcomics2003@gmail.com,gotham-comics.com,Open
Grade City Comics,6333 212th St SW,Lynnwood,WA,98036,USA,West,(425) 971-3874,gradecitycomicsllc@hotmail.com,gradecitycomics.com,Open
Grand Adventures: Comics & Games,1013 Memorial Blvd,Murfreesboro,TN,37129,USA,Southeast,(615) 867-0838,info@grandadventurescomics.com,grandadventurescomics.com,Open
Grand Cities Games,120 N Washington St,Grand Forks,ND,58203,USA,Midwest,(701) 775-8602,grandcitiesgames@yahoo.com,grandcitiesgames.com,Open
Grand Slam Sports Cards & Comics,1730 W Eisenhower Blvd,Loveland,CO,80537,USA,West,(970) 667-8713,kakitakeen@gmail.com,facebook.com/grandslamcomics,Open
Grapevine Comics & Cards,9299 Thornton Rd Ste 4,Stockton,CA,95209,USA,West,(209) 952-9303,,facebook.com/GrapevineComicsCards,Open
Gray Ghost Comics,301 E 3rd St,Tifton,GA,31794,USA,Southeast,(229) 402-3724,grayghostcomics@gmail.com,https://www.facebook.com/grayghostcomics/,Open
Graydog Comics and Toys,12660 Chillicothe Rd,Chesterland,OH,44026,USA,Midwest,(216) 440-6031,graydogcomics@gmail.com,facebook.com/graydogcomics,Open
HBS Comics and Collectibles,1411 Mark Allen Ln Ste F,Murfreesboro,TN,37129,USA,Southeast,(931) 842-5418,thehappybookstack@gmail.com,thehappybookstack.com,Open
HELA Comics,1041 S Olive St Suite 2,Los Angeles,CA,90015,USA,West,(213) 284-8390,info@helacomics.com,helacomics.com,Open
HEROES & HOBBIES Beavertron's Comic Con,4150 SW Cedar Hills Blvd,Beaverton,OR,97005,USA,West,(503) 626-1440,,,Open
Halleys Comics & Games,1144 Oliver St,North Tonawanda,NY,14120,USA,Northeast,(716) 695-6138,comicat@roadrunner.com,facebook.com/HalleysComicsAndGames,Open
Halo 13,201 E Magnolia Blvd,Burbank,CA,91502,USA,West,(818) 842-8726,customerservice@halo13anime.com,halo13anime.com,Open
Happy Day Comics,3537 Orchard Dr,Hammond,IN,46323,USA,Midwest,(219) 937-7410,happydaycomics@gmail.com,happydaycomics.com,Open
Hartford Comics & Hobbies,915 W Main St,Eldorado,OK,73537,USA,Southwest,(580) 471-0098,hartford.comics@gmail.com,instagram.com/hartford_comics,Open
Harvey Doss Comics and Collectibles,237 Southwest Blvd,Rohnert Park,CA,94928,USA,West,(707) 665-5538,harvdoss@gmail.com,stores.ebay.com/harvdoss7075836400,Open
Have Fun Collectibles,4811 N Brady St 1C,Davenport,IA,52806,USA,Midwest,(309) 762-2474,hfc.customer@yahoo.com,havefuncollectibles.com,Open
Haven Comics Etc.,1871 Slaughter Rd Suite F,Madison,AL,35758,USA,Southeast,(256) 430-0505,havencomicsetc@gmail.com,havencomics.com,Open
Haven's Toys & Collectibles,213 S Main St,Del Rio,TX,78840,USA,Southwest,(830) 719-5430,havenmancha@yahoo.com,comicstorelist.com/comic-store/havens-toys-collectibles-del-rio-tx,Open
Hello Comics,398 Hillsdale Dr,Charlottesville,VA,22901,USA,Southeast,(434) 974-7512,sayhello@hellocomics.net,hellocomics.net,Open
Hero Clash Collectibles,217 9th St,North Wilkesboro,NC,28659,USA,Southeast,(336) 818-1880,,heroclashcollectibles.com,Open
Heroes 4 Sale,501 Helke Rd,Vandalia,OH,45377,USA,Midwest,(937) 898-2794,,facebook.com/Heroes-4-Sale-127486710617607,Open
Heroes Haven Comics & Games,296 E US Hwy 20,Michigan City,IN,46360,USA,Midwest,(219) 809-9191,pat@heroeshavenmc.com,heroeshavenmc.com,Open
Heroes Ink,520 Redwater Road,Wake Village,TX,75501,USA,Southwest,(430) 342-9645,heroesinkwv@gmail.com,facebook.com/heroesinkcomics,Open
Heroes Northridge,9301 Tampa Ave Ste 201A,Northridge,CA,91324,USA,West,(747) 237-6507,sales@heroesnorthridge.com,https://e885a7-3.myshopify.com/,Open
Heroes and Fantasies,13013 N. US-Hwy 281; suite 120 ,San Antonio,TX,78216,USA,Southwest,(210)-340-0074,adam@heroesandfantasies.com,heroesandfantasies.com,Open
Heroes and Games,400 N High St Ste 157,Columbus,OH,43215,USA,Midwest,(614) 228-8500,doug@heroesandgames.com,heroesandgames.com,Open
Heroes Comic Shop,1702 Mt Holly Rd,Burlington,NJ,08016,USA,Northeast,(609) 239-7519,newminn@comcast.net,facebook.com/heroescomicsandsports,Open
Hicollector,1001 Dillingham Blvd Ste 323,Honolulu,HI,96817,USA,West,(808) 888-2189,ceitliong@hicollector.com,hicollector.com,Open
High Ground Comics,182 Academy Ave,Providence,RI,02908,USA,Northeast,(401) 702-7277,highgroundcomics@gmail.com,highgroundcomics.com,Open
High Noon Comics,1821 NY-376,Poughkeepsie,NY,12603,USA,Northeast,(845) 769-4105,HighNoonComicz@gmail.com,highnooncomics.com,Open
Hobbies & Collectibles,406 Broad St A,Gadsden,AL,35901,USA,Southeast,(256) 543-2255,,hobbies-collectibles.edan.io,Open
Hobby Central,652 W Central Ave #28,Delaware,OH,43015,USA,Midwest,(740) 363-0381,hobbyc@frontier.com,hobbycentralohio.com,Open
Hobby Horse-Emmerlings,206 W Market St,Taylorville,IL,62568,USA,Midwest,(217) 824-9400,mstanley32@hotmail.com,217comics.com,Open
Hobbys Inc,56104 National Rd Ste 104,Bridgeport,OH,43912,USA,Midwest,(740) 635-4629,,,Open
Holeymoleys Comics & Collectibles,300 Pleasant St Unit B,Northampton,MA,01060,USA,Northeast,(413) 489-3726,holeymoleyscollectibles@gmail.com,holeymoleys.com,Open
Hollywood Movies and Games,709B E Lewis And Clark Pkwy,Clarksville,IN,47129,USA,Midwest,(812) 924-7136,hollywoodmoviesandgames@yahoo.com,,Open
Home Plate II Cards & Comics,507 W High St,Piqua,OH,45356,USA,Midwest,,homeplate2@gmail.com,,Open
Hometown Hobbies & Toys,322 4th St NE,Devils Lake,ND,58301,USA,Midwest,(701) 789-7580,hometownhobbies@hotmail.com,https://www.facebook.com/p/Hometown-Hobbies-and-Toys-61557073569294/,Open
Hot Comics & Collectibles,224 Broadway St S,Jordan,MN,55352,USA,Midwest,(952) 492-7870,hotcomicsdotcom@gmail.com,hotcomicsandcollectibles.com,Open
Bonnett's Book Store,502 E 5th St,Dayton,OH,45402,USA,Midwest,(937) 228-1222,bonnettsbookstore@gmail.com,bonnettsbookstore.blogspot.com,Open
Book Exchange & Comic Shop,807 Northlake Blvd,North Palm Beach,FL,33408,USA,Southeast,(561) 863-1555,Bookexchange2001@hotmail.com,facebook.com/The-Book-Exchange-Comic-Book-Shop-177335175647969,Open
Book Owl Bookstore,5772 Churchland Blvd,Portsmouth,VA,23703,USA,Southeast,(757) 638-7323,bookowl.velez@gmail.com,facebook.com/BookOwlBooks,Open
Book Stan,6055 Phelan Blvd,Beaumont,TX,77706,USA,Southwest,(409) 833-2324,,facebook.com/BookStan2,Open
Book Stan,204 N Fort Hood St Ste D,Killeen,TX,76541,USA,Southwest,(254) 628-1515,bookstantx@gmail.com,facebook.com/BookStan,Open
Books Comics & Things,2212 Maplecrest Rd,Fort Wayne,IN,46815,USA,Midwest,(260) 493-6116,bct@bctcomics.com,bctcomics.com,Open
Books With Pictures Eugene,296 E 5th St Ste 224,Eugene,OR,97401,USA,West,(541) 485-1048,bookswpictureseug@gmail.com,books-with-pictures-eugene.myshopify.com,Open
Books with Pictures,1401 SE Division St,Portland,OR,97202,USA,West,(503) 841-6276,bookswpictures@gmail.com,bookswithpictures.com,Open
Box Seat Cards & Collectibles,313 N Mattis Ave Ste 112,Champaign,IL,61821,USA,Midwest,(217) 281-8100,joe@boxseatcards.com,boxseatcards.com,Open
Impossible Dreams,523 Washington Ave,Bridgeville,PA,15017,USA,Northeast,(412) 221-3640,impdreamscomics@gmail.com,https://www.facebook.com/comicbookstuf/,Open
Infinite Heroes: Comics Cards and Collectibles,1098 Main St,Watertown,CT,06795,USA,Northeast,(860) 417-2559,paul@infiniteheroes.net,infiniteheroes.net,Open
Infinite Realities,5007 Lavista Rd,Tucker,GA,30084,USA,Southeast,(470) 359-5988,infiniterealitiescomics@gmail.com,infiniterealitiescomics.com,Open
Infinite Toys and Comics,4135 Dr Martin Luther King Jr Blvd Blue Aisle Booth 88-90,Fort Myers,FL,33916,USA,Southeast,(239) 245-8818,infinitetoysandcomics@gmail.com,infinitetoysandcomics.com,Open
Infinity Comics & Collectibles,108 Cotton St,West Monroe,LA,71291,USA,Southeast,(318) 582-5247,infinitycomicswm@yahoo.com,facebook.com/Infinity-Comics-West-Monroe-265766180745709,Open
Infinity Comics & More,4564 William Penn Highway,Murrysville,PA,15668,USA,Northeast,(724) 325-4914,,infinitycomicsandmore.com,Open
Intergalactic Imports,350 Del Monte Center,Monterey,CA,93940,USA,West,(831) 747-1221,,instagram.com/intergalacticimports,Open
Intergalactic Plastic,4419 S Florida Ave,Lakeland,FL,33813,USA,Southeast,(863) 213-4486,intergalacticplastictoys@gmail.com,intergalacticplastic.com,Open
Islander Comics and Cards,777 E Merritt Island Causeway,Merritt Island,FL,32952,USA,Southeast,(321) 452-4225,islandercomics@yahoo.com,facebook.com/islander.comics,Open
J C Comics & Cards,2609 State Rd,Cuyahoga Falls,OH,44223,USA,Midwest,(330) 929-1929,,jccomicsandcards.com,Open
J C Comics Inc,579 US-22,North Plainfield,NJ,07060,USA,Northeast,(908) 756-1212,jcrx2@verizon.net,jccomics.com,Open
JAK IN THE BOX COMICS,578 Aviation Road,Queensbury,NY,12804,USA,Northeast,(518) 223-0886,jakintheboxcomics@gmail.com,jakintheboxcomics.com,Open
JC's Comics N' More,6725 W Central Ave,Toledo,OH,43617,USA,Midwest,(419) 531-6097,jcscomicsnmore@hotmail.com,jcscomicsnmore.com,Open
JHU Comic Books,299B New Dorp Lane,Staten Island,NY,10306,USA,Northeast,(718) 351-6299,info@jhucomicbooks.com,jhu-comic-books.myshopify.com,Open
JNJ Comic Books and Games,3929 E 120th Ave A,Thornton,CO,80233,USA,West,(720) 297-0988,jnjscomicbooks@gmail.com,https://www.facebook.com/jnjcomic/,Open
JNJ Comic Books,11765 Edinger Ave,Fountain Valley,CA,92708,USA,West,(714) 839-5424,,facebook.com/jnjcomics,Open
Jason's Southeast Cards & Comics,1152 S Acadian Thruway,Baton Rouge,LA,70806,USA,Southeast,(225) 931-1901,southeastcardsandcomics@yahoo.com,secardsandcomics.com,Open
Jay's Comics,34165 US-45,Grayslake,IL,60030,USA,Midwest,(847) 223-8711,jayscomics@gmail.com,jayscomicsonline.com,Open
Jersey Coin Showcase,1350 NJ-36,Hazlet,NJ,07730,USA,Northeast,(732) 264-2531,,,Open
Brat Comics And Collectibles,248 S Veterans Blvd,Tupelo,MS,38801,USA,Southeast,(662) 231-8063,bratcomicsandcollectibles@gmail.com,instagram.com/bratcomicsandcollectibles,Open
Brickhouse Collectibles,163 W End Ave,Knoxville,TN,37934,USA,Southeast,(865) 392-1019,info@brickhousecollectibles.com,brickhousecollectibles.com,Open
Brixton & Company,1618 N Adams St,Pottstown,PA,19464,USA,Northeast,(215) 859-1427,brixtonandcompany@gmail.com,facebook.com/BrixCoComics,Open
Broken Horn Collectibles,2833 S Padre Island Dr,Corpus Christi,TX,78415,USA,Southwest,(361) 742-4508,michaelcgomez@yahoo.com,instagram.com/brokenhornscollectibles,Open
Broken Horn Toys-N-Comics,4455 S Padre Island Dr Suite #4,Corpus Christi,TX,78411,USA,Southwest,(361) 257-2057,michael@brokenhorntoysandcomics.biz,https://www.facebook.com/p/Broken-Horn-Toys-N-Comics-61563989384830/,Open
Brown's Corner,500 Main St,Point Pleasant,WV,25550,USA,Southeast,(681) 439-0932,brownscorner500@gmail.com,https://www.facebook.com/baybay5910/,Open
Brute Squad Entertainment,7000 NW Prairie View Rd,Kansas City,MO,64151,USA,Midwest,(816) 255-3289,brutesquadentertainment@brutesquade.com,brutesquadentertainment.com,Open
BuBs Comics and Cards,7483 Monterey Rd,Gilroy,CA,95020,USA,West,(408) 767-2086,Tony@bubscomicsncards.com,bubscomicsncards.com,Open
Bug's Comics and Games,1664 Bryan Rd,O'Fallon,MO,63368,USA,Midwest,(636) 294-9426,larry@bugscomicsandgames.com,bugscomicsandgames.com,Open
Bulldogs Comics and more,1472 E US Hwy 36 E Unit D,Urbana,OH,43078,USA,Midwest,(937) 935-6874,bulldogscomics@gmail.com,https://www.facebook.com/p/Bulldogs-comics-more-61550642098196/,Open
Bunjee's Comics,120 E Taylor St #3416,Griffin,GA,30223,USA,Southeast,(770) 229-3940,bunjees@gmail.com,bunjeescomics.com,Open
Buried under comics and toys,3908 Market St #104,Wilmington,NC,28403,USA,Southeast,(910) 660-8398,buriedundercomics@gmail.com,facebook.com/buriedundercomicsandtoys,Open
ByWay Books & More,399 Canal St,Brattleboro,VT,05301,USA,Northeast,(802) 490-8014,contact@bywaybooks.co,bywaybooks.co,Open
C&G Comics and Toys,29115 Hwy 6,Hempstead,TX,77445,USA,Southwest,(979) 525-7337,candgcomics@yahoo.com,candgcomics.com,Open
C4 Entertainment Oak Grove,15858 Fort Campbell Blvd Suite A,Oak Grove,KY,42262,USA,Southeast,(270) 560-4179,,facebook.com/c4oakgrove,Open
C4 Entertainment,592 Fire Station Rd,Clarksville,TN,37043,USA,Southeast,(931) 368-9017,c4entertainmentc4@gmail.com,c4-entertainment.square.site,Open
Chaos Comics and Events,5374 W Saginaw Hwy,Lansing,MI,48917,USA,Midwest,(517) 920-8288,Chaosevents21@gmail.com,facebook.com/chaoscomics22,Open
CK Comics & Collectibles,719 Manitou Ave,Manitou Springs,CO,80829,USA,West,(719) 247-8572,,ckcomicsonline.com,Open
COMICS-N-STUFF,4300 Meadows Ln Suite 1320,Las Vegas,NV,89107,USA,West,(702) 822-6367,,comics-n-stuff.com,Open
Cadets Toys & Comics,4910 Main St Suite 114,Spring Hill,TN,37174,USA,Southeast,(615) 302-8260,hello@cadetstoys.com,cadetstoys.com,Open
Calliope Comics,519 Valentine Hill Rd,Bellefonte,PA,16823,USA,Northeast,(814) 574-6667,,https://www.facebook.com/p/Calliope-Comics-100057155422824/,Open
SCG Hobby Altoona,3200 Pleasant Valley Blvd,Altoona,PA,16602,USA,Northeast,(814) 201-2845,altoona@scghobby.com,scghobby.com,Open
AVPopShop,44154 10th St W,Lancaster,CA,93534,USA,West,(661) 726-7266,Avpopshop@gmail.com,sites.google.com/view/avpopshop,Open
American Legends,1107 Central Park Ave,Scarsdale,NY,10583,USA,Northeast,(914) 725-2225,mark@amerlegends.com,amerlegends.com,Open
Atlanta Classic Comics,63 Ernest W Barrett Pkwy NW,Marietta,GA,30066,USA,Southeast,(770) 906-8846,atlantapickers@gmail.com,atlantaclassiccomics.com,Closed
Atomic Comics & Toys,4020 S Steele St #102,Tacoma,WA,98409,USA,West,(253) 472-1908,info@atomiccomicsonline.com,facebook.com/atomiccomics,Open
Atomic Comics Emporium II,467b Denbigh Blvd,Newport News,VA,23608,USA,Southeast,(757) 877-3756,atomicce@cox.net,atomiccomicsemporium.com,Open
Atomic Comics Emporium,50 W Mercury Blvd,Hampton,VA,23669,USA,Southeast,(757) 723-5003,atmcmx@yahoo.com,atomiccomicsemporium.com,Open
Atomic Empire,3400 Westgate Dr Ste 14B,Durham,NC,27707,USA,Southeast,(919) 490-7900,support@atomicempire.com,atomicempire.com,Open
Atomic Monkey Comics,11177 Katy Fwy Ste B,Houston,TX,77079,USA,Southwest,(281) 798-0777,,atomicmonkeycomics.com,Open
Atomic Planet Comics,8906 E 96th St,Fishers,IN,46037,USA,Midwest,(317) 588-9139,atomicplanetcomics@gmail.com,atomicplanet.net,Open
Awesome Comics,8420 Abrams Rd Ste 202,Dallas,TX,75243,USA,Southwest,(214) 341-7033,awesome_comics@yahoo.com,awesomecomicsonline.com,Open
B & D Comic Shop,2937 Brambleton Ave SW,Roanoke,VA,24015,USA,Southeast,(540) 342-6642,bdcomics1@verizon.net,banddcomics.com,Open
B & D Sport Cards and Comics,1326 Piney Forest Rd,Danville,VA,24540,USA,Southeast,(434) 836-9133,,https://www.facebook.com/p/BD-Comics-and-Collectibles-100091773005533/,Open
B & L Comics Cards & Nostalgia,5591 Ridge Rd,Cleveland,OH,44129,USA,Midwest,(440) 886-3077,,facebook.com/BLComics,Open
B & M Amusement,5036 Highway 58 Suite B,Chattanooga,TN,37416,USA,Southeast,(423) 490-1162,bandmorders@aol.com,bandmamusement.com,Open
B and J comics,346 Main St,Wilton,ME,04294,USA,Northeast,(207) 778-1569,info@bandjcomics.com,bandjcomics.com,Open
Big Belly Comic Cave,3814 Williamson Rd NW,Roanoke,VA,24012,USA,Southeast,(540) 595-9417,fatthorcomics@gmail.com,bigbellycomiccave.com,Open
Big J's Comics & Collectibles,3315 Johnston St,Lafayette,LA,70503,USA,Southeast,(337) 984-3405,jybbbyl@hotmail.com,https://www.facebook.com/p/Big-Js-Comics-100057415030618/,Unknown
Big Redhead Vintage Toys,5120 N Florida Ave Ste A,Tampa,FL,33603,USA,Southeast,(813) 232-2485,bigcoolredhead@yahoo.com,bigredheadcomics.com,Open
Bigfoot Comics,101 E B St,Belleville,IL,62220,USA,Midwest,(618) 406-4364,bigfootcomics101@gmail.com,bigfootcomics.org,Open
Billy Reagan Collectibles,,Franklinton,NC,27525,USA,Southeast,(919) 229-5440,billyreagancollectibles@gmail.com,billyreagancollectibles.com,Unknown
Bingo Used Books,3366 SE Powell Blvd,Portland,OR,97202,USA,West,(503) 231-4091,BingoUsedBooks@gmail.com,bingousedbooks.com,Open
Black Cat Books,2214 E Algonquin Rd,Algonquin,IL,60102,USA,Midwest,(847) 409-6295,,modernagereader.com,Open
Black Cat Comics,881 Stockton St,Jacksonville,FL,32204,USA,Southeast,(904) 717-1662,gmcomics@mail.com,blackcatcomicsjax.com,Open
Black Dog Cards and Comics,1616 W Main St,Richmond,VA,23220,USA,Southeast,(804) 381-1702,blackdogcollectables@gmail.com,blackdogcollectables.com,Open
Black Lodge Collectibles,1986 Broad St,Cranston,RI,02905,USA,Northeast,(860) 501-3137,blacklodgecollectibles@gmail.com,instagram.com/blacklodgecollectibles,Open
Black Sheep Comics,1491 N Lee Trevino Ste L,El Paso,TX,79936,USA,Southwest,(915) 235-7872,scruffy1179@yahoo.com,blacksheepcomicselpaso.square.site,Open
Blackhole Comics,732 Washington St,Norwood,MA,02062,USA,Northeast,(781) 769-4552,blackhole02745@gmail.com,theblackholecomics.com,Open
Blackthorn Game Center,1430 Highway 70 E,Dickson,TN,37055,USA,Southeast,(615) 446-6057,blackthorngc@aol.com,blackthorngamecenter.com,Open
Blackwater Market Comics & Coffee,PO Box 4003,Mansfield,OH,44907,USA,Midwest,(480) 420-4409,,bwmcomics.com,Open
Blast From The Past Comics And Toys,1209 North Rock Street,Sheridan,AR,72150,USA,Southeast,(870) 258-5103,dewaynedillon@yahoo.com,facebook.com/blastfromthepastcomicsandtoys,Open
Blue Ox Games,2713 E 10th St,Greenville,NC,27858,USA,Southeast,(252) 695-6442,sales@blueoxgames.com,blueoxgames.com,Open
Blue Ridge Comics & Toys,201 E Main St,Marion,VA,24354,USA,Southeast,(276) 608-3647,blueridgecomics@outlook.com,https://www.facebook.com/p/Blue-Ridge-Comics-Toys-61564422594012/,Open
Bona Fide Comics,2954 NC Hwy 127 S,Hickory,NC,28602,USA,Southeast,(828) 448-0193,bonafidecomicstore@gmail.com,bonafidecomicstore.com,Open
East Atlanta Comics,508 Flat Shoals Ave SE,Atlanta,GA,30316,USA,Southeast,(404) 963-2918,eastatlantacomics@gmail.com,eastatlantacomics.com,Open
Eastgate Comics Mini Mart,108 Interstate Dr,High Point,NC,27263,USA,Southeast,(336) 431-2030,eastgatecomicsminimart@gmail.com,eastgatecomics.com,Open
Eastgate Comics,609 McDonald Court Suite B,High Point,NC,27260,USA,Southeast,(336) 887-2455,eastgatecomics@gmail.com,eastgatecomics.com,Open
El Rey Comics,75 Bishop St,Portland,ME,04103,USA,Northeast,(207) 405-9831,adrian@elreycomics.com,elreycomics.com,Open
Empire Comics & Games,1636 Slate Run Rd,New Albany,IN,47150,USA,Midwest,(812) 948-9290,empirecomicsandgames@gmail.com,facebook.com/EmpireComics,Open
Empire Games,118 N McDuffie St,Anderson,SC,29621,USA,Southeast,(864) 328-9418,main@empire-games.com,empire-games.com,Open
Empire's Comics Vault,1120 Fulton Ave Suite K,Sacramento,CA,95825,USA,West,(916) 482-8779,empirescv@hotmail.com,empirescomics.com,Open
Encounter Comics & Games,811 Union Blvd,Allentown,PA,18109,USA,Northeast,(610) 774-9565,,facebook.com/encountercomics,Open
Epikos Comics and Games,5864 Brainerd Rd,Chattanooga,TN,37411,USA,Southeast,(423) 531-4184,info@epikosccg.com,epikosccg.com,Open
Escape Hatch Books,27 Main St,Jaffrey,NH,03452,USA,Northeast,(603) 532-7400,ehb@escapehatchbooks.com,facebook.com/EscapeHatchBooks,Open
Escape from LA Comics,252 S Main St,Pomona,CA,91723,USA,West,(626) 502-3185,info@escapefromlacomics.com,escapefromlacomics.com,Open
Everscape,104 E Fort St,Manchester,TN,37355,USA,Southeast,(931) 954-1520,explore@everscapeonline.com,everscapeonline.com,Open
Evil Empire Comics,201 Station Rd,Quakertown,PA,18951,USA,Northeast,(855) 936-3845,rey@evilempirecomics.com,evilempirecomics.com,Open
Evy's Treasures And Collectibles,1670 Acushnet Ave,New Bedford,MA,02746,USA,Northeast,(774) 400-3837,evystnc@gmail.com,https://www.facebook.com/p/Evys-Comics-and-Collectibles-100065374243370/,Open
,,,,,,,,,,
Capital City Comics,2713 Industrial Drive Suite D,Jefferson City,MO,65101,USA,Midwest,(573) 302-1888,capitalcitycomicbooks@gmail.com,facebook.com/CapitalCityComicsJC,Open
Cards & Comics Connection,1717 N Frazier St Suite H,Conroe,TX,77301,USA,Southwest,(936) 756-4839,cardscomicsconnection@gmail.com,cardsandcomics.net,Open
Carolina Comics & More,4110 Dr Martin Luther King Jr Blvd,New Bern,NC,28562,USA,Southeast,(252) 633-3250,,https://www.facebook.com/p/Comic-Shop-in-New-Bern-100057368983743/,Open
Carolina Comics,305 SW C Ave,Lawton,OK,73501,USA,Southwest,(580) 353-5164,carolinacomics@sbcglobal.net,carolinacomics.net,Open
Castle Comics and Games,2133 S 4th St,Lafayette,IN,47905,USA,Midwest,(765) 474-1110,yourfriendsatcastlecomics@gmail.com,castlecomicscards.com,Open
Castle Comics,901 Gallia St,Portsmouth,OH,45662,USA,Midwest,(740) 353-4777,,https://www.facebook.com/CastleComicsPortsmouth/,Open
Cavalier Comics,109 Glade St SE Suite E,Wise,VA,24293,USA,Southeast,(276) 328-9312,cavaliercomics@verizon.net,cavaliercomics.com,Open
Centerpoint Toys & Games,4792 Navy Rd,Millington,TN,38053,USA,Southeast,(901) 601-2769,centerpointtoys@gmail.com,facebook.com/CenterpointToys,Open
Central City Comics,2600 Central Ave G,Charlotte,NC,28205,USA,Southeast,(803) 487-3671,centralcitycomicsnc@gmail.com,centralcitycomics.com,Open
Cerebral Vortex,1420 N Parham Rd Fl 2,Richmond,VA,23229,USA,Southeast,(804) 640-8130,,facebook.com/cerebralvortexrva,Open
Charlies Retro Reality,401 Diagonal St,Clarkston,WA,99403,USA,West,(509) 254-7696,CharliesRetroReality2021@outlook.com,charliesretroreality.com,Open
