name,address,city,state,zip_code,country,region,phone,email,website,status
1st Print Comics,1548 Buffalo Rd,Rochester,NY,14624,USA,Northeast,585-978-9791,mike@1stprintcomics.com,1stprintcomics.com,mailed
20th Century Books,1421 S Park St Ste 200,Madison,WI,53715,USA,Midwest,,hank.luttrell@gmail.com,southparkbooks.com,mailed
2nd & Charles,45290 Utica Park Blvd,Utica,MI,48315,USA,Midwest,(586) 254-1370,support@2ndandcharles.com,2ndandcharles.com,mailed
2nd Time Around Comics,902 Conover Blvd E Ste B,Conover,NC,28613,USA,Southeast,,2ndtimearoundcomics@gmail.com,2ndtimearoundcomics.com,mailed
3rd Universe Comic Emporium,35 N Riverside Ave,Croton-On-Hudson,NY,10520,USA,Northeast,914-827-3600,the3rduniverse@gmail.com,the3rduniverse.com,mailed
4 Color Fantasies,8045 Archibald Ave #120,Rancho Cucamonga,CA,91730,USA,West,855-692-6642,chris@4colorfantasies.com,4colorfantasies.com,mailed
A & S Comics & Cards,7512 Bergenline Ave,North Bergen,NJ,07047,USA,Northeast,(201) 869-0280,ascomics@aol.com,www.ascomics.com,mailed
A Cardstore,4018 Union Rd,Buffalo,NY,14225,USA,Northeast,716-713-1184,acardstore99@yahoo.com,,mailed
A G Collectibles,6658 Carnelian St,Rancho Cucamonga,CA,91701,USA,West,909-758-0090,armingtongalleries@gmail.com,agcollectibles.com,mailed
A Little Shop of Comics,509 Berckman St,Plainfield,NJ,07062,USA,Northeast,(908) 322-9402,info@littleshopofcomics.com,littleshopofcomics.com,mailed
A Pennyworths Comics,11025 Monroe Rd Ste D,Matthews,NC,28105,USA,Southeast,(704) 849-2287,apennyworthscomics@gmail.com,apennyworthscomics.com,mailed
A Shop Called Quest,101 N Indian Hill Blvd,Claremont,CA,91711,USA,West,,info@ashopcalledquest.com,ashopcalledquest.com,mailed
A Shop Called Quest,5 E Citrus Ave Ste 101,Redlands,CA,92373,USA,West,,YesYouCan@AShopCalledQuest.com,ashopcalledquest.com,mailed
A To Z Cards Comics Coins,32647 Ford Rd,Garden City,MI,48135,USA,Midwest,734-425-6780,atozcardsandcomics@gmail.com,http://youratoz.com/,mailed
A&M Comics and Books,6650 Bird Road,Miami,FL,33155,USA,Southeast,(305) 661-3406,amcomics@gmail.com,http://amcomicbooks.com,mailed
A&S Comics,563 Cedar Ln,Teaneck,NJ,07666,USA,Northeast,201-801-0500,info@ascomics.com,ascomics.com,mailed
A-1 Comics,818 Sunrise Ave,Roseville,CA,95661,USA,West,,a1roseville@a-1comics.com,a-1comics.com,mailed
A-1 Comics,5361 Auburn Blvd,Sacramento,CA,95841,USA,West,,a1comics@a-1comics.com,a-1comics.com,mailed
Aamazing Fantasy Comics,6721 W Ken Caryl Avenue,Littleton,CO,80128,USA,West,,shawno01@aol.com,aamazingfantasycomics.com,mailed
Acme Comics,2150 Lawndale Dr,Greensboro,NC,27408,USA,Southeast,336-574-2263,acmelwn@bellsouth.net,acmecomics.com,mailed
Acme Comics & Collectibles,1622 Pierce St,Sioux City,IA,51105,USA,Midwest,,acmecomicssiouxcity@outlook.com,acmefirst.net,mailed
Acme Superstore,905 E State Road 434,Longwood,FL,32750,USA,Southeast,(407) 331-0433,info@acme-superstore.com,acme-superstore.com,mailed
Action City Comics,570 Manhattan Ave,Brooklyn,NY,11222,USA,Northeast,929-458-1890,info@actioncitycomics.com,actioncitycomics.com,mailed
Action Comics & Sports,210 N Boulder Hwy #110,Henderson,NV,89015,USA,West,,vegaschess@msn.com,actioncomicsandsports.com,mailed
Adventures In Comics & Games,6026 Fair Oaks Blvd,Carmichael,CA,95608,USA,West,,adventures9860@sbcglobal.net,adventureson.com,mailed
Affordable Cards & Comics,2395 Hamner Ave Ste F,Norco,CA,92860,USA,West,951-736-8552,info@affordablecardsnorco.com,affordablecardsnorco.com,mailed
Aftertime Comics,1304 King St,Alexandria,VA,22314,USA,Southeast,(703) 548-5030,zzaftertime@aol.com,aftertimecomics.com,mailed
Age Of Comics,5505 Osuna Rd NE,Albuquerque,NM,87109,USA,Southwest,,ageofcomics@hotmail.com,,mailed
Alakazam Comics,17777 Main St Ste E,Irvine,CA,92614,USA,West,949-854-3744,irvine@alakazamcomics.com,alakazamcomics.com,mailed
Alexs MVP Cards & Comics,1590 York Ave,New York,NY,10028,USA,Northeast,212-831-2273,mvp@alexsmvp.com,alexsmvp.com,mailed
Alien Worlds,6900 San Pedro Ave #121,San Antonio,TX,78216,USA,Southwest,,alienworlds2@yahoo.com,alienworldscomics.com,mailed
All American Collectibles,6933 Hampton Ave,Saint Louis,MO,63109,USA,Midwest,314-352-7700,david.schmidt@allamericanccg.com,aac-mo.com,mailed
All Star Comics & Collectibles,200 E Montauk Hwy,Lindenhurst,NY,11757,USA,Northeast,347-335-6289,allstarcomicsny@gmail.com,,mailed
Alter Ego Comics,331 7th Ave,Marion,IA,52302,USA,Midwest,,erin@alteregoia.com,alteregoia.com,mailed
Alter Ego Comics,230 N Main St,Lima,OH,45801,USA,Midwest,419-224-6700,support@alteregocomics.com,alteregocomics.com,mailed
Altered State Comics,671 Big Bend Rd,Manchester,MO,63021,USA,Midwest,636-220-4785,AlteredStateSTL@gmail.com,alteredstatecomics.com,mailed
Alternate Reality Inc,3149 W 111th St,Chicago,IL,60655,USA,Midwest,773-881-4090,arcomics@msn.com,myalternatereality.com,mailed
Alternate Universe,1181 Chapel Street,New Haven,CT,06511,USA,Northeast,(203) 562-0108,altun96@aol.com,www.alternateuniversect.com,mailed
Alternate Universe Comics,398 Bridgeport Ave,Milford,CT,06460,USA,Northeast,(203) 876-8539,alternateuniversect@gmail.com,www.alternateuniversect.com,mailed
Alterniverse,1164 Rte 9G Suite 6,Hyde Park,NY,12538,USA,Northeast,(845) 233-4234,alterniverse2@aol.com,alterniverse.net,mailed
Amazing Book-Store,3718 Richfield Rd,Flint,MI,48506,USA,Midwest,810-736-3025,amazingbookstore@comcast.net,http://www.amazebookstore.com/,mailed
Amazing Comics & Cards,5555 E Stearns St Ste 102,Long Beach,CA,90815,USA,West,,amazingcomics@att.net,amazingcomics.com,mailed
Amazing Comics & Cards,6735 Westminster Blvd Ste E,Westminster,CA,92683,USA,West,714-379-0177,amazingcomicswest@gmail.com,amazingcomics.com,mailed
Amazing Fantasy Books & Comics,20523 S La Grange Rd,Frankfort,IL,60423,USA,Midwest,,contact_us@afbooks.com,afbooks.com,mailed
Amazing Fantasy Books & Comics Lockport,113 E 9th St,Lockport,IL,60441,USA,Midwest,,contact_us@afbooks.com,afbooks.com,mailed
Amazing Fantasy Books & Comics Tinley Park,15948 S Harlem Ave,Tinley Park,IL,60477,USA,Midwest,,contact_us@afbooks.com,afbooks.com,mailed
Amazing Heroes,1025A Stuyvesant Ave,Union,NJ,07083,USA,Northeast,908-687-4338,amazingheroes@hotmail.com,amazingheroes.com,mailed
Amok Time,108 New South Rd Suite C,Hicksville,NY,11801,USA,Northeast,(516) 520-0975,amoktime@aol.com,www.amoktime.com,mailed
Androids Amazing Comics,61 Railroad Avenue,Sayville,NY,11782,USA,Northeast,(631) 567-8069,artie@androidscomics.com,androidscomics.com,mailed
Annex Comics,308 Broadway,Newport,RI,02840,USA,Northeast,401-847-4607,annex.comics@cox.net,annexcomics.com,mailed
Anthonys Comic Book Art Warehouse and Office,43 Romeo St,Moonachie,NJ,07074,USA,Northeast,917-821-8893,asnyder@anthonyscomicbookart.com,anthonyscomicbookart.com,mailed
Anthonys Comic Books Original Art & Collectibles Retail Store,118 Fort Lee Rd,Leonia,NJ,07605,USA,Northeast,201-849-5223,info@anthonyscomicbookart.com,anthonyscomicbookart.com,mailed
Anyone Comics,831 Nostrand Ave,Brooklyn,NY,11225,USA,Northeast,347-350-8422,info@anyonecomics.com,anyonecomics.com,mailed
Aquilonia,412 Fulton St,Troy,NY,12180,USA,Northeast,(518) 271-1069,lupir@aol.com,aquiloniacomicsandcards.com,mailed
Arcane Comics And More,15202 Aurora Ave N Ste A,Shoreline,WA,98133,USA,West,,info@arcanecomics.net,arcanecomicbooks.com,mailed
Arsenal Comics & Games,1610-1 Newbury Rd Ste A,Newbury Park,CA,91320,USA,West,,arsenal@arsenalcng.com,arsenalcomicsandgames.com,mailed
Arsenal Comics & Games,3431 Telegraph Rd,Ventura,CA,93003,USA,West,(805) 620-0543,service@arsenalcng.com,arsenalcomicsandgames.com,mailed
Astro-Zombies,3100 Central Ave SE,Albuquerque,NM,87106,USA,Southwest,,info@astrozombies.com,astrozombies.com,mailed
Asylum Comics,212 Third Street Suite A,Marietta,OH,45750,USA,Midwest,(740) 373-9710,asylum_comics@yahoo.com,www.facebook.com/AsylumComics,mailed
Atlantis Games & Comics,145 E Little Creek Rd,Norfolk,VA,23505,USA,Southeast,,ac3@atlantis-comics.com,atlantis-comics.com,mailed
Atlantis Games and Comics,2862 Airline Blvd,Portsmouth,VA,23701,USA,Southeast,757-465-1617,ac1@atlantis-comics.com,atlantis-comics.com,mailed
Atlantis Games and Comics,9649 1st View St,Norfolk,VA,23503,USA,Southeast,757-502-8954,ac3@atlantis-comics.com,atlantis-comics.com,mailed
Atlas Comics,5251 N Harlem Ave,Chicago,IL,60656,USA,Midwest,,atlas@acomics.com,acomics.com,mailed
Atomic City Comics,638 South St,Philadelphia,PA,19147,USA,Northeast,,atomiccitycomics@aol.com,atomic-city-comics.b12sites.com,mailed
Atomic Comics Emporium,452 Denbigh Blvd Ste C,Newport News,VA,23608,USA,Southeast,,atmcmx@gmail.com,atomiccomicsemporium.com,mailed
Augusta Book Exchange,280 S Belair Rd Suite 5,Martinez,GA,30907,USA,Southeast,(706) 860-6553,abx.augusta@gmail.com,facebook.com/groups/136179031760,mailed
Austin Books & Comics,5002 North Lamar Blvd,Austin,TX,78751,USA,Southwest,,info@austinbooks.com,austinbooks.com,mailed
Average Ape Comics and Games,2325 Balls Ferry Rd,Anderson,CA,96007,USA,West,,averageapestudios@gmail.com,averageape.com,mailed
Aw Yeah Comics,119 E Charles St,Muncie,IN,47305,USA,Midwest,7652825297,christina@awyeahcomicsmuncie.com,awyeahcomicsmuncie.com,mailed
Aw Yeah Comics NY,313 Halstead Ave,Harrison,NY,10528,USA,Northeast,914-732-3600,aycny@awyeahcomics.com,awyeahcomics.com,mailed
Bailey's Comics of Lindenhurst,282 North Wellwood Ave,Lindenhurst,NY,11757,USA,Northeast,(631) 225-5085,baileyscomics@gmail.com,www.baileyscomics.com,mailed
Bargain Comics & Cards,19 E Bijou St,Colorado Springs,CO,80903,USA,West,(719) 578-8847,comics@escapevelocitycomics.com,escapevelocitycomics.com,mailed
Battlestar Comics,G4383 S Saginaw St,Burton,MI,48529,USA,Midwest,810-341-3331,jameskruger@yahoo.com,http://www.battlestarcomics.com/,mailed
Bazinga Comics,2941 Thousand Oaks #101,San Antonio,TX,78247,USA,Southwest,,custservice@bazingacomics.com,bazingacomics.com,mailed
BC Comix of Battle Creek,669 Capital Ave SW,Battle Creek,MI,49015,USA,Midwest,(269) 963-3773,bccomix10@gmail.com,bccomix.com,mailed
BCS Books and Comics,701 Inwood Dr,Bryan,TX,77802,USA,Southwest,,dagmar.jones@gmail.com,bcsbooksandcomics.com,mailed
Beachead Comics,1326 W Chew St,Allentown,PA,18102,USA,Northeast,610-770-1326,beachcom@aol.com,beacheadcomics.com,mailed
Bedrock City Comic Co,4602A Washington,Houston,TX,77007,USA,Southwest,,bedrock5@bedrockcity.com,bedrockcity.com,mailed
Bedrock City Comic Co,102 W Bay Area Blvd,Webster,TX,77598,USA,Southwest,,bedrock4@bedrockcity.com,bedrockcity.com,mailed
Bedrock City Comics,4831 HWY 6,Missouri City,TX,77459,USA,Southwest,,bedrock6@bedrockcity.com,bedrockcity.com,mailed
Bedrock Comics,371 Worcester Rd,Framingham,MA,01701,USA,Northeast,508-872-2317,bedrockcx@aol.com,www.bedrock-comics.com,mailed
Bell Book and Comic,458 Patterson Rd,Dayton,OH,45419,USA,Midwest,937-643-9006,bellbookcomiclists@gmail.com,bellbookandcomic.com,mailed
Best Comics & Collectibles,1300 Jericho Turnpike,New Hyde Park,NY,11040,USA,Northeast,(516) 328-1900,tommybest@aol.com,www.bestcomics.com,mailed
Beyond Comics,18749 North Frederick Ave,Gaithersburg,MD,20879,USA,Southeast,(301) 216-0007,beyondcomics@beyondcomics.com,beyondcomics.com,mailed
Beyond Comics,5632 Buckeystown Pike,Frederick,MD,21704,USA,Southeast,(301) 668-8202,beyondcomics@beyondcomics.com,beyondcomics.com,mailed
Bibliotech Books & Comics,123 E Main Street,Shawnee,OK,74801,USA,Southwest,,bbccomics@aol.com,bbcbooksandcomics.com,mailed
Big Bang Comics & Collectibles,437 Broad St,Sewickley,PA,15143,USA,Northeast,(412) 259-8742,bigbangcomicsandcollectibles@gmail.com,bigbangcomicsandcollectibles.com,mailed
Big Bens Comix Oasis,6711 Allen Rd,Allen Park,MI,48101,USA,Midwest,313-382-0700,bigbencomixoasis@aol.com,https://www.comixoasis.com/,mailed
Big Brother Comics,920 20th St #150,Sacramento,CA,95811,USA,West,916-441-6461,bigbrothercomics@gmail.com,bigbrothercomics.com,mailed
Big Planet Comics,4908 Fairmont Ave,Bethesda,MD,20814,USA,Southeast,(301) 654-6856,bethesda@bigplanetcomics.com,bigplanetcomics.com,mailed
Big Planet Comics,1524 U St NW,Washington,DC,20009,USA,Southeast,(202) 842-1961,dc@bigplanetcomics.com,bigplanetcomics.com,mailed
Big Planet Comics,426 Maple Ave E,Vienna,VA,22180,USA,South,703-242-9412,vienna@bigplanetcomics.com,bigplanetcomics.com,mailed
Bills Books & More,2215 6th St SW,Canton,OH,44706,USA,Midwest,(330) 453-3996,info@billsbooksandmore.com,billsbooksandmore.com,mailed
Bizarro World,706 5th St,Davis,CA,95616,USA,West,,bizarroworld@hotmail.com,bizarroworld.net,mailed
Black Cat Comics,2261 Highland Drive,Salt Lake City,UT,84106,USA,West,,cybergage817@gmail.com,blackcat-comics.com,mailed
Blue Line Collectibles,1728 W Ritner St,Philadelphia,PA,19145,USA,Northeast,,bluelinecollectiblesphilly@gmail.com,instagram.com/bluelinecollectibles,mailed
Blue Moon Comics,1545 4th St Ste A,San Rafael,CA,94901,USA,West,415-448-5342,blumooncomix@earthlink.net,bluemooncomics.com,mailed
BlueMoon Comics Strikes Back,2405 S Earl Ave,Lafayette,IN,47905,USA,Midwest,7657428787,geoff@bluemooncomics.net,bluemooncomics.net,mailed
Board Game Barrister LLC,2235 S Kinnickinnic Ave,Milwaukee,WI,53207,USA,Midwest,,gbl@boardgamebarrister.com,boardgamebarrister.com,mailed
Bob's Hobbies & Collectibles,659 Dickinson St,Springfield,MA,01108,USA,Northeast,(781) 781-2627,robert-mankus@comcast.net,,mailed
Book Nook,3073 North Druid Hills Rd,Decatur,GA,30033,USA,Southeast,(470) 986-1588,booknookatlanta@hotmail.com,booknookdecatur.com,mailed
Bookery Fantasy,16 W Main St,Fairborn,OH,45324,USA,Midwest,(937) 879-1408,Bookeryfan@aol.com,www.bookeryfantasy.com,mailed
Books Comics and Things,2212 Maplecrest Rd,Fort Wayne,IN,46815,USA,Midwest,,bct@bctcomics.com,bctcomics.com,mailed
Books Galore,5546 Peach St,Erie,PA,16509,USA,Northeast,814-864-1853,eriebooksgalore@yahoo.com,eriebooksgalore.com,mailed
Boomerang Comics,500 E Round Grove Rd Ste 313,Lewisville,TX,75067,USA,Southwest,,info@boomerangcomics.com,boomerangcomics.com,mailed
Borderlands Comics and Games,1434 Laurens Rd,Greenville,SC,29607,USA,Southeast,(864) 235-3488,borderlandscomics@gmail.com,,mailed
Boscos Comics Cards & Games,2606 Spenard Rd,Anchorage,AK,99503,USA,West,,info@boscos.com,boscos.com,mailed
Brave New Worlds,433 W Moreland Rd,Willow Grove,PA,19090,USA,Northeast,(215) 657-8838,rob@bravenewworldscomics.com,http://www.bravenewworldscomics.com,mailed
Brave New Worlds,55 N 2nd St,Philadelphia,PA,19106,USA,Northeast,215-925-6525,rob@bravenewworldscomics.com,bravenewworldscomics.com,mailed
Bring Your Old Books,48551 Van Dyke Ave,Shelby Township,MI,48317,USA,Midwest,586-731-6473,byob48317@yahoo.com,http://bringyouroldbooks.com/,mailed
Bronze Age Bat Cave,20 S Santa Cruz Ave Ste 112,Los Gatos,CA,95030,USA,West,408-827-4364,bronzeagebatcave@gmail.com,bronzeagebatcave.net,mailed
BSI Comics,3030 Severn Ave Ste 7,Metairie,LA,70002,USA,Southeast,504-885-5250,bsi@bsicomics.com,bsicomics.com,mailed
Bulletproof Comics Inc,2178 Nostrand Ave,Brooklyn,NY,11210,USA,Northeast,(718) 434-1800,redkevlar6@aol.com,bulletproofcomix.com,mailed
Bunky Brothers Comics,1437 N Carolan Ave,Burlingame,CA,94010,USA,West,650-888-8472,bunky@bunkybrothers.com,bunkybrothers.com,mailed
C-BAM!,1845 N Garland Ave,Garland,TX,75040,USA,Southwest,,go.cbam@yahoo.com,cbamntx.com,mailed
Cape & Cowl Comics,1601 Clay St,Oakland,CA,94612,USA,West,510-907-0678,comics@capeandcowlcomics.com,capeandcowlcomics.com,mailed
Capital Comics,5212 Hollyridge Dr,Raleigh,NC,27612,USA,Southeast,919-781-9500,capcomraleigh@gmail.com,capitolcomicsnc.com,mailed
Capital Comics,207 Main St,Annapolis,MD,21401,USA,South,410-216-9711,capitalcomicsmd@gmail.com,capitalcomicsmd.com,mailed
Captain Bengals Comic Cove,348 N 3rd Ave,Pocatello,ID,83201,USA,West,,captainbengalcomiccove@gmail.com,,mailed
Captain Blue Hen Comics,280 E. Main St. Suite 101,Newark,DE,19711,USA,Northeast,(302) 737-3434,mail@captainbluehen.com,captainbluehen.com,mailed
Captain Comics,710 S Vista Ave,Boise,ID,83705,USA,West,,captain@captain-comics.com,captain-comics.com,mailed
Captains Comics and Toys,1209 Sam Rittenberg Blvd Ste D,Charleston,SC,29407,USA,Southeast,(843) 766-6611,info@captainscomics.com,captainscomics.com,mailed
Cards and Comics Central,5424 Geary Blvd,San Francisco,CA,94121,USA,West,415-668-3544,cccentral2@gmail.com,cccentralsf.com,mailed
Carol and Johns Comic Book Shop,17462 Lorain Ave,Cleveland,OH,44111,USA,Midwest,216-252-0606,info@cnjcomics.com,cnjcomics.com,mailed
Casablanca Comics,151 Middle Street,Portland,ME,04101,USA,Northeast,(207) 780-1676,comics@casablancacomics.com,http://www.casablancacomics.com/,mailed
Casablanca Comics,778 Roosevelt Trail,Windham,ME,04062,USA,Northeast,(207) 892-0056,comics@casablancacomics.com,casablancacomics.com,mailed
Cashmans Comics,1018 S Madison Ave,Bay City,MI,48708,USA,Midwest,(989) 895-1113,cashmanscomics@aol.com,cashmanscomics.com,mailed
Cave Comics,57 Church Hill Rd,Newtown,CT,06470,USA,Northeast,(203) 426-4346,cave.comics@snet.net,www.cavecomics.com,mailed
Cedar Cliff Collectibles,1960 Cliff Lake Road,Eagan,MN,55122,USA,Midwest,,ebrown3551@aol.com,cedarcliffcollectibles.com,mailed
Challengers Comics,1845 N Western Ave,Chicago,IL,60647,USA,Midwest,773-278-0155,challengers@challengerscomics.com,challengerscomics.com,mailed
Cheryls Comics & Toys,5216 1/2 MacCorkle Ave SE,Charleston,WV,25304,USA,Southeast,(304) 925-7269,cherylscomics@yahoo.com,www.facebook.com/ComicWorld,mailed
Chicago Comics,3244 N Clark Street,Chicago,IL,60657,USA,Midwest,,info@chicagocomics.com,chicagocomics.com,mailed
Chimera Comics & Cards,820A S Main St,Fond Du Lac,WI,54935,USA,Midwest,,chimera@charter.net,chimerahobby.com,mailed
Chimps Comix & Video Games,919 E Winona Ave Ste 4,Warsaw,IN,46580,USA,Midwest,574-268-2274,questions@chimpscomix.com,chimpscomix.com,mailed
Chriss Cards & Comics,341 S Broadway,Salem,NH,03079,USA,Northeast,603-898-4151,chriscomicssalem@comcast.net,chriscardscomics.com,mailed
Chriss Cards & Comics,919 Lafayette Rd,Seabrook,NH,03874,USA,Northeast,603-474-2283,chriscomicssalem@comcast.net,www.chriscardscomics.com,mailed
Chriss Comics,5409 Central Ave Suite 13,Newark,CA,94560,USA,West,510-742-6649,chriscomics@yahoo.com,instagram.com/chriscomics,mailed
Chucks Comics,516 Philadelphia Rd,Joppa,MD,21085,USA,South,410-574-1496,chuck@chuckscomics.com,chuckscomics.com,mailed
Clems Collectibles,212 S Washington Square,Lansing,MI,48933,USA,Midwest,,clemslansing@gmail.com,clemslansing.com,mailed
Cloak & Dagger,729 S Nova Rd,Ormond Beach,FL,32174,USA,Southeast,(386) 672-4980,jake@cloakanddaggercomics.com,cloakanddaggercomics.com,mailed
Clobberin Comics - Shepherdsville,544 Conestoga Pkwy Unit 38,Shepherdsville,KY,40165,USA,South,270-401-2028,clinton@clobberincomics.com,clobberincomics.com,mailed
Clockwork Comics & Cards,1003 Vauxhall Rd,Union,NJ,07083,USA,Northeast,908-688-2660,vze273qn@verizon.net,clockworkcomicsandcards.com,mailed
Clockwork Comics & Games,212 South Main St,Newark,NY,14513,USA,Northeast,(315) 690-1087,clockworkcomicsgames@yahoo.com,https://www.facebook.com/ClockworkComicsGames/,mailed
Cloud City Games,1438 Chestnut St,Emmaus,PA,18049,USA,Northeast,,support@cloudcitygames.com,cloudcitygames.com,mailed
Clydes Comic & Fantasy Shop,1528 Broadway,Rockford,IL,61104,USA,Midwest,(815) 964-0101,newnajar@aol.com,futabakun.blogspot.com,mailed
Coast City Comics & The Fun Box Monster Emporium,634 Congress St,Portland,ME,04103,USA,Northeast,207-899-1505,coastcitycomicsorders@gmail.com,coastcitycomics.com,mailed
Codex Comics and Collectibles,125 W High St,Ebensburg,PA,15931,USA,Northeast,,codexcomics@yahoo.com,codexcomicshop.com,mailed
Coffee and A Comic,17610 Beach Blvd Ste 35,Huntington Beach,CA,92647,USA,West,657-204-9164,frankcastle@coffeeandacomic.com,coffeeandacomic.com,mailed
Coliseum of Comics,121 S Kentucky Ave,Lakeland,FL,33801,USA,Southeast,(863) 686-1350,lakeland@coliseumofcomics.com,coliseumofcomics.com,mailed
Coliseum of Comics,4303 E Colonial Dr,Orlando,FL,32803,USA,Southeast,(407) 228-1210,fashionsquare@coliseumofcomics.com,coliseumofcomics.com,mailed
Coliseum of Comics Kissimmee,2511 Old Vineland Rd,Kissimmee,FL,34746,USA,Southeast,(407) 870-5322,kissimmee@coliseumofcomics.com,coliseumofcomics.com,mailed
Coliseum of Comics Lakeland,1517 Bartow Rd,Lakeland,FL,33801,USA,Southeast,(863) 686-1350,lakeland@coliseumofcomics.com,coliseumofcomics.com,mailed
Coliseum of Comics Orlando,4672 Millenia Plaza Way,Orlando,FL,32839,USA,Southeast,(407) 363-7676,millenia@coliseumofcomics.com,coliseumofcomics.com,mailed
Collector Cave,3021-23 Middletown Rd,Bronx,NY,10461,USA,Northeast,718-892-0402,collectorcaveny@gmail.com,,mailed
Collector's Alley,1229 Hampshire Pike,Columbia,TN,38401,USA,Southeast,(931) 922-4137,collectorsalleyllc@hotmail.com,facebook.com/collectorsalley,mailed
Collectors Authority,1534 SE Military Dr #106,San Antonio,TX,78214,USA,Southwest,,punisher@collectorsauthority.com,collectorsauthority.com,mailed
Collectors Choice,1500 S Mooney Blvd,Visalia,CA,93277,USA,West,559-733-8122,admin@cctoyscomics.com,cctoyscomics.com,mailed
Collectors Corner,700 E Glenn Ave Ste C,Auburn,AL,36830,USA,Southeast,(334) 821-1772,collectorscorner36830@gmail.com,,mailed
Collectors Edge Comics East,2004 N Farwell Ave,Milwaukee,WI,53202,USA,Midwest,,shop@CollectorsEdgeComics.com,collectorsedgecomics.com,mailed
Collectors Edge Comics South,2330 S Kinnickinnic Ave,Milwaukee,WI,53207,USA,Midwest,,shop@CollectorsEdgeComics.com,collectorsedgecomics.com,mailed
Collectors Paradise,7131 Winnetka Ave,Winnetka,CA,91306,USA,West,818-718-0020,store@comicsandcards.net,comicsandcards.net,mailed
Collectors Paradise,319 S Arroyo Pkwy #4,Pasadena,CA,91105,USA,West,626-577-6694,store2@comicsandcards.net,comicsandcards.net,mailed
Collectors Paradise,5118 Lankershim Blvd,North Hollywood,CA,91601,USA,West,818-980-2665,store@comicsandcards.net,comicsandcards.net,mailed
Columbus Comics,6440 W Hamilton Park Dr Ste B,Columbus,GA,31909,USA,Southeast,(706) 324-2559,comics@columbuscomicsga.net,columbuscomicsga.net,mailed
Comic & Figure Addicts,30542 Union City Blvd Unit B,Union City,CA,94587,USA,West,510-324-5555,cfaddicts@gmail.com,,mailed
Comic Asylum Palm Desert California,44829 San Pablo Ave,Palm Desert,CA,92260,USA,West,760-636-6711,comicasylum760@gmail.com,comicasylumpalmdesert.com,mailed
Comic Book Clubhouse,31 W Alexander Ave,Merced,CA,95348,USA,West,209-349-8012,josh@cbclubhouse.com,cbclubhouse.com,mailed
Comic Book Relief,2300 N 3rd St,St Charles,MO,63301,USA,Midwest,,Shipping@comicbookrelief.com,comicbookrelief.com,mailed
Comic Book Station,188 Eckford St,Brooklyn,NY,11222,USA,Northeast,718-389-2369,thecomicbookstation@gmail.com,comicbookstation.com,mailed
Comic Book World,7130 Turfway Road,Florence,KY,41042,USA,Southeast,,comicbw@one.net,comicbookworld.com,mailed
Comic Book World,6905 Shepherdsville Road,Louisville,KY,40219,USA,Southeast,5029645500,louisville@comicbookworld.com,comicbookworld.com,mailed
Comic Boom,22 West St,Keene,NH,03431,USA,Northeast,603-352-4261,comicboom@gmail.com,comicboomnh.wordpress.com,mailed
Comic Carnival,7235 N Keystone Ave Ste E,Indianapolis,IN,46240,USA,Midwest,3172538882,ComicCarnival@yahoo.com,comiccarnival.com,mailed
Comic Cellar,3620-2 Austin Peay Hwy,Memphis,TN,38128,USA,Southeast,(901) 382-8623,comiccellar@bellsouth.net,http://www.comiccellaronline.com,mailed
Comic Central,1425 WP Ball Blvd,Sanford,FL,32771,USA,Southeast,(407) 321-5111,info@comic-central.com,comic-central.com,mailed
Comic City,1720 N 16th Street,Council Bluffs,IA,51501,USA,Midwest,,jill@comiccity.com,comiccity.com,mailed
Comic City - Bloomfield,2125 S Telegraph Rd Ste D,Bloomfield Township,MI,48302,USA,Midwest,248-334-4139,bloomfield@comiccity.com,https://comiccity.com/,mailed
Comic City - Canton,42419 Ford Rd,Canton,MI,48187,USA,Midwest,734-981-3561,canton@comiccity.com,https://comiccity.com/,mailed
Comic City - West Bloomfield,7366 Haggerty Rd,West Bloomfield Township,MI,48322,USA,Midwest,248-592-3049,bloomfield@comiccity.com,comiccity.com,mailed
Comic Collection & Records Too,83 Bustleton Pike,Feasterville-Trevose,PA,19053,USA,Northeast,(215) 357-3332,comicdeity@aol.com,http://www.TheComicCollection.net,mailed
Comic Crypt/Amazing Stories,55 White Rd,Shrewsbury,NJ,07702,USA,Northeast,(732) 747-8686,amazingstoriesnj@aol.com,https://www.facebook.com/thecomiccrypt/#,mailed
Comic Cult HD,9594 I Ave #F,Hesperia,CA,92345,USA,West,,comicculthd@gmail.com,comiccult.com,mailed
Comic Den,8062 Lefferts Blvd,Jamaica,NY,11415,USA,Northeast,(718) 805-3789,joejam@thecomicdenllc.com,comicden.com,mailed
Comic Exchange,3611 Chapman Hwy,Knoxville,TN,37920,USA,Southeast,(865) 573-2280,cex@comicexchange.com,comicexchange.com,mailed
Comic Fortress,59 W Main St,Somerville,NJ,08876,USA,Northeast,(908) 704-8910,info@comicfortress.com,https://www.comicfortress.com,mailed
Comic Fusion,16 Turntable Jct,Flemington,NJ,08822,USA,Northeast,908-788-0599,customerservice@comicfusion.com,comicfusion.com,mailed
Comic Grapevine,9 W Pine St,Lodi,CA,95240,USA,West,,comicgrapevine@gmail.com,comicgrapevinelodi.com,mailed
Comic Headquarters,4352 Telegraph Rd,St Louis,MO,63129,USA,Midwest,314-433-5449,comichqstl@gmail.com,comichqstl.com,mailed
Comic Heaven,4847 Robinhood Dr,Willoughby,OH,44094,USA,Midwest,440-942-6960,comicheaven.oh@gmail.com,comicheaven.com,mailed
Comic Hero University,1001 S Lemon St Ste B,Fullerton,CA,92832,USA,West,,comicherou@gmail.com,comicherou.com,mailed
Comic Hound,6743 Ringgold Rd Ste B,Chattanooga,TN,37412,USA,Southeast,(423) 892-8881,thecomichound@yahoo.com,,mailed
Comic Junction,2502 S University Dr Suite E,Fargo,ND,58103,USA,Midwest,,kip@comic-junction.com,comic-junction.com,mailed
Comic Kings,4404 Holland Rd,Virginia Beach,VA,23452,USA,Southeast,757-467-2254,comikings@aol.com,comickings.com,mailed
Comic Madness,12345 Mountain Ave,Chino,CA,91710,USA,West,909-590-5949,comicmadness@verizon.net,comicmadness91710.wordpress.com,mailed
Comic Paradise Plus,401 Walnut Ave,Fairmont,WV,26554,USA,Southeast,304-366-2228,comics@comicparadiseplus.com,http://www.comicparadiseplus.com/,mailed
Comic Quest,8401 N Kentucky Ave Ste C,Evansville,IN,47725,USA,Midwest,812-474-1133,sales@comicquest.com,comicquest.com,mailed
Comic Relief,1330 Aquarena Springs Dr #101,San Marcos,TX,78666,USA,Southwest,,comicrelief@grandecom.net,comicrelief.com,mailed
Comic Relief,G4050 Fenton Rd,Flint,MI,48507,USA,Midwest,810-238-7221,dean@comicrelief2.com,http://www.comicreliefonline.com/,mailed
Comic Service,1000 E Stanford Avenue,Springfield,IL,62703,USA,Midwest,,honestabescomics@yahoo.com,,mailed
Comic Shop,14837 Washington Ave,San Leandro,CA,94579,USA,West,510-562-0205,thecomicshop@aol.com,the-comic-shop.com,mailed
Comic Store West,2111 Industrial Hwy,York,PA,17402,USA,Northeast,717-845-9198,bwaltersdorff@yahoo.com,comicstorewest.com,mailed
Comic Universe,446 MacDade Boulevard,Folsom,PA,19033,USA,Northeast,610-461-7960,comicuniversemg@gmail.com,comicuniversedelco.com,mailed
Comic World and Things,3220 Dodge Street,Dubuque,IA,52003,USA,Midwest,(563) 845-0170,ComicWorldGames@gmail.com,comicworldandgames.com,mailed
Comically Speaking,575 Main St,Reading,MA,01867,USA,Northeast,781-944-9636,patrick@comicallyspeaking.com,www.comicallyspeaking.com,mailed
Comicazi,407 Highland Ave Davis Square,Somerville,MA,02144,USA,Northeast,(617) 666-2664,bob@comicazi.com,http://www.comicazi.com,mailed
Comickaze Comics & Pop Culture Store,5517 Clairemont Mesa Blvd Ste A,San Diego,CA,92117,USA,West,858-278-0371,updates@comickaze.com,comickaze.com,mailed
Comicmania,4381 Kirkwood Hwy,Wilmington,DE,19808,USA,South,302-995-1971,mycomicmania@me.com,mycomicmania.com,mailed
ComicMasters Inc.,1978 Whitehall Mall,Whitehall Township,PA,18052,USA,Northeast,610-266-7670,comicmastersonline@msn.com,comicmastersonline.com,mailed
Comicopia,464 Commonwealth Ave #13,Boston,MA,02215,USA,Northeast,(617) 266-4266,info@comicopia.com,http://www.comicopia.com,mailed
Comicopolis,829 Front St,Santa Cruz,CA,95060,USA,West,831-427-1929,webmaster@comicopolisonline.com,theoriginalcomicopolis.com,mailed
Comics & Collectibles,1904 Fruitridge Rd,Sacramento,CA,95822,USA,West,,gene@comicsandcollectible.com,comicsandcollectible.com,mailed
Comics & Collectibles,4730 Poplar Ave #2,Memphis,TN,38117,USA,Southeast,(901) 683-7171,comiccollect@comcast.net,http://memphiscomics.com,mailed
Comics & Gaming,7556 Gardner Park Dr,Gainesville,VA,20155,USA,Southeast,,cgoinc@hotmail.com,comics-gaming.com,mailed
Comics 2 Games,8470 US HWY 42 Suite D,Florence,KY,41042,USA,Southeast,,info@comics2games.com,comics2games.com,mailed
Comics and Friends,7850 Mentor Ave Suite 1054,Mentor,OH,44060,USA,Midwest,440-255-4242,comics.and.friends.store@gmail.com,comicsandfriends.com,mailed
Comics and Paperbacks Plus,201 E. Main St.,Palmyra,PA,17078,USA,Northeast,(717) 838-4854,ralph@comicsandpaperbacksplus.com,comicsandpaperbacksplus.com,mailed
Comics Cards & Collectibles,724 Cleveland Ave SW,Canton,OH,44702,USA,Midwest,(330) 456-8907,comics5@yahoo.com,comicscardscollectables.com,mailed
Comics Conspiracy,913 W El Camino Real,Sunnyvale,CA,94087,USA,West,,ComicsConspiracy@comicsconspiracy.biz,,mailed
Comics Elite,5575 Elmwood Ave E2,Indianapolis,IN,46203,USA,Midwest,317-755-2533,comicseliteservice@gmail.com,comicselitecomics.com,mailed
Comics Etc,1115 East Main St Door 8 Hungerford Bldg,Rochester,NY,14609,USA,Northeast,(585) 473-7150,comicsetc1@gmail.com,http://comicsetc.biz,mailed
Comics Keep,5060 WA-303 Ste 120,Bremerton,WA,98311,USA,West,360-479-6421,contact@thecomicskeep.com,thecomicskeep.com,mailed
Comics N'More,64 Cottage St,Easthampton,MA,01027,USA,Northeast,413-529-0800,comicsnmoreeast@gmail.com,comics-n-more.com,mailed
Comics on the Green,307 N Washington Ave,Scranton,PA,18503,USA,Northeast,(570) 342-5960,cotgreen@aol.com,http://www.comicsonthegreen.com,mailed
Comics To Astonish,9400 Snowden River Pkwy #112,Columbia,MD,21045,USA,Southeast,(410) 381-2732,comics2u@aol.com,comicstoastonish.com,mailed
Comics Warehouse,426 Nanuet Mall S,Nanuet,NY,10954,USA,Northeast,(845) 623-6600,orders@comicswarehouse.com,comicswarehouse.com,mailed
Comics Warehouse,52 S Main St,Pearl River,NY,10965,USA,Northeast,845-732-8401,orders@comicswarehouse.com,comicswarehouse.com,mailed
Comics-N-Stuff,1020 El Cajon Blvd,El Cajon,CA,92020,USA,West,619-441-8833,comicsnstuffec@gmail.com,comics-n-stuff.com,mailed
Comicwise,1405 Sutter Ln,Bakersfield,CA,93309,USA,West,661-834-9183,shudlow@sbcglobal.net,comic-wise.com,mailed
Comiks The Gathering,7304 Lakewood Dr W Suite #9,Lakewood,WA,98499,USA,West,253-240-1943,comiksthegathering@gmail.com,facebook.com/comiksthegathering,mailed
Comix Connection,2150 White Street Suite 3,York,PA,17404,USA,Northeast,(717) 767-4871,yorkstaff@comixconnection.com,comixconnection.tumblr.com,mailed
Comix Experience,305 Divisadero St,San Francisco,CA,94117,USA,West,415-863-9258,divisadero@comixexperience.com,comixexperience.com,mailed
Comix Universe,130 Eisenhower Dr. #3,Hanover,PA,17331,USA,Northeast,(717) 637-1637,comixuniverse@yahoo.com,comixuniverse.weebly.com,mailed
Comix Zone,628 S Main St,North Syracuse,NY,13212,USA,Northeast,315-452-1037,orders@comixzone.com,comixzone.com,mailed
Command D,172 Merrimack Ave,Dracut,MA,01826,USA,Northeast,978-934-9383,commandd@commandd.com,www.commandd.com,mailed
Conquest Comics,657 US-9,Bayville,NJ,08721,USA,Northeast,732-551-2164,conquestcomics@yahoo.com,conquestcomics.com,mailed
Continental Comics,17032 Devonshire St,Northridge,CA,91325,USA,West,818-368-8909,continental.comics@outlook.com,continentalcomics.com,mailed
Cool Comics and Games,311 Del Prado Blvd S #10,Cape Coral,FL,33990,USA,Southeast,(239) 573-7468,coolcomicsandgames@gmail.com,coolcomicsandgames.com,mailed
Cool Kids Comics & Toys,2055 Hempstead Tpke,East Meadow,NY,11554,USA,Northeast,516-279-4280,coolkidscomics@gmail.com,coolkidscomics.com,mailed
Coopers Cave Games And Paintball,1607 Rt. 9,South Glens Falls,NY,12803,USA,Northeast,(518) 745-4263,Cooperscavegames@gmail.com,cooperscavegames.com,mailed
Copacetic Comics Company,3138 Dobson St Fl 3,Pittsburgh,PA,15219,USA,Northeast,(412) 251-5451,info@copacetic.biz,copaceticcomics.com,mailed
Corn Coast,23 E Market St,Huntington,IN,46750,USA,Midwest,260-200-1365,corncoastcomics@gmail.com,thecorncoast.com,mailed
Cosmic Capes Comics,9 Hampstead Pl Suite 101,Saratoga Springs,NY,12866,USA,Northeast,,mike@cosmiccapescomics.com,cosmiccapescomics.com,mailed
Cosmic Comics,3830 E Flamingo Rd,Las Vegas,NV,89121,USA,West,,info@cosmiccomicslv.com,,mailed
Cosmic Comix & Toys,529 S Camp Meade Rd,Linthicum Heights,MD,21090,USA,Southeast,(410) 859-1340,ccx@cosmiccomix.com,cosmiccomix.com,mailed
Cosmic Monkey Comics,5335 NE Sandy Blvd,Portland,OR,97213,USA,West,,cosmicmonkeymail@gmail.com,cosmicmonkeycomics.com,mailed
Counterplay Comics Collectibles & Cosplay,279 Cambridge St Unit 9,Burlington,MA,01803,USA,Northeast,781-933-1060,eric@counterplaycomics.com,counterplaycomics.com,mailed
Coys Comics,3220 Bay Rd,Saginaw,MI,48603,USA,Midwest,(989) 401-0007,admin@coyscomics.com,coyscomics.com,mailed
Crash Comics,1201 Kentucky Ave,Paducah,KY,42003,USA,Southeast,270-442-7348,bthirston@crashcomics.com,crashcomics.com,mailed
Crescent City Comics,3135 Calhoun St,New Orleans,LA,70125,USA,South,504-309-2223,crescentcitycomics@gmail.com,crescentcitycomics.com,mailed
Crescent Comics & Games,16 W Chicago St,Coldwater,MI,49036,USA,Midwest,517-781-4426,crescentcomicsgames@gmail.com,,mailed
Crestline Comics,580 Forest Shade Rd Unit 10,Crestline,CA,92325,USA,West,714-559-0213,hello@crestlinecomics.com,stores.comichub.com/crestlinecomics,mailed
Criminal Records,1154 Euclid Ave NE A,Atlanta,GA,30307,USA,Southeast,(404) 215-9511,team@criminalatl.com,criminalatl.com,mailed
Crossroad Comics,23 S Broadway,Pitman,NJ,08071,USA,Northeast,,info@crossroadcomics.com,crossroadcomics.com,mailed
Crush Comics & Cards,2869 Castro Valley Blvd,Castro Valley,CA,94546,USA,West,(510) 581-4779,crush@crushcomics.com,crushcomics.com,mailed
Cruzin Thru Comics,17804 Sierra Hwy,Santa Clarita,CA,91387,USA,West,661-210-7746,CruzinThruComics@yahoo.com,cruzinthrucomics.com,mailed
Current Comics,400 Lighthouse Ave,Monterey,CA,93940,USA,West,831-333-1085,currentcomics831@gmail.com,currentcomics.net,mailed
Current Comics,1287 N Main St Ste D,Salinas,CA,93906,USA,West,831-443-3900,currentcomics831@gmail.com,currentcomics.net,mailed
Cyborg One,44 E State St Rear,Doylestown,PA,18901,USA,Northeast,(215) 348-1451,comments@cyborg1.com,https://cyborgone.com,mailed
Danger Room Comics,201 W 4th Ave,Olympia,WA,98501,USA,West,,DangerRoomOly@gmail.com,dangerroomoly.com,mailed
Danger Room Games & Comics,833 E 53rd St,Anderson,IN,46013,USA,Midwest,7656466341,sales@danger-room.com,danger-room.com,mailed
Dark Star Books & Comics,237 Xenia Ave,Yellow Springs,OH,45387,USA,Midwest,(937) 767-9400,darkstarbooks@sbcglobal.net,darkstarbookstore.com,mailed
Daves Comics,107 Rainbow Way,Fayetteville,GA,30214,USA,Southeast,(770) 716-9171,davescomics@yahoo.com,Davescomicshop.com,mailed
Daydreams Comics,21 S Dubuque Street,Iowa City,IA,52240,USA,Midwest,,daydreamscomics@yahoo.com,daydreamscomics.com,mailed
Demolition Comics,4049 S Dale Mabry,Tampa,FL,33611,USA,Southeast,(813) 832-2692,orders@demolitioncomics.com,demolitioncomics.com,mailed
Desert Island,540 Metropolitan Ave,Brooklyn,NY,11211,USA,Northeast,718-388-5087,desertislandbrooklyn@gmail.com,desertislandbrooklyn.com,mailed
Desert Oasis Comics,73241 Hwy 111 #4B,Palm Desert,CA,92260,USA,West,,sidjohnson@desertoasiscomics.com,desertoasiscomics.com,mailed
Dewey's Comic City,6 Green Village Rd,Madison,NJ,07940,USA,Northeast,(973) 593-0042,DeweysCC@gmail.com,deweyscomiccity.com,mailed
Dicehead Games & Comics,200 Paul Huff Pkwy NW #12,Cleveland,TN,37312,USA,Southeast,(423) 473-7125,sales@dicehead.com,dicehead.com,mailed
Distant Planet Comics,711 N College Ave Suite 105,Columbia,MO,65201,USA,Midwest,(573) 228-6537,distantplanetcomics@gmail.com,distantplanetcomics.com,mailed
DJ Comic Kingdom & Collectibles,1300 E Plum Ln,Reno,NV,89502,USA,West,,djcomickingdom@sbcglobal.net,facebook.com/pages/dj-comic-kingdom/108763685856192,mailed
DJs Collectible Shoppe,214 N Irwin St,Hanford,CA,93230,USA,West,(559) 589-9114,djscol@pacbell.net,facebook.com/pages/djs-collectible-shoppe/220584934633186,mailed
DJs Comics & Cards,116 N Plains Industrial Rd,Wallingford,CT,06492,USA,Northeast,203-294-1576,djscomics@snet.net,djscardsandcomics.com,mailed
DJs Universal Comics,11390 Ventura Blvd,Studio City,CA,91604,USA,West,818-761-3753,catscomics1@sbcglobal.net,djsuniversalcomics.com,mailed
DKs Sierra Mountain Comics,1801 Hwy 50 E #J,Carson City,NV,89701,USA,West,,dkscomics@hotmail.com,,mailed
Double Midnight Comics,245 Maple St,Manchester,NH,03103,USA,Northeast,,brett.parker@dmcomics.com,www.dmcomics.com,mailed
Double Midnight Comics (Concord),341 Loudon Rd,Concord,NH,03301,USA,Northeast,603-715-2683,scott@dmcomics.com,dmcomics.com,mailed
Double Midnight Comics (Manchester),252 Willow St Unit 149,Manchester,NH,03103,USA,Northeast,603-669-9636,info@dmcomics.com,dmcomics.com,mailed
Double Play,633 S Front St,Mankato,MN,56001,USA,Midwest,(507) 345-7208,honcho@pulpcg.com,pulpcg.com,mailed
Downtown Books Bought & Sold,624 N Broadway,Milwaukee,WI,53202,USA,Midwest,,downtownbooks-milw@sbcglobal.net,downtownbooksonline.com,mailed
Downtown Comics,11 E Market St,Indianapolis,IN,46204,USA,Midwest,3172370397,circle@downtowncomics.com,downtowncomics.com,mailed
Dr. Cains Comics,778 Marsh St STE 110,San Luis Obispo,CA,93401,USA,West,805-752-1085,drcainscomics@gmail.com,drcainscomics.com,mailed
Dr. Comics & Mr. Games,4014 Piedmont Ave,Oakland,CA,94611,USA,West,510-601-7800,drcomics@earthlink.net,drcomicsmrgames.tumblr.com,mailed
Dr. Nos Comics & Games,3372 Canton Rd #104,Marietta,GA,30066,USA,Southeast,(770) 422-4642,manager@drnos.com,drnos.com,mailed
Dragons Den,7218 W 41st St,Sioux Falls,SD,57106,USA,Midwest,,denmtg@gmail.com,ddengaming.com,mailed
Dragons Lair Comic Book Store,6243 Yadkin Rd Suite #104,Fayetteville,NC,28303,USA,Southeast,,dragonslairnc@gmail.com,dragonslairnc.com,mailed
Dragons Lair Comics,8316 Blondo St,Omaha,NE,68134,USA,Midwest,,lair@dragons-lair.com,dragons-lair.com,mailed
Dragons Lair Comics & Fantasy,7959 Fredericksburg Rd Suite 129,San Antonio,TX,78229,USA,Southwest,,sa@dlair.net,dlair.net,mailed
Drawn To Comics,5801 W Glendale Ave,Glendale,AZ,85301,USA,Southwest,623-847-9090,drawntocomics@yahoo.com,drawntocomics.com,mailed
Dreamhaven Books & Comics,2301 E 38th St,Minneapolis,MN,55406,USA,Midwest,,dream@dreamhavenbooks.com,dreamhavenbooks.com,mailed
Dreamland Comics,105 W Rockland Road,Libertyville,IL,60048,USA,Midwest,,info@dreamland-comics.com,dreamland-comics.com,mailed
Dreamworld Comics,12402 Washington Pl,Los Angeles,CA,90066,USA,West,310-390-7860,dreamworldcomics@premiereprops.com,dreamworldcomicbooks.com,mailed
Duncan Comics Books & Access,398 Perry Hwy,Pittsburgh,PA,15229,USA,Northeast,(412) 635-0886,duncanbooks@aol.com,duncancomics.com,mailed
Earth 383 Comics and Games,918 Halstead Blvd Suite A,Elizabeth City,NC,27909,USA,Southeast,252-331-7686,earth383comicsandgames@hotmail.com,earth383.com,mailed
Earthworld,537 Central Ave,Albany,NY,12206,USA,Northeast,(518) 459-2400,earthworldcomics@gmail.com,www.earthworldcomics.com,mailed
East Side Mags,491 Bloomfield Ave Suite 102,Montclair,NJ,07042,USA,Northeast,862-333-4961,jeff@eastsidemags.com,eastsidemags.com,mailed
Eclipse Books & Comics,814 N Pine St,Rolla,MO,65401,USA,Midwest,573-364-4301,comic@fidnet.com,eclipsebookscomics.com,mailed
Eides Entertainment,1121 Penn Ave,Pittsburgh,PA,15222,USA,Northeast,(412) 261-0900,eides@eides.com,eides.com,mailed
Electric City Comics,1704 Van Vranken Ave,Schenectady,NY,12308,USA,Northeast,(518) 377-1500,info@electriccitycomics.com,www.electriccitycomics.com,mailed
Elite Comics,11842 Quivira Road,Overland Park,KS,66210,USA,Midwest,,william@elite-comics.com,elite-comics.com,mailed
Emerald City Comics,4902 113th Ave N,Clearwater,FL,33760,USA,Southeast,(727) 398-2665,email@emeraldcitycomics.com,emeraldcitycomics.com,mailed
Emerald Knights Comics & Games,4116 W Burbank Blvd,Burbank,CA,91505,USA,West,818-588-3631,store@ekcomicsandgames.com,emeraldknights.com,mailed
Empires Comics Vault,1120 Fulton Ave,Sacramento,CA,95825,USA,West,916-482-8779,empirescv@hotmail.com,empirescomics.com,mailed
Enterprize Comics Etc.,109 Key Rd,Keene,NH,03431,USA,Northeast,603-352-2624,info@ecomicsetc.com,ecomicsetc.com,mailed
Epic Comics,570 N Alafaya Trail Suite 106,Orlando,FL,32828,USA,Southeast,(407) 730-3742,epic.comics.orlando0@gmail.com,epiccomicsonline.com,mailed
Epic Robo-Spider,317 Main St,Highland Falls,NY,10928,USA,Northeast,845-202-2331,contact@westpointtoys.com,epicrobospider.com,mailed
Epikos Comics Cards & Games,5864 Brainerd Rd,Chattanooga,TN,37411,USA,Southeast,(423) 531-4184,info@epikosccg.com,epikosccg.com,mailed
Epikos Comics Cards & Games - Northgate,271 Northgate Mall Dr,Hixson,TN,37343,USA,South,423-531-4184,hixson@epikosccg.com,epikosccg.com,mailed
Escape Pod Comics,302 Main St,Huntington,NY,11743,USA,Northeast,631-923-1044,EscapePodComics@gmail.com,escapepodcomics.com,mailed
Escape Reality Comics,464 Forks Of The River Pkwy,Sevierville,TN,37862,USA,Southeast,(865) 908-8346,ercomicsandgames@gmail.com,sgcomics.com,mailed
Escape Velocity Comics,3347 Cinema Point,Colorado Springs,CO,80922,USA,West,,comics@escapevelocitycomics.com,escapevelocitycomics.com,mailed
Etown Comics Cards and Collectibles,1704 N Dixie Hwy Suite A007,Elizabethtown,KY,42701,USA,South,270-307-0199,max@etowncomics.com,etowncomics.com,mailed
Everyone Comics & Collectibles,41-26 27th St,Long Island City,NY,11101,USA,Northeast,845-584-3548,info@everyonecomics.com,everyonecomics.com,mailed
Excalibur Books & Comics,2444 SE Hawthorne Blvd,Portland,OR,97214,USA,West,,excaliburcomicspdx@gmail.com,excaliburcomicspdx.com,mailed
Excalibur Comics Cards & Games,937 E 70th St,Shreveport,LA,71106,USA,Southeast,3188684389,excaliburccg@gmail.com,excaliburcomicscardsandgames.com,mailed
Excellent Adventures Comics,110 Milton Ave.,Ballston Spa,NY,12020,USA,Northeast,(518) 884-9498,jbelskis37@aol.com,excellentadventurescomics.com,mailed
Famous Faces & Funnies,3540 W New Haven Ave,Melbourne,FL,32904,USA,Southeast,(321) 259-3575,fffcomics@gmail.com,famousfacesandfunnies.com,mailed
Fanfare Sports & Entertainment,4308 S Westnedge Ave,Kalamazoo,MI,49008,USA,Midwest,,artwork@fanfareland.com,fanfareland.com,mailed
Fantasy Books & Games,1977 W US Hwy 50,Fairview Heights,IL,62208,USA,Midwest,618-624-0920,info@fantasybooksinc.com,fantasybooksinc.com,mailed
Fantasy Comics,2595 N 1st Ave,Tucson,AZ,85719,USA,Southwest,,fantasycomics2595@yahoo.com,fantasycomics2595.com,mailed
Fantasy Shop Comics & Games,10560 Baptist Church Rd,St. Louis,MO,63128,USA,Midwest,314-842-8228,fantasyshopinc@gmail.com,fantasyshoponline.com,mailed
Fantasy Shop Maplewood,7329 Manchester Rd,Saint Louis,MO,63143,USA,Midwest,314-644-3070,fantasyshopinc@gmail.com,fantasyshoponline.com,mailed
Fantasy Zone,7610 Post Rd,North Kingstown,RI,02852,USA,Northeast,401-294-6044,fzcomics@verizon.net,fzcomicsandbooks.com,mailed
Fantom Comics,2010 P St NW 2nd Floor,Washington,DC,20036,USA,Southeast,(202) 241-6498,fantomhq@fantomcomics.com,fantomcomics.com,mailed
Far Out Records and Retro,246 Union Sq NW Ste D,Hickory,NC,28601,USA,Southeast,(828) 261-6262,brentagoodson@me.com,faroutrecordsandretro.com,mailed
Fat Cat Comics,278 Main St,Johnson City,NY,13790,USA,Northeast,607-797-9111,fatcatcomics@yahoo.com,myfatcatcomics.com,mailed
Fat Moose Comics and Games,53A Parsippany Rd,Whippany,NJ,07981,USA,Northeast,(973) 884-4898,fatmoose97@aol.com,fatmoosecomics.com,mailed
Fearless Reader Comics,1613 Huffman Ave,Dayton,OH,45403,USA,Midwest,937-252-3036,fearlessreaders@gmail.com,,mailed
Fight or Flight Comics,5959 Triangle Town Blvd Ste 1097B,Raleigh,NC,27616,USA,South,984-356-5225,subscriptions@fightorflightcomics.com,stores.comichub.com/fightorflightcomics,mailed
Final Boss Comics & Games,10 Gordon Ave,Lawrenceville,NJ,08648,USA,Northeast,609-447-1093,FinalBossComics@gmail.com,finalbosscomics.com,mailed
Flying Colors Comics,1170 Concord Ave #140,Concord,CA,94520,USA,West,925-825-5410,coolstuff@flyingcolorscomics.com,flyingcolorscomics.com,mailed
Forbidden Planet,832 Broadway,New York,NY,10003,USA,Northeast,212-473-1576,sales@fpnyc.com,fpnyc.com,mailed
Fortress of Solitude,53 University Ave #101,Newark,NJ,07102,USA,Northeast,973-242-3725,fortressprime@gmail.com,fortressofsolitudenewark.com,mailed
Frankenstein Comics,845 Mantua Pike,Woodbury,NJ,08096,USA,Northeast,856-848-6347,frankenbill@snip.net,frankensteincomics.com,mailed
Fun -N- Games,801 University City Blvd Suite 1,Blacksburg,VA,24060,USA,Southeast,540-552-2204,efengie@comcast.net,fngblacksburg.com,mailed
Fun 4 All Comics & Games,3773 Carpenter Rd,Ypsilanti,MI,48197,USA,Midwest,(734) 477-9994,packratcomics@sbcglobal.net,www.f4ahobbies.com,mailed
Funky Town Comics & Vinyl,4300 W Genesee St,Syracuse,NY,13219,USA,Northeast,315-565-4110,tony@funkytowncomicsvinyl.com,funkytowncomicsvinyl.com,mailed
FunnyBooks Comics & Stuff,98 N Beverwyck Rd,Lake Hiawatha,NJ,07034,USA,Northeast,(973) 263-1733,funnysteve@optonline.net,funnyrama.com,mailed
Future Dreams Books & Comics,1847 E Burnside St Ste 116,Portland,OR,97214,USA,West,,fdb@hevanet.com,futuredreamsbooks.com,mailed
Gabes Cave Comics Cards & Collectibles,2101 N College Ave,El Dorado,AR,71730,USA,South,870-639-1139,gabescave870@gmail.com,gabescave.com,mailed
Gabis Olympic Cards and Comics,4230 Pacific Ave SE,Lacey,WA,98503,USA,West,,olympiccardsandcomics@gmail.com,olympiccardsandcomics.com,mailed
Galactic Comics and Collectibles,547 Hammond St,Bangor,ME,04401,USA,Northeast,207-659-1161,galacticcomicsbgr@gmail.com,galacticcomicsandcollectibles.com,mailed
Galactic Gregs,1407 E Lincolnway,Valparaiso,IN,46383,USA,Midwest,,galacticgregs@yahoo.com,galacticgregs.com,mailed
Galactic Quest,116 E Crogan St,Lawrenceville,GA,30046,USA,Southeast,(770) 339-3001,kyle@galacticquest.com,galacticquest.com,mailed
Galactic Quest,4264 Sudderth Rd Suite C,Buford,GA,30518,USA,Southeast,(770) 339-3001,kyle@galacticquest.com,galacticquest.com,mailed
Galaxy Comic Zone,3804 N Western Ave,Chicago,IL,60618,USA,Midwest,,galaxycomiczone@gmail.com,,mailed
Galaxy Comics,2616 State St,Saginaw,MI,48602,USA,Midwest,,scott@galaxycomicsonline.com,galaxycomicsonline.com,mailed
Galaxy Comics Games & More,925 Clark St,Stevens Point,WI,54481,USA,Midwest,,galaxycomicsstevenspoint@gmail.com,,mailed
Galaxy Comics II Bay Ridge,6823 5th Ave,Brooklyn,NY,11220,USA,Northeast,718-921-1236,galaxycomics58@gmail.com,,mailed
Galaxy Hobby,2626 Post Rd,Plover,WI,54467,USA,Midwest,,galaxyhobby.biz@gmail.com,,mailed
Galaxy of Comics,17306 Saticoy St,Van Nuys,CA,91406,USA,West,818-578-8559,galaxyofcomics@yahoo.com,galaxyofcomics.com,mailed
Game Box Video Games & Comics,"49 Topsham Fair Mall Rd, Suite 21",Topsham,ME,04086,USA,Northeast,(207) 373-1136,info@gameboxvideogames.com,gameboxvideogames.com,mailed
Geeked Out Comics,16 6th St,Dover,NH,03820,USA,Northeast,603-842-4063,Gogeekedout@gmail.com,geekedoutcomics.com,mailed
Gem Comics,125 W 1st St,Elmhurst,IL,60126,USA,Midwest,630-833-8787,ugnoir@gmail.com,gemcomics.net,mailed
Gods & Monsters,5421 International Dr,Orlando,FL,32819,USA,South,407-270-6273,info@godmonsters.com,godmonsters.com,mailed
Golden Age Collectables,1501 Pike Pl Ste 401,Seattle,WA,98101,USA,West,,gacollect@gmail.com,goldenagecollectables.com,mailed
Golden Apple Comics,7018 Melrose Ave,Los Angeles,CA,90038,USA,West,,gappleorders@gmail.com,goldenapplecomics.com,mailed
Golden Eagle Comics,2910 N 5th Street Hwy,Reading,PA,19605,USA,Northeast,(610) 921-3160,geaglecomics@aol.com,goldeneaglecomics.com,mailed
Golden Memories,235 Middle Country Road,Selden,NY,11784,USA,Northeast,(631) 696-6991,gomemsel@optonline.net,goldenmemoriescomics.com,mailed
Goldmine Comics Cards & Collectibles,65 54th St SW,Wyoming,MI,49548,USA,Midwest,,toymaniac@comcast.net,goldminecomics.com,mailed
Gotham Thrift Shop,6101 Myrtle Ave,Ridgewood,NY,11385,USA,Northeast,347-384-2256,gothamthriftny@gmail.com,gothamthriftny.com,mailed
Graham Crackers Comics,120 N Bolingbrook Dr,Bolingbrook,IL,60440,USA,Midwest,,notification@grahamcrackers.com,grahamcrackers.com,mailed
Graham Crackers Comics,25021 Madison Ave #101,Murrieta,CA,92562,USA,West,951-696-0088,murrieta@grahamcrackers.com,grahamcrackers.com,mailed
Graham Crackers Comics Clark,2562 N Clark Street,Chicago,IL,60614,USA,Midwest,,notification@grahamcrackers.com,grahamcrackers.com,mailed
Graham Crackers Comics DeKalb,901C Lucinda Ave,DeKalb,IL,60115,USA,Midwest,,notification@grahamcrackers.com,grahamcrackers.com,mailed
Graham Crackers Comics Downers Grove,1550 Ogden Ave,Downers Grove,IL,60515,USA,Midwest,(630) 852-1810,jimbrozman@grahamcrackers.com,grahamcrackers.com,mailed
Graham Crackers Comics Lakeview,3162 N Broadway,Chicago,IL,60657,USA,Midwest,,notification@grahamcrackers.com,grahamcrackers.com,mailed
Graham Crackers Comics Loop,77 E Madison St,Chicago,IL,60602,USA,Midwest,,anthonyfograse@grahamcrackers.com,grahamcrackers.com,mailed
Graham Crackers Comics Naperville,1271 Rickert Dr Suite 135,Naperville,IL,60540,USA,Midwest,,notification@grahamcrackers.com,grahamcrackers.com,mailed
Graham Crackers Comics of Andersonville,5028 N Clark St,Chicago,IL,60640,USA,Midwest,773-561-5010,notification@grahamcrackers.com,grahamcrackers.com,mailed
Graham Crackers Comics of DeKalb,901 Lucinda Ave Ste C,DeKalb,IL,60115,USA,Midwest,815-748-3883,kevinhealy@grahamcrackers.com,grahamcrackers.com,mailed
Graham Crackers Comics of Wisconsin,2831 E Washington Ave,Madison,WI,53704,USA,Midwest,608-422-4110,shawnspurlock@grahamcrackers.com,grahamcrackers.com,mailed
Graham Crackers Comics St Charles,962 S Randall Rd,St Charles,IL,60174,USA,Midwest,,grahamccomics@aol.com,grahamcrackers.com,mailed
Graham Crackers Comics Wheaton,1207 E Butterfield Rd,Wheaton,IL,60187,USA,Midwest,,rickberg@grahamcrackers.com,grahamcrackers.com,mailed
Granite City Comics,125 5th Ave S,St Cloud,MN,56301,USA,Midwest,,granitecitycomics@yahoo.com,stcloudcomics.com,mailed
Granite City Comics & Games,514 W St Germain St,St Cloud,MN,56301,USA,Midwest,,granitecitycomics@yahoo.com,stcloudcomics.com,mailed
Grasshoppers Comics,76 Hillside Ave,Williston Park,NY,11596,USA,Northeast,(516) 741-5724,info@grasshopperscomics.com,www.grasshopperscomics.com,mailed
Great Escape Comics & Games,1050 East Piedmont Road Ste 106,Marietta,GA,30062,USA,Southeast,(770) 973-2253,info@greatescapecomics.com,greatescapecomics.com,mailed
Green Brain Comics,13936 Michigan Ave,Dearborn,MI,48126,USA,Midwest,313-582-9444,greenbrain@greenbrain.biz,https://www.greenbraincomics.com/,mailed
Green Dragon,7671 Northwoods Blvd Unit 5T,North Charleston,SC,29406,USA,Southeast,(843) 797-2052,a.carter@thegreendragon.net,thegreendragononline.com,mailed
Green Shift Comics,5713 N Nebraska Ave,Tampa,FL,33604,USA,Southeast,(813) 238-4177,greenshifttampa@gmail.com,greenshiftcomics.com,mailed
Ground Zero Comics,5701 S 77th St,Omaha,NE,68127,USA,Midwest,,gzomaha@cox.net,gzomaha.com,mailed
Gulf Coast Cosmos Comicbook Co,2306 Stuart St,Houston,TX,77004,USA,South,346-418-9040,info@gulfcoastcosmos.com,gcccomicshtx.com,mailed
Gutter Pop Comics,1421 Hertel Ave,Buffalo,NY,14216,USA,Northeast,716-436-4806,stephen@gutterpopcomics.com,gutterpopcomics.com,mailed
Hall of Heroes,119 E Grand Avenue,Ponca City,OK,74601,USA,Southwest,,betaraydave@gmail.com,,mailed
Hall of Justice Comics and Collectibles,10336 Dransfeldt Rd #8,Parker,CO,80134,USA,West,,hojcomics@gmail.com,hallofjusticecomics.com,mailed
Harrison's Comics & Collectibles,252 Essex St,Salem,MA,01970,USA,Northeast,(978) 741-0786,harrisonscomics@hotmail.com,http://www.harrisonscomics.net/,mailed
Hastur Games & Comics,6831 S State Street,Midvale,UT,84047,USA,West,,hastur@hasturgames.com,hasturgames.com,mailed
Haven for Heroes inc,34-36 Front St,Port Jervis,NY,12771,USA,Northeast,845-856-1866,havenforheroes@gmail.com,havenforheroesinc.com,mailed
Hawghead Comics,1600 S Greenwood Ave,Fort Smith,AR,72901,USA,Southeast,479-783-6008,hawgheadcomics@yahoo.com,hawgheadcomics.com,mailed
Hazels Heroes,1664 N Main St #12,North Canton,OH,44720,USA,Midwest,(330) 244-9988,hazelsheroes@att.net,hazelsheroescomics.com,mailed
HeeBeeGeeBeez,1986 N Hill Field Rd #2,Layton,UT,84041,USA,West,,heebeegeebeez@gmail.com,heebeegeebeez.com,mailed
HeeBeeGeeBeez,2574 Washington Blvd,Ogden,UT,84401,USA,West,,heebeegeebeez@gmail.com,heebeegeebeez.com,mailed
HeeBeeGeeBeez,541 N Main St,Logan,UT,84321,USA,West,,heebeegeebeez@gmail.com,heebeegeebeez.com,mailed
Hello Comics (Downtown Mall),211A W Main St,Charlottesville,VA,22902,USA,South,434-244-3210,downtown@hellocomics.net,hellocomics.net,mailed
Hello Comics - Uptown,398 Hillsdale Dr,Charlottesville,VA,22901,USA,South,434-974-7512,sayhello@hellocomics.net,hellocomics.net,mailed
HellPop,107 E Charleston Blvd #105,Las Vegas,NV,89104,USA,West,,info@hellpop.net,,mailed
Heroes,24 E Campbell Ave,Campbell,CA,95008,USA,West,408-378-3667,heroescomicbooks@gmail.com,heroescomicbooks.com,mailed
Heroes & Champions,574 E El Camino Real,Sunnyvale,CA,94087,USA,West,408-732-8775,heroesandchampions@gmail.com,heroesandchampionscomics.com,mailed
Heroes & Fantasies,13013 N US-Hwy 281 Ste 120,San Antonio,TX,78216,USA,Southwest,,Adam@heroesandfantasies.com,heroesandfantasies.com,mailed
Heroes & Hitters,1845 Silas Deane Hwy,Rocky Hill,CT,06067,USA,Northeast,(860) 529-8824,heroescomics@snet.net,facebook.com/heroescomics,mailed
Heroes & Villains,4533 E Broadway Blvd,Tucson,AZ,85711,USA,Southwest,,mikecamp.comics@gmail.com,heroesandvillains-tucson.com,mailed
Heroes and Dragons,1807 Bush River Rd,Columbia,SC,29210,USA,Southeast,(803) 731-4376,morningstarbrand@gmail.com,heroesanddragonssc.com,mailed
Heroes and Fantasies,920 Pat Booker Rd,Universal City,TX,78148,USA,Southwest,,adam@heroesandfantasies.com,heroesandfantasies.com,mailed
Heroes Arent Hard To Find,1957 East 7th Street,Charlotte,NC,28204,USA,Southeast,,shelton@heroesonline.com,heroesonline.com,mailed
Heroes Comics & Cards,197 Westport Ave,Norwalk,CT,06851,USA,Northeast,(203) 750-0505,heroescomics95@gmail.com,heroescomicsandcards.com,mailed
Heroes Haven,635 SE Jackson St,Roseburg,OR,97470,USA,West,,grendel@rosenet.net,facebook.com/HeroesHavenComics,mailed
Heroes Your Mom Threw Out,128 W 14th St,Elmira Heights,NY,14903,USA,Northeast,(607) 737-1347,momthrewout@gmail.com,http://momthrewout.com,mailed
Heroic Adventures,1005 Century Dr,Edwardsville,IL,62025,USA,Midwest,,heroic.adventures1@gmail.com,heroic-adventures.com,mailed
Heroines & Heroes,2026 Central St,Evanston,IL,60201,USA,Midwest,(847) 906-3835,drew@hhwilmette.com,hhevanston.com,mailed
His and Hers Comics,40 Bank Row,Greenfield,MA,01301,USA,Northeast,413-325-8133,hisandherscomics@gmail.com,facebook.com/hisandherscomics,mailed
Hobby Crossing,2345 Russellville Rd,Bowling Green,KY,42101,USA,Southeast,(270) 904-6100,bowlinggreen@hobbytown.com,https://www.hobbytown.com/bowling-green-ky/l7,mailed
Hometown Comics & Games,1040 N State St,Greenfield,IN,46140,USA,Midwest,317-467-9050,hometowncomics@yahoo.com,hometowncomicsandgames.com,mailed
Hookers Sports Cards,293 W 7th Ave,Eugene,OR,97401,USA,West,,dennis@hookerssportscards.com,,mailed
Horizon Comics,42156 10th St W # K,Lancaster,CA,93534,USA,West,661-206-7168,hello@horizoncomics.com,horizoncomics.com,mailed
Hot Comics & Collectibles,6609 Nicollet Ave S,Richfield,MN,55423,USA,Midwest,,optimusbjorn@hotmail.com,hotcomicsandcollectibles.com,mailed
Hot Comics & Collectibles,3532 Winnetka Ave N,New Hope,MN,55427,USA,Midwest,,optimusbjorn@hotmail.com,hotcomicsandcollectibles.com,mailed
House of Heroes Comics,407 N Main St,Oshkosh,WI,54901,USA,Midwest,,customerservice@houseofheroescomics.com,houseofheroescomics.com,mailed
House of Secrets,1930 W Olive Ave,Burbank,CA,91506,USA,West,818-562-1900,houseofsecrets@earthlink.net,artoffiction.com/houseofsecrets,mailed
Hub Comics,19 Bow Street,Somerville,MA,02143,USA,Northeast,(617) 718-0987,hubcomics@gmail.com,http://hubcomics.com/,mailed
Hypno-Tronic Comics,156 Stuyvesant Pl,Staten Island,NY,10301,USA,Northeast,(718) 720-0001,hypnotroniccomics@gmail.com,hypnotroniccomics.com,mailed
I Like Comics,1715 Broadway St,Vancouver,WA,98663,USA,West,,ilikecomics1969@yahoo.com,ilikecomicsshop.com,mailed
I Want More Comics,550 Thornton Pkwy Suite 114,Thornton,CO,80229,USA,West,,orders@iwantmorecomics.com,iwantmorecomics.com,mailed
I Want More Comics & Games,550 E Thornton Pkwy Ste 114,Thornton,CO,80229,USA,West,303-460-7226,orders@iwantmorecomics.com,iwantmorecomics.com,mailed
Iguana Comics,100 NE Midland Ave,Grants Pass,OR,97526,USA,West,,iguanacomics@hotmail.com,iguanacomicsandgames.com,mailed
Illusions Games and Comics,726 S Salisbury Blvd,Salisbury,MD,21801,USA,Southeast,(410) 742-0172,thegamestore@hotmail.com,,mailed
Illusive Comics & Games LLC,5245 Stevens Creek Blvd,Santa Clara,CA,95051,USA,West,408-985-7655,contact@illusivecomics.com,illusivecomics.com,mailed
In This Issue Comics,3796 State St,Bettendorf,IA,52722,USA,Midwest,,inthisissuecomics@gmail.com,inthisissuecomics.com,mailed
Infinity Comics & Toys,4317 Williamson Rd NW,Roanoke,VA,24012,USA,Southeast,(540) 238-1208,tcannon2@yahoo.com,,mailed
Infinity Comics LLC,2500 Neudorf Rd STE B,Clemmons,NC,27012,USA,South,855-692-6649,buyer@comicsintocash.com,comicsintocash.com,mailed
Infinity Flux,3643 Hixson Pike,Chattanooga,TN,37415,USA,Southeast,(423) 591-5689,info@infinityflux.net,infinityflux.net,mailed
Invincible Comics,1035 W Orangeburg Ave,Modesto,CA,95350,USA,West,,invinciblecomics@yahoo.com,facebook.com/invinciblecomics,mailed
Invisible Jet Comics,79 W Portal Ave,San Francisco,CA,94127,USA,West,415-571-8371,info@invisiblejetcomics.com,stores.comichub.com/invisiblejetcomics,mailed
Isle of Comics,56 W Southern Ave,South Williamsport,PA,17702,USA,Northeast,(570) 322-4753,isleofcomics@hotmail.com,isleofcomics.com,mailed
Isotope,326 Fell St,San Francisco,CA,94102,USA,West,(415) 621-6543,info@isotopecomics.com,isotopecomics.com,mailed
JAF Comics,224 Nazareth Pike,Bethlehem,PA,18020,USA,Northeast,,info@jafcomics.com,jafcomics.com,mailed
Jay and Silent Bob's Secret Stash,65 Broad St,Red Bank,NJ,07701,USA,Northeast,(732) 758-0508,thecrewaskew@gmail.com,thesecretstashonline.com,mailed
Jesters Playhouse,545 Tilton Rd,Northfield,NJ,08225,USA,Northeast,(609) 677-9088,questions@jestersplayhouse.com,jestersplayhouse.com,mailed
Jetpack Comics & Games,37 N Main St,Rochester,NH,03867,USA,Northeast,603-330-9636,jetpackcomics@gmail.com,jetpackcomics.com,mailed
JLA Comics,374 Florin Rd,Sacramento,CA,95831,USA,West,916-898-2217,lecho@jlacomics.com,jlacomics.com,mailed
Jmz Comics & Collectibles LLC,12 E Pennsylvania Ave,Pen Argyl,PA,18072,USA,Northeast,610-881-4149,jmzcomics@hotmail.com,,mailed
Johnny Destructos Hero Complex,4327 Main St,Philadelphia,PA,19127,USA,Northeast,215-482-7700,jdsherocomplex@gmail.com,jdsherocomplex.com,mailed
Joseph Koch Inc. Comic Book Warehouse,206 41st St,Brooklyn,NY,11232,USA,Northeast,718-768-8571,kochcom@gmail.com,kochcomics.com,mailed
Joys Japanimation,209 Foster St,Greensburg,PA,15601,USA,Northeast,724-837-0995,joys4anime@aol.com,joysjapanimation.com,mailed
JPM Comics & Games,1000 E Rte 66 G,Glendora,CA,91740,USA,West,626-857-0718,jpmcomics@gmail.com,jpmcomicsandgames.wordpress.com,mailed
JPM Comics and Games,1000 E Rte 66 Ste G,Glendora,CA,91740,USA,West,,jpmcomics@gmail.com,jpmcomicsandgames.wordpress.com,mailed
Juniors Comics and Cards,2110 W Slaughter Ln #147,Austin,TX,78748,USA,Southwest,,juniorscomics@gmail.com,facebook.com/Juniors-Comics-221503914543360,mailed
Kaboom,859 S Lynnhaven Rd,Virginia Beach,VA,23452,USA,Southeast,,kit@kaboomkollectibles.com,kaboomkollectibles.com,mailed
Kapow Comics,4047 E. Kiehl Ave,Sherwood,AR,72120,USA,Southeast,501-834-5769,thecomicbookguy@kapow-comics.com,kapow-comics.com,mailed
Keiths Comics,394 Broad St,Elyria,OH,44035,USA,Midwest,(440) 323-2000,wachowskis@yahoo.com,keithscomics.com,mailed
Kenmore Komics & Games,1020 Kenmore Blvd,Akron,OH,44314,USA,Midwest,(330) 745-5530,john@kenmore-komics.com,kenmore-komics.com,mailed
Khahans Americana,522 S Main St,Elkhart,IN,46516,USA,Midwest,574-322-4173,accounts@khahan.com,khahansrealm.com,mailed
Killens Games Comics Toys,2501 Wabash Ave Ste A12C,Springfield,IL,62704,USA,Midwest,,sales@killenenterprises.com,killenenterprises.com,mailed
King Kong Comics and Games,6700 Amador Plaza Rd,Dublin,CA,94568,USA,West,925-549-7873,kingkongcomicsandgames@gmail.com,kingkongcomicsandgames.com,mailed
Knowhere Games & Comics,125 Vallecitos De Oro J,San Marcos,CA,92069,USA,West,760-891-8333,knowheregamesandcomics@gmail.com,knowheregamesandcomics.com,mailed
Kobra Comics,12603 Beverly Blvd,Whittier,CA,90601,USA,West,562-273-5177,kobracomics@gmail.com,kobracomics.com,mailed
Kravens Comic Books and Collectibles,2833 Ocean Gateway,Cambridge,MD,21613,USA,Southeast,(443) 225-6536,KravensComics@yahoo.com,kravenscomics.com,mailed
Kravn Comics,349 Upland Square Dr,Pottstown,PA,19464,USA,Northeast,610-323-3868,comics@kravncomics.com,kravncomics.com,mailed
Krypton Comics,177 Water St,Exeter,NH,03833,USA,Northeast,603-658-2667,kryptonpce@gmail.com,kryptonnh.com,mailed
Kyles Comics,1029 W Jericho Turnpike,Smithtown,NY,11787,USA,Northeast,917-681-0336,Kylescomics01@aol.com,kylescomicsny.com,mailed
Langes Comics and Collectibles,5600 Harvey St Ste 2088,Muskegon,MI,49444,USA,Midwest,(231) 798-3097,langessports@yahoo.com,langessports.com,mailed
Legacy Comics and Cards,201 N Orange St,Glendale,CA,91203,USA,West,818-247-8803,info@legacycomics.com,legacycomics.com,mailed
Legend Comics,5131 Leavenworth St,Omaha,NE,68106,USA,Midwest,,legendcomicsomaha@yahoo.com,legendcomicsandcoffee.com,mailed
Legend Comics and Coffee,5207 Leavenworth Street,Omaha,NE,68106,USA,Midwest,(402) 391-2377,legendcomicsomaha@yahoo.com,legendcomicsandcoffee.com,mailed
Legendary Comics,221 S Perkins Road,Stillwater,OK,74074,USA,Southwest,,legendcmcs@aol.com,,mailed
Legendary Comics & Records,6216 Washington Ave Suite A,Racine,WI,53406,USA,Midwest,,tspiders@charter.net,legendary-comics.com,mailed
Legends Comics and Games,10123 N Wolfe Rd Suite 2108,Cupertino,CA,95014,USA,West,,legends.cupertino@gmail.com,legendscomicsandgames.com,mailed
Legends Comix & Games,23 Stevens St,Littleton,MA,01460,USA,Northeast,978-823-0630,motor@legendscomix.com,www.legendscomix.com,mailed
Legends of Superheros,28 Main St,Oakville,CT,06779,USA,Northeast,860-945-3346,legendsofsuperheros@att.net,legendsofsuperheros.com,mailed
Liberty Comics,27639 Gratiot Ave,Roseville,MI,48066,USA,Midwest,(586) 779-4130,libertycomics@hotmail.com,libertycomicsonline.com,mailed
Lightspeed Hobbies,5884 US Hwy 6,Portage,IN,46368,USA,Midwest,,customerservice@lightspeedhobbies.com,lightspeedhobbies.com,mailed
Little Monster Comics,4440 S HWY 27,Somerset,KY,42501,USA,Southeast,(606) 678-8599,jim@littlemonstercomics.com,littlemonstercomics.com,mailed
Living Dead Comics,3227 Curry Ford Rd,Orlando,FL,32806,USA,Southeast,(407) 896-3323,livingdeadcomics@yahoo.com,livingdeadcomics.com,mailed
Lobo Anime & Comics,13140 Central Ave SE #C,Albuquerque,NM,87123,USA,Southwest,,loboanimecomics@gmail.com,lobocomics.com,mailed
Lobo Comics & Toys,1016 Juan Tabo Blvd NE #D,Albuquerque,NM,87112,USA,Southwest,,loboanimecomics@gmail.com,lobocomics.com,mailed
Local Heroes,1905 Colonial Avenue,Norfolk,VA,23517,USA,Southeast,757-383-6810,greg@localheroescomics.com,localheroescomics.com,mailed
Long Island Comics,276 Little East Neck Rd,West Babylon,NY,11704,USA,Northeast,(631) 321-4822,frank@licomics.com,licomics.com,mailed
Lost Legion Games and Comics - The Keep,706 Thorn Street,Princeton,WV,24740,USA,Southeast,304-431-0021,lostlegiongamesandcomics@gmail.com,theroguetrader.net,mailed
Lost Legion Games and Comics - The Rifleman,600 D Street,South Charleston,WV,25303,USA,Southeast,(304) 205-7919,lostlegiongamesandcomics@gmail.com,www.lostlegiongamesandcomics.com,mailed
Lost Legion Games and Comics - The Vault,517 21st Street,Vienna,WV,26105,USA,Southeast,(304) 917-4840,lostlegiongamesandcomics@gmail.com,www.lostlegiongamesandcomics.com,mailed
Lost Planet Comics and Collectibles,65 E Main St,Bay Shore,NY,11706,USA,Northeast,631-647-9777,lostplanetcomics1@gmail.com,lpcomics.com,mailed
Lost World of Wonders,6913 W Oklahoma Ave,Milwaukee,WI,53219,USA,Midwest,,store@lostwonders.com,lostwonders.com,mailed
Louisiana Double Play,2834 S Sherwood Forest Blvd Ste C5,Baton Rouge,LA,70816,USA,Southeast,225-296-5812,info@ladoubleplay.com,ladoubleplay.com,mailed
Macs Comics & Collectible Inc,2678 SW 87th Ave,Miami,FL,33165,USA,Southeast,(305) 226-5072,macscomics@aol.com,http://www.macscomics.com,mailed
Mad Jacks Records & Comics,315 W John St,Matthews,NC,28105,USA,Southeast,,jackmarble@gmail.com,madjacks.net,mailed
Madness Comics & Games,1005 W University Dr Ste 105,Denton,TX,76201,USA,Southwest,,madnesscomics@gmail.com,grumpyscomicsdenton.com,mailed
Madness Games & Comics,3000 Custer Rd Ste 310,Plano,TX,75075,USA,Southwest,,madness@madnessgames.com,madnessgames.com,mailed
Magic Comics & Hobbies,727 Robert Blvd,Slidell,LA,70458,USA,Southeast,985-649-4171,postmaster@magiccomicsandhobbies.com,magiccomics-hobbies.com,mailed
Magic Dragon Comics,307 Broadway,Arlington,MA,02474,USA,Northeast,(781) 643-3530,magicdragon307@yahoo.com,http://www.magicdragon307.com/,mailed
Magnus Comics,155 Maplewood Ave Ste 3,Maplewood,NJ,07040,USA,Northeast,973-327-2632,magnuscomicsnj@gmail.com,magnuscomicsnj.com,mailed
Main st Comics Toys & More,74 Main St,Lee,MA,01238,USA,Northeast,413-394-4170,MainStCTM@gmail.com,mainstcomicstoysmore.com,mailed
Main Street Comics,157 Dolson Avenue,Middletown,NY,10940,USA,Northeast,(845) 342-0458,mscomics@gmail.com,mainstreetcomics.com,mailed
Main Street Comics & Toys,74 N Main St,Milltown,NJ,08850,USA,Northeast,732-828-7886,mscomics@aol.com,mainstreetcomicsnj.com,mailed
Main Street Music,108 N Market St,Waterloo,IL,62298,USA,Midwest,618-939-4676,mainstrt@htc.net,main-street-music.com,mailed
Mammoth Comics,4616 E 11th St,Tulsa,OK,74112,USA,Southwest,,store@mammothcomics.com,mammothcomics.com,mailed
Manga Spot,1000 8th Ave STE 15,New York,NY,10019,USA,Northeast,,mangaspotnyc@gmail.com,mangaspotnyc.com,mailed
Matt's Sports Cards & Comics,169 Elm St,Enfield,CT,06082,USA,Northeast,(860) 741-2522,contact@cardandcomicshop.com,cardandcomicshop.com,mailed
Matts Sports Cards & Comics,348 Hazard Ave,Enfield,CT,06082,USA,Northeast,860-698-9600,campanime@ymail.com,cardandcomicshop.com,mailed
Mavericks Cards and Comics,2312 E Dorothy Lane,Kettering,OH,45420,USA,Midwest,937-294-4900,jackmavericks@sbcglobal.net,jackmavericks.com,mailed
Maximum Comics 1.0,5130 S Fort Apache Rd #285,Las Vegas,NV,89148,USA,West,(702) 367-0755,maximumcomicsnw@gmail.com,maximumcomics.com,mailed
Maximum Comics 2.0,520 S Marks St #130,Henderson,NV,89014,USA,West,,maximumcomicsnw@gmail.com,maximumcomics.com,mailed
Maximum Comics 3.0,7950 W Tropical Pkwy #120,Las Vegas,NV,89149,USA,West,,maximumcomicsnw@gmail.com,maximumcomics.com,mailed
Maximum Comics NW,7290 W Azure Dr #130,Las Vegas,NV,89130,USA,West,,maximumcomicsnw@gmail.com,maximumcomics.com,mailed
Mayhem Collectibles Inc,7500 University Ave,Des Moines,IA,50325,USA,Midwest,(515) 271-8104,rob.mayhemcomics@gmail.com,mayhemcomics.com,mailed
Mazz Comics & Collectibles,24 E 4th St,Bridgeport,PA,19405,USA,Northeast,484-679-1522,info@mazzcomics.com,mazzcomics.com,mailed
Mega City 2,2910 Brundage Ln,Bakersfield,CA,93304,USA,West,661-348-4302,bako@megacity.one,,mailed
Mega City One,7301 Melrose Ave,Los Angeles,CA,90046,USA,West,,melrosemusic@gmail.com,,mailed
Megabrain Comics,21 W Market St,Red Hook,NY,12571,USA,Northeast,845-516-4168,info@megabraincomics.com,megabraincomics.com,mailed
Mellow Blue Planet,2212 5th Ave,Rock Island,IL,61201,USA,Midwest,,comicman70@gmail.com,mellowblueplanet.com,mailed
Memory Lane Comics,201 Princess St,Wilmington,NC,28401,USA,Southeast,,memorylanewilm@gmail.com,mlcshop.com,mailed
Memory Lane Comics Part II,222 Princess St,Wilmington,NC,28401,USA,Southeast,,memorylanewilm@gmail.com,mlcshop.com,mailed
Merlyns Science Fiction,15 W Main Ave,Spokane,WA,99201,USA,West,,merlynsinspokane@gmail.com,,mailed
Metro Entertainment,6 W Anapamu St,Santa Barbara,CA,93101,USA,West,805-963-2168,metrocomix@aol.com,metro-entertainment.com,mailed
Metropolis Collectibles,36 W 37th St,New York,NY,10018,USA,Northeast,(212) 260-4147,orders@metropoliscomics.com,www.metropoliscomics.com,mailed
Metropolis Comics,16509 Bellflower Blvd,Bellflower,CA,90706,USA,West,,metrohero@gmail.com,metrohero.com,mailed
Metropolis Comics,821 First St,La Salle,IL,61301,USA,Midwest,,lasallemetropolis@hotmail.com,metropoliscomics.com,mailed
Midtown Comics,200 W 40th St,New York,NY,10018,USA,Northeast,(212) 302-8192,info@midtowncomics.com,www.midtowncomics.com,mailed
Midtown Comics - Grand Central,459 Lexington Ave.,New York,NY,10017,USA,Northeast,(212) 302-8192,info@midtowncomics.com,www.midtowncomics.com,mailed
Midtown Comics Astoria Outlet,32-11 41st St,Astoria,NY,11103,USA,Northeast,212-302-8192,info@midtowncomics.com,midtowncomics.com,mailed
Midtown Comics Downtown,64 Fulton St,New York,NY,10038,USA,Northeast,(212) 302-8192,info@midtowncomics.com,midtowncomics.com,mailed
Midway Used & Rare Books,1579 University Ave W,St Paul,MN,55104,USA,Midwest,,info@midwaybook.com,midwaybook.com,mailed
Midwest Collectibles,3451 N Fairmount St Ste A,Davenport,IA,52806,USA,Midwest,,midwestcoll@gmail.com,midwestcollectables.weebly.com,mailed
Mighty Moose Comics,4015 Factoria Blvd SE,Bellevue,WA,98006,USA,West,,mightymoosecomics@gmail.com,mightymoosecomics.com,mailed
Mikes Comics,51075 Washington St,New Baltimore,MI,48047,USA,Midwest,(586) 716-9511,mikescomics@sbcglobal.net,mikescomicsandgames.com,mailed
Mile High Comics Jason St Mega,4600 Jason St,Denver,CO,80211,USA,West,(303) 477-0042,jasonstreet@milehighcomics.com,milehighcomics.com,mailed
Mill Geek Comics,17624 15th Ave SE Ste 105a,Bothell,WA,98012,USA,West,,millgeekcomics@gmail.com,millgeekcomics.com,mailed
Million Year Picnic,99 Mt. Auburn St,Cambridge,MA,02138,USA,Northeast,(617) 492-6763,millionyearpicnic@yahoo.com,http://www.themillionyearpicnic.com/,mailed
Minds Eye Comics,2228 Carter Ave,St Paul,MN,55108,USA,Midwest,,orders@mindseyecomics.com,mindseyecomics.com,mailed
Mission: Comics & Art,2250 Mission St,San Francisco,CA,94110,USA,West,628-289-5145,missioncomicsandart@gmail.com,missioncomicsandart.com,mailed
Monarch Cards & Comics,4400 Heatherdowns Blvd #11B,Toledo,OH,43614,USA,Midwest,(419) 382-1451,monarchcomics@sbcglobal.net,www.monarchcomics.net,mailed
Montasy Comics NYC,431 5th Ave 2nd floor,New York,NY,10016,USA,Northeast,212-683-2018,montasychapter2@gmail.com,montasycomicsnyc.com,mailed
More Fun,105 E Main St,Ashland,OR,97520,USA,West,541-488-1978,w@more-fun.com,more-fun.com,mailed
More Fun Comics and Games,103 West Hickory,Denton,TX,76201,USA,Southwest,,morefuncomicsandgames@gmail.com,morefuncomicsandgames.com,mailed
MOST EXCELLENT COMICS,483 Enfield Street,Enfield,CT,06082,USA,Northeast,(860) 741-0113,info@mostexcellentgaming.com,mostexcellentgaming.com,mailed
Motor City Comics,33228 W 12 Mile Rd Pmb 286,Farmington Hills,MI,48334,USA,Midwest,248-426-8059,michael.goldman@motorcitycomics.com,http://motorcitycomiccon.com/,mailed
Mountain Empire Comics,31 6th St,Bristol,TN,37620,USA,Southeast,,contact@mountainempirecomics.com,mountainempirecomics.com,mailed
Mountain Empire Comics,1805 N Roan St Unit G6,Johnson City,TN,37601,USA,Southeast,,contact@mountainempirecomics.com,mountainempirecomics.com,mailed
Mountain Empire Comics JC,1805 N Roan St C3,Johnson City,TN,37601,USA,South,423-283-4544,contact@mountainempirecomics.com,mountainempirecomics.com,mailed
Mr. E Comics,20800 N John Wayne Pkwy Ste 108,Maricopa,AZ,85139,USA,Southwest,520-208-2329,mre@mrecomics.com,mrecomics.com,mailed
Muse Comics & Games,2100 Stephens #107,Missoula,MT,59801,USA,West,,amanda@musecomics.com,musecomics.com,mailed
Muse Comics and Games,1350 N Academy Blvd,Colorado Springs,CO,80909,USA,West,,musecomics@gmail.com,musecomicscolorado.com,mailed
NeonBomb,260 Mammoth Rd,Manchester,NH,03103,USA,Northeast,,jeff@neonbomb.com,www.neonbomb.com,mailed
New Dimension Comics,630 Waterfront Dr,Homestead,PA,15120,USA,Northeast,,waterfront@ndcomics.com,ndcomics.com,mailed
New Dimension Comics - Butler,101 Clearview Cir,Butler,PA,16001,USA,Northeast,724-282-5283,butler@ndcomics.com,ndcomics.com,mailed
New Dimension Comics - Cranberry,20550 Route 19,Cranberry Township,PA,16066,USA,Northeast,724-776-0433,cranberry@ndcomics.com,ndcomics.com,mailed
New Dimension Comics - Cranberry TWP,20550 Route 19 Piazza Plaza,Cranberry Twp,PA,16066,USA,Northeast,724-776-0433,cranberry@ndcomics.com,ndcomics.com,mailed
New Dimension Comics - Ellwood City,516 Lawrence Ave,Ellwood City,PA,16117,USA,Northeast,724-758-2324,tim@ndcomics.com,ndcomics.com,mailed
New Dimension Comics - Ohio Valley,67800 Mall Ring Rd Ste 875,Saint Clairsville,OH,43950,USA,Midwest,740-695-1020,ohiovalley@ndcomics.com,http://ndcomics.com/stores/ohio-valley-mall/,mailed
New Dimension Comics - Pittsburgh Mills,590 Pittsburgh Mills Blvd Ste 220,Tarentum,PA,15084,USA,Northeast,724-758-1560,mills@ndcomics.com,ndcomics.com,mailed
New England Comics,1511 Hancock St,Quincy,MA,02169,USA,Northeast,(617) 770-1848,quincy@newenglandcomics.com,newenglandcomics.com,mailed
New England Comics,716A Crescent St,Brockton,MA,02302,USA,Northeast,508-559-5068,support@newenglandcomics.com,newenglandcomics.com,mailed
New Moon Comics,463 Main St.,Little Falls,NJ,07424,USA,Northeast,(973) 812-6642,sales@newmooncomics.com,www.newmooncomics.com,mailed
New Wave Comics,4020 Skippack Pike,Schwenksville,PA,19473,USA,Northeast,610-222-9200,info@newwavecomics.net,newwavecomics.net,mailed
Newbury Comics,310 Daniel Webster Highway,Nashua,NH,03060,USA,Northeast,,customerservice@newburycomics.com,www.newburycomics.com,mailed
Newbury Comics,777 South Willow Plaza,Manchester,NH,03103,USA,Northeast,,customerservice@newburycomics.com,www.newburycomics.com,mailed
Newbury Comics,99 Rockingham Park Blvd,Salem,NH,03079,USA,Northeast,,customerservice@newburycomics.com,www.newburycomics.com,mailed
Newbury Comics,200 South Main Street,West Lebanon,NH,03784,USA,Northeast,603-298-2167,customerservice@newburycomics.com,www.newburycomics.com,mailed
Newbury Comics,75 Middlesex Turnpike Burlington Mall,Burlington,MA,01803,USA,Northeast,781-270-9860,customerservice@newburycomics.com,www.newburycomics.com,mailed
Newbury Comics,1245 Worcester Street Natick Mall,Natick,MA,01760,USA,Northeast,508-650-4911,customerservice@newburycomics.com,www.newburycomics.com,mailed
Newbury Comics,210 Andover Street Route 114,Peabody,MA,01960,USA,Northeast,(978) 531-9713,customerservice@newburycomics.com,https://www.newburycomics.com/,mailed
Newbury Comics,180 Main Street Route 1,Saugus,MA,01906,USA,Northeast,(781) 231-0488,customerservice@newburycomics.com,https://www.newburycomics.com/,mailed
Newbury Comics,130 Needham Street,Newton,MA,02464,USA,Northeast,,customerservice@newburycomics.com,https://www.newburycomics.com/,mailed
Newbury Comics,36 JFK Street,Cambridge,MA,02138,USA,Northeast,(617) 661-9277,customerservice@newburycomics.com,https://www.newburycomics.com/,mailed
Newbury Comics,1 Washington Mall,Boston,MA,02108,USA,Northeast,,customerservice@newburycomics.com,https://www.newburycomics.com/,mailed
Newbury Comics,551 Boston Turnpike Route 9,Shrewsbury,MA,01545,USA,Northeast,,customerservice@newburycomics.com,https://www.newburycomics.com/,mailed
Newbury Comics,220 Maine Mall Rd.,South Portland,ME,04106,USA,Northeast,,customerservice@newburycomics.com,https://www.newburycomics.com/,mailed
Newbury Comics,250 Granite Street,Braintree,MA,02184,USA,Northeast,(781) 356-8285,customerservice@newburycomics.com,newburycomics.com,mailed
Newbury Comics,999 S Washington St,North Attleboro,MA,02760,USA,Northeast,(508) 399-9194,customerservice@newburycomics.com,newburycomics.com,mailed
Newbury Comics,1500 Bald Hill Rd.,Warwick,RI,02886,USA,Northeast,(401) 821-3170,customerservice@newburycomics.com,newburycomics.com,mailed
Newbury Comics,194 Buckland Hills Drive,Manchester,CT,06040,USA,Northeast,(860) 648-2411,customerservice@newburycomics.com,newburycomics.com,mailed
Newbury Comics,331 State Rd.,N. Dartmouth,MA,02747,USA,Northeast,(508) 997-5928,customerservice@newburycomics.com,newburycomics.com,mailed
Newbury Comics,793 Iyannough Road,Hyannis,MA,02601,USA,Northeast,(508) 778-0747,customerservice@newburycomics.com,www.newburycomics.com,mailed
Newbury Comics,313 Smith Haven Mall,Lake Grove,NY,11755,USA,Northeast,631-265-2693,customerservice@newburycomics.com,newburycomics.com,mailed
Newbury Comics,859 Boston Providence Hwy,Norwood,MA,02062,USA,Northeast,781-255-6995,customerservice@newburycomics.com,newburycomics.com,mailed
Newbury Comics,125 Westchester Ave,White Plains,NY,10601,USA,Northeast,914-949-0135,customerservice@newburycomics.com,newburycomics.com,mailed
Newbury Comics,2655 Richmond Ave Space 2300,Staten Island,NY,10314,USA,Northeast,929-605-0731,customerservice@newburycomics.com,newburycomics.com,mailed
Newbury Comics,101 Kingston Collection Way,Kingston,MA,02364,USA,Northeast,781-422-0119,customerservice@newburycomics.com,newburycomics.com,mailed
Newbury Comics,74 Providence Pl,Providence,RI,02903,USA,Northeast,401-383-0044,customerservice@newburycomics.com,newburycomics.com,mailed
Newbury Comics,630 Old Country Rd,Garden City,NY,11530,USA,Northeast,516-248-0945,customerservice@newburycomics.com,newburycomics.com,mailed
Newbury Comics,1000 Palisades Center Dr E106,West Nyack,NY,10994,USA,Northeast,845-358-4938,customerservice@newburycomics.com,newburycomics.com,mailed
Newbury Comics,7 Backus Ave Space B215,Danbury,CT,06810,USA,Northeast,475-348-7561,customerservice@newburycomics.com,newburycomics.com,mailed
Newbury Comics,1 Crossgates Mall Rd,Albany,NY,12203,USA,Northeast,838-231-1001,customerservice@newburycomics.com,newburycomics.com,mailed
Newcastle Comics & Games,2294 McKelvey Road,Maryland Heights,MO,63043,USA,Midwest,314-392-9322,newcastle.comics@yahoo.com,newcastlecomics.com,mailed
Night Flight Comics,210 E 400 S,Salt Lake City,UT,84111,USA,West,,mimi@night-flight.com,night-flight.com,mailed
Nirvana Comics Knoxville,6709 Kingston Pike B,Knoxville,TN,37919,USA,Southeast,(865) 387-4459,nirvanacomicsknox@gmail.com,nirvanacomicsknoxville.com,mailed
Now Or Never Comics,1055 F St,San Diego,CA,92101,USA,West,619-892-7310,aaron@nowornevercomics.com,nowornevercomics.com,mailed
Nuclear Comics,24451 Alicia Pkwy suite 4,Mission Viejo,CA,92691,USA,West,949-581-1566,nuclearcomics@aol.com,nuclearcomics.com,mailed
Nuclear Comics North Park,3076 University Ave,San Diego,CA,92104,USA,West,619-228-9934,nuklearcomix@gmail.com,nuclearcomics.com,mailed
October Country Comics,246 Main Street Suite 5,New Paltz,NY,12561,USA,Northeast,(845) 255-1115,info@octobercountrycomics.com,www.octobercountrycomics.com,mailed
Ogres Grove,129 Union St,Milton,DE,19968,USA,South,302-643-2125,theogre@ogresgrove.com,ogresgrove.com,mailed
Oiltown Comics,520 W 1st Ave,Corsicana,TX,75110,USA,South,903-354-4140,customerservice@oiltowncomics.com,oiltowncomicsandgames.com,mailed
One Stop Comics,111 S Ridgeland Ave,Oak Park,IL,60302,USA,Midwest,708-524-2287,onestopcomics@sbcglobal.net,onestopcomics.net,mailed
Origin Story Comics,569 Jonesboro Rd,McDonough,GA,30253,USA,South,678-565-4886,originstorycomics@gmail.com,originstorycomics.com,mailed
Other Realms,1130 N Nimitz Hwy Ste C-140,Honolulu,HI,96817,USA,West,,otherrealms@hawaii.rr.com,other-realms.com,mailed
Outer Limits Boro,1244 NW Broad St,Murfreesboro,TN,37129,USA,Southeast,(615) 624-7599,outerlimitsborocomics@gmail.com,theouterlimitsboro.com,mailed
Oxford Comics & Games,2855 Piedmont Road NE,Atlanta,GA,30305,USA,Southeast,(404) 233-8682,oxfordcomics@gmail.com,oxfordcomicsandgames.com,mailed
Packrat Comics,3864 Lattimer St,Hilliard,OH,43026,USA,Midwest,(614) 527-8450,packratcomics@sbcglobal.net,www.packratcomics.com,mailed
Painted Visions Comics,3065 Golansky Blvd,Woodbridge,VA,22192,USA,Southeast,,adam.paintedvisions@gmail.com,paintedvisionscomics.com,mailed
Paper Heros Comics,26771 Bouquet Canyon Rd,Santa Clarita,CA,91350,USA,West,661-513-9700,Staff@paperheroscomics.com,paperheroscomics.com,mailed
Paradox Comics,269 Ridge Rd,North Arlington,NJ,07031,USA,Northeast,(201) 998-1212,paradoxcomicsnj@gmail.com,paradoxcomics.net,mailed
Paradox Comics-N-Cards,814 Main Ave,Fargo,ND,58103,USA,Midwest,,paradox@paradoxcnc.com,paradoxcnc.com,mailed
Parker Banner Kent & Wayne,21500 Catawba Ave Ste A,Cornelius,NC,28031,USA,South,704-892-4263,pbkw@pbkwcomics.com,pbkwcomics.com,mailed
Parkers Records and Comics,1222 Suite C State Route 28,Milford,OH,45150,USA,Midwest,513-575-3665,info@parkersrc.com,parkersrc.com,mailed
Parts Unknown The Comic Book Store,906 Spring Garden St,Greensboro,NC,27403,USA,Southeast,(336) 272-7060,punk906@bellsouth.net,partsunknown.net,mailed
Past Present & Future Comics,1387 North Military Trail,West Palm Beach,FL,33409,USA,Southeast,(561) 697-2554,ppfcomics1@gmail.com,http://www.ppfcomics.com,mailed
Past Present & Future Comics,5917 S University Dr,Davie,FL,33328,USA,Southeast,(954) 434-4822,ppfcomicssouth@gmail.com,http://www.ppfcomics.com,mailed
Patriot Flipper Comics,21182 Salmon Run Mall Loop W,Watertown,NY,13601,USA,Northeast,315-788-9210,bill@thepatriotflipper.com,thepatriotflipper.com,mailed
Pet Shop Comics & Collectibles,1191 Hillview Blvd Suites 4 & 5,Louisville,KY,40229,USA,Southeast,5029573188,info@petshopcomics.com,petshopcomics.com,mailed
Phantasm Comics,26 N Main St,New Hope,PA,18938,USA,Northeast,215-693-1822,phantasmcomicsnewhopepa@gmail.com,phantasmcomics.com,mailed
Phantom of the Attic,3766 William Penn Hwy,Monroeville,PA,15146,USA,Northeast,412-856-4403,phantom@city-net.com,phantom-attic.com,mailed
Phantom of the Attic,411 S Craig St 2nd floor,Pittsburgh,PA,15213,USA,Northeast,(412) 621-1210,comics@pota-oakland.com,pota-oakland.com,mailed
Phoenix Comic & Collectibles,107-5 Stewart Ave.,Hicksville,NY,11801,USA,Northeast,(516) 939-9129,ph.rebirth@gmail.com,phoenixcomics.wordpress.com,mailed
Phoenix Rising Games and Comics,327B Civic Ave,Salisbury,MD,21804,USA,Southeast,(443) 944-8207,dorsey@phoenixrisinggames.com,facebook.com/phoenixrisinggames,mailed
Pittsburgh Comics,113 E McMurray Rd,Canonsburg,PA,15317,USA,Northeast,,colin@pittsburghcomics.com,pittsburghcomics.com,mailed
Planet Chaos,1117 Whitewater Ave,Fort Atkinson,WI,53538,USA,Midwest,,planetchaoswi@yahoo.com,planetchaoscomics.com,mailed
Play The Game Read The Story,9808 Destiny USA Dr,Syracuse,NY,13209,USA,Northeast,(315) 424-0120,info@playthegamereadthestory.com,playthegamereadthestory.com,mailed
Pop Comics Anaheim,1061 N Kraemer Pl Ste D,Anaheim,CA,92806,USA,West,714-833-5619,info@popcomicshop.com,popcomicshop.com,mailed
Pop Culture Comix,9337 W 87th Street,Overland Park,KS,66212,USA,Midwest,,popculturecomix@sbcglobal.net,facebook.com/Pop.Culture.ComiX,mailed
PopFuzz,123 Wythe Ave,Brooklyn,NY,11249,USA,Northeast,718-388-6396,popfuzz@popfuzz.com,popfuzz.com,mailed
Pops Universe,101-3 Main St,Germantown,NY,12526,USA,Northeast,518-537-7677,tovalle@popsuniverse.com,popsuniverse.com,mailed
Popular Universe,5802 Robertson Ave,Carmichael,CA,95608,USA,West,916-696-6456,contact@popularuniverse.com,popularuniverse.com,mailed
Portals Games and Comics,415A Dover Street,Easton,MD,21601,USA,Southeast,(410) 800-8787,matt@portalsshop.com,portalsshop.com,mailed
Power House Comics,807 W College Ave,Appleton,WI,54914,USA,Midwest,,powerhousecomics@gmail.com,phcomics.com,mailed
Prairie Archives,522 E Adams Street,Springfield,IL,62701,USA,Midwest,,books@prairiearchives.com,prairiearchives.com,mailed
Prairie Dog Comics,4800 W Maple St #122,Wichita,KS,67209,USA,Midwest,,pdc@pdcomics.com,pdcomics.com,mailed
Prime Time Comics & Cards,4 N Broadway St,Lake Orion,MI,48362,USA,Midwest,248-693-1735,info@primetimecomicsandcards.com,http://www.facebook.com/PrimeTimeComicsAndCards,mailed
Pulp Fiction Comics,3925 E Anaheim St,Long Beach,CA,90804,USA,West,562-386-2027,pulpfictionlongbeach@gmail.com,pulpfictionlongbeach.com,mailed
Pulp Fiction Comics Culver City,4328 Sepulveda Blvd,Culver City,CA,90230,USA,West,310-572-6170,pulpfictionculvercity@gmail.com,pulpfictionculvercity.com,mailed
Pyramid Comics & Cards,24 Main St,Sparta,NJ,07871,USA,Northeast,973-729-5343,sales@pyramidcomics.com,pyramidcomics.com,mailed
Queen City Book Store,3184 Main St,Buffalo,NY,14214,USA,Northeast,716-833-6220,enovak3178@aol.com,queencitybook.com,mailed
Queen City Comic and Card Co,6600 Dixie Hwy Suite V,Fairfield,OH,45014,USA,Midwest,513-860-5805,QCComics@aol.com,queencitycomics.com,mailed
Queen City Comic and Card Co,6101 Montgomery Rd,Cincinnati,OH,45213,USA,Midwest,513-351-5674,QCComics@aol.com,queencitycomics.com,mailed
R-Galaxy,2420 N Campbell Ave,Tucson,AZ,85719,USA,Southwest,,rgmail@r-galaxy.com,r-galaxy.com,mailed
Rad Raptor Comics,209 N Main St,Adrian,MI,49221,USA,Midwest,517-759-4102,orders@radraptor.com,radraptor.com,mailed
Ravenswood Comics,8451 Seneca Turnpike,New Hartford,NY,13413,USA,Northeast,(315) 735-3699,info@ravenswoodcomics.com,ravenswoodcomics.com,mailed
Rays Comics & Collectibles,12557 Harbor Blvd,Garden Grove,CA,92840,USA,West,657-251-0228,support@rayscollectibles.com,rayscollectibles.com,mailed
Read More Comics,115 E Brandon Blvd Ste A,Brandon,FL,33511,USA,Southeast,(813) 655-7838,readmorecomics@gmail.com,readmorecomics.com,mailed
Read With Me Manga,3357 N San Gabriel Blvd Unit B,Rosemead,CA,91770,USA,West,626-289-7168,readwithmemanga@gmail.com,readwithmemanga.com,mailed
Rebel Base Comics and Toys,701 S Sharon Amity Rd Ste C,Charlotte,NC,28211,USA,Southeast,,rebelbasecomicsandtoys@gmail.com,rebelbasecomics.com,mailed
Record Trader,3091 Cleveland Ave,Fort Myers,FL,33901,USA,Southeast,(239) 337-4330,recordtrader1@aol.com,https://www.facebook.com/pages/the-record-trader/140925762720605,mailed
Red Hood Comics,570 S Decatur Blvd,Las Vegas,NV,89107,USA,West,,rob@redhoodcomics.com,redhoodcomics.com,mailed
Red Shirt Comics,322 Main St,Port Jefferson,NY,11777,USA,Northeast,631-474-1701,josh@redshirtcomics.com,redshirtcomics.com,mailed
Red Sky Comics,3040 Park Ave Ste A,Merced,CA,95348,USA,West,209-726-0667,contact@redskycomics.com,redskycomics.com,mailed
Revenge Of,3420 Eagle Rock Blvd Ste A,Los Angeles,CA,90065,USA,West,323-561-3017,orders@revengeof.com,revengeof.com,mailed
Rhinos Comics & Collectibles,3805 Dewey Ave,Rochester,NY,14616,USA,Northeast,585-730-4334,chet@rhinoscomics.com,rhinoscomics.com,mailed
Richards Comics and Collectables,1214 Laurens Rd Ste A,Greenville,SC,29607,USA,Southeast,(864) 271-1104,ramorgan@ix.netcom.com,richards-collectables.com,mailed
Richie's Comic Cabana,96 Store Ave,Waterbury,CT,06705,USA,Northeast,(203) 597-1952,cabanaman40@sbcglobal.net,richies-comic-cabana.com,mailed
Rick's Comic City,2720 Old Lebanon Rd Suite 104,Nashville,TN,37214,USA,Southeast,(615) 883-7890,rickscomiccity@gmail.com,rickscomiccity.com,mailed
Ricks Comic City,1923 Madison St Suite H,Clarksville,TN,37043,USA,Southeast,(931) 401-1014,rickscomiccity@gmail.com,http://rickscomiccity.com,mailed
Ricks Comics & Grading,14624 Kenton Ave,Midlothian,IL,60445,USA,Midwest,773-290-3104,rsrcomics@gmail.com,rickscomicsandgrading.com,mailed
Rock Bottom Comics,1013 E Walnut St,Columbia,MO,65201,USA,Midwest,,rockbottomcomics@hotmail.com,facebook.com/rockbottomcomics,mailed
Rockheads Comics & Games,2225 63rd St,Kenosha,WI,53143,USA,Midwest,,askrockheads@rockheads.com,rockheads.com,mailed
Rogue Comics,3000 Fairfield Ave,Bridgeport,CT,06605,USA,Northeast,203-334-5566,RogueComicsCT@Gmail.com,roguecomics.net,mailed
Rogue Comics & Collectibles,105 N Union Ave,Cranford,NJ,07016,USA,Northeast,(908) 276-9069,RogueComics@yahoo.com,roguecomics.com,mailed
Rogues Gallery Comics & Games,1601 S I-35 Suite 330,Round Rock,TX,78664,USA,Southwest,,roguesgallerytx@gmail.com,roguesgallerytx.com,mailed
Rons Comic World,1690 NJ-38,Mt Holly,NJ,08060,USA,Northeast,609-267-6999,comicworld@comcast.net,ronscomicworld.com,mailed
Rookies Sportscards Plus,106 W Main St,Lowell,MI,49331,USA,Midwest,,jack@rookies-sportcards.com,rookies-sportcards.com,mailed
Rooks Comics and Games,2740 W Main St,Bozeman,MT,59718,USA,West,,rooksgamesandmore@gmail.com,rooksgamesandmore.com,mailed
Royal Collectibles,96-01 Metropolitan Avenue,Forest Hills,NY,11375,USA,Northeast,(718) 793-0542,royalcomicsny@gmail.com,royalcomicsnyc.com,mailed
Rupps Comics,335 N Ohio Ave,Fremont,OH,43420,USA,Midwest,419-334-4959,order@ruppsworld.com,http://www.ruppsworld.com/,mailed
Samurai Comics,1602 E Indian School Rd,Phoenix,AZ,85016,USA,Southwest,,phoenix@samuraicomics.com,samuraicomics.com,mailed
Samurai Comics,2639 E Broadway Rd,Mesa,AZ,85210,USA,Southwest,,mesa@samuraicomics.com,samuraicomics.com,mailed
Sanctuary Comics,24764 State Route 12,Watertown,NY,13601,USA,Northeast,(315) 779-9636,sanctuarycomics@hotmail.com,https://www.facebook.com/SanctuaryComics/,mailed
Sanctum Comics Games & Cards,27475 Ynez Rd Suite 170,Temecula,CA,92591,USA,West,951-296-6600,sanctumgamesandcomics@gmail.com,sanctumcgc.com,mailed
Sarges Comics & Games,124 State St,New London,CT,06320,USA,Northeast,860-443-2004,sarge@sargescomics.com,sargescomics.com,mailed
Sci-Fi City,5410 N Broadway St,Knoxville,TN,37918,USA,Southeast,(865) 523-4700,orders@sci-fi-city.com,sci-fi-city.com,mailed
ScifiGenre (now Atomic Empire),3400 Westgate Dr,Durham,NC,27707,USA,Southeast,919-490-7900,support@atomicempire.com,atomicempire.com,mailed
Scratch N Spin,513 12th St,West Columbia,SC,29169,USA,Southeast,(803) 794-8888,scratchnspin@aol.com,facebook.com/scratchnspinofficial,mailed
Secret Headquarters,3137 Glendale Blvd,Los Angeles,CA,90039,USA,West,323-666-2228,shq@thesecretheadquarters.com,thesecretheadquarters.com,mailed
Secret Identity Comics - Fresno,7450 N Fresno St,Fresno,CA,93720,USA,West,559-420-6509,secretidfresno@gmail.com,secretidfresno.com,mailed
Secret Origins Comics & More,888 Haddon Ave,Collingswood,NJ,08108,USA,Northeast,856-448-5496,secretoriginscomics@gmail.com,secretoriginscomics.com,mailed
Shield Comics & Games,7 Pleasant St,Laconia,NH,03246,USA,Northeast,603-707-6067,shieldcomics@gmail.com,shieldcomicsandgames.com,mailed
Showcase Comics,874 W Lancaster Ave,Bryn Mawr,PA,19010,USA,Northeast,,brynmawrcomics@hotmail.com,showcasecomicsandgames.net,mailed
Showcase Comics and Games,1015 W Lancaster Ave,Bryn Mawr,PA,19010,USA,Northeast,610-527-6236,brynmawrcomics@hotmail.com,showcasecomicsandgames.net,mailed
Silver Age Comics,22-55 31st Street Ste 208,Astoria,NY,11105,USA,Northeast,(718) 721-9691,gus@silveragecomics.com,www.silveragecomics.com,mailed
Silver Moon Comics and Collectibles,1 East India Square Mall #131,Salem,MA,01970,USA,Northeast,978-594-8641,silvermooncomics@yahoo.com,silvermooncomics.com,mailed
Silver Sprocket,1018 Valencia St,San Francisco,CA,94110,USA,West,628-280-8436,store@silversprocket.com,store.silversprocket.net,mailed
Skyscraper Comics,3291 Truxel Rd #11,Sacramento,CA,95833,USA,West,916-333-4145,skyscrapercomics@gmail.com,facebook.com/Skyscrapercomics,mailed
Snake Eyes Comics,9317 Kingston Pike Ste C-0,Knoxville,TN,37922,USA,Southeast,(865) 691-0203,boosttergold@yahoo.com,snakeeyescomics.com,mailed
Soundwave Music and Movies,1448 Boone Hill Rd,Summerville,SC,29483,USA,Southeast,(843) 821-8810,soundwaverecords@aol.com,soundwavecomics.com,mailed
Sour Cherry Comics,3187 16th St,San Francisco,CA,94103,USA,West,415-780-3513,sourcherrycomics@gmail.com,sourcherrycomics.com,mailed
Source Comics & Games,2057 Snelling Ave N,Roseville,MN,55113,USA,Midwest,,source@comicsandgames.com,sourcecomicsandgames.com,mailed
South Side Comics,1819 East Carson Street,Pittsburgh,PA,15203,USA,Northeast,412-251-5779,info@southsidecomicspgh.com,southsidecomicspgh.com,mailed
Southern California Comics,8280 Clairemont Mesa Blvd Ste 124,San Diego,CA,92111,USA,West,858-715-8669,socalcom@aol.com,socalcomics.com,mailed
Spandex City Comics & More,2914-A Mt Holly-Huntersville Rd,Charlotte,NC,28216,USA,Southeast,,service@spandexcity.com,spandexcity.com,mailed
Spineworks Comics NYC LLC,74-10 69th Rd 2nd Floor,Middle Village,NY,11379,USA,Northeast,646-360-0526,spineworkscomicsnyc@gmail.com,spineworkscomicsnyc.com,mailed
Squiggys Dugout,237A E Main St,New Rochelle,NY,10801,USA,Northeast,914-636-7585,squiggysdugout@gmail.com,squiggysdugout.com,mailed
St Marks Comics,51 35th St Ste B118,Brooklyn,NY,11232,USA,Northeast,212-598-9439,sales@stmarkscomics.com,stmarkscomics.com,mailed
Stadium Card and Comics,2061 Golfside Rd,Ypsilanti,MI,48197,USA,Midwest,(734) 434-0283,stadiumcc@gmail.com,stadiumcc.com,mailed
Stairway to Heaven Comics,109 Gosling Rd,Newington,NH,03801,USA,Northeast,603-319-6134,bradfordgile@yahoo.com,stairwaytoheavencomics.com,mailed
Sterling Silver Comics,2210 Pickwick Dr,Camarillo,CA,93010,USA,West,805-484-4708,mike@sterlingsilvercomics.com,sterlingsilvercomics.com,mailed
Summit Sports Comics & Games,4240 W Jefferson Blvd Ste M-8,Fort Wayne,IN,46804,USA,Midwest,2604362719,summitfwscg@gmail.com,summitfortwayne.com,mailed
Super Museum and Souvenir,517 Market St,Metropolis,IL,62960,USA,Midwest,618-524-5518,supermanmuseum@gmail.com,supermuseum.com,mailed
Super-fly Comics & Games,132 Dayton Street,Yellow Springs,OH,45387,USA,Midwest,(937) 767-1445,superflycomics@gmail.com,superflycomics.com,mailed
Superstars and Superheroes,1527 N Harrison St,Davenport,IA,52803,USA,Midwest,,suzlarr@yahoo.com,larryssuperstars.com,mailed
Surprise Comics,14763 W Cactus Rd Ste 107,Surprise,AZ,85379,USA,Southwest,623-213-7521,surprisecomicsaz@gmail.com,surprisecomics.com,mailed
Sword & Board,198 S School St,Ukiah,CA,95482,USA,West,707-463-1539,swordandboardukiah@gmail.com,swordandboard.net,mailed
Tales of Adventure,201 S 3rd St,Coopersburg,PA,18036,USA,Northeast,484-863-9178,TOAComics@gmail.com,toamagic.com,mailed
Tall Man Toys & Comics,609 N. Gay Street,Knoxville,TN,37917,USA,Southeast,(865) 333-5132,Mike@tallmantoys.com,tallmantoys.com,mailed
Tardys Collectors Corner Inc,2009 Eastern Ave SE,Grand Rapids,MI,49507,USA,Midwest,(616) 247-7828,tccorner@iserv.net,tardys.com,mailed
Tardys Underground Comics & Collectibles,228 1/2 Trowbridge St,Allegan,MI,49010,USA,Midwest,,allegan@tardys.com,tardys.com,mailed
Tates Comics,4566 North University Drive,Lauderhill,FL,33351,USA,Southeast,(954) 748-0181,emailus@tatescomics.com,http://www.tatescomics.com,mailed
Tates Comics + Toys + More,801 N Congress Avenue #604,Boynton Beach,FL,33426,USA,Southeast,(561) 742-5440,emailus@tatescomics.com,http://tatescomics.com,mailed
Taurus Comics,412 Huron Ave,Port Huron,MI,48060,USA,Midwest,,comicbookzen@yahoo.com,comicbookzen.com,mailed
TCs Rockets - Comics & Toys,5155 Waring Rd,San Diego,CA,92120,USA,West,619-713-0078,info@tcsrockets.com,tcsrockets.com,mailed
That's Entertainment,244 Park Ave,Worcester,MA,01609,USA,Northeast,(508) 755-4207,webmaster@thatse.com,http://www.thatse.com/,mailed
Thats Entertainment,56 John Fitch Hwy,Fitchburg,MA,01420,USA,Northeast,978-342-8607,fitch@thatse.com,www.thatse.com,mailed
The Amazing Comic Shop,10647 Braddock Rd.,Fairfax,VA,22032,USA,Southeast,,amazingcomicshop@gmail.com,amazingcomicshop.wordpress.com,mailed
The Batcave Comics and Toys,100 4th St,Santa Rosa,CA,95401,USA,West,707-755-3432,mike@batcavecomicsandtoys.com,batcavecomicsandtoys.com,mailed
The Book and Board,626 Main St,Winchester,MA,01890,USA,Northeast,781-570-2653,thebookandboard@gmail.com,thebookandboard.com,mailed
The Collective,520 W SR-436 Suite 1172,Altamonte Springs,FL,32714,USA,Southeast,(321) 295-7091,thecollective@thecollectivecomics.com,thecollectivecomics.com,mailed
The Collectors Outpost,2951 E Overland Rd Ste 170,Meridian,ID,83642,USA,West,208-668-7003,comics@thecollectorsoutpost.com,thecollectorsoutpost.com,mailed
The Collectors Zone,1425 Wildwood Ave,Jackson,MI,49202,USA,Midwest,,tcz@att.net,thecollectorszone.net,mailed
The Comic Book Shop,4750 N Division St #2130,Spokane,WA,99205,USA,West,,cbsnorthtown@gmail.com,thecomicbookshop.net,mailed
The Comic Book Shop,1855 Marsh Rd,Wilmington,DE,19810,USA,Northeast,(484) 475-7468,comicshop@thecomicbookshop.com,thecomicbookshop.com,mailed
The Comic Book Store,30 N. Main St.,Glassboro,NJ,08028,USA,Northeast,,alex@thecomicbookstore.net,thecomicbookstore.net,mailed
The Comic Bug Inc,1807 Manhattan Beach Blvd,Manhattan Beach,CA,90266,USA,West,310-372-6704,comicbugteam@gmail.com,thecomicbug.com,mailed
The Comic Bug Inc,10814 Jefferson Blvd Ste L,Culver City,CA,90230,USA,West,310-204-3240,info@thecomicbug.com,thecomicbug.com,mailed
The Comic Den LLC,4712 Eagle Rock Blvd,Los Angeles,CA,90041,USA,West,323-403-2272,joejam@thecomicdenllc.com,thecomicdenllc.com,mailed
The Comic Depot Inc,2847 Jerusalem Ave,Wantagh,NY,11793,USA,Northeast,(516) 221-9337,comdepot@optonline.net,www.thecomicbookdepot.com,mailed
The Comic Dimension,2823 Spring Garden St Ste E,Greensboro,NC,27403,USA,Southeast,,TheComicDimension@gmail.com,thecomicdimension.com,mailed
The Comic Monstore,813 Jake Alexander Blvd S,Salisbury,NC,28147,USA,Southeast,(704) 636-0049,comicmonstore@bellsouth.net,comicmonstore.com,mailed
THE COMIC SHOP,1815 6th Ave SE Ste D,Decatur,AL,35601,USA,Southeast,(256) 351-0225,marvelousmuncy@charter.net,facebook.com/marvelouscomicshop,mailed
The Comic Shop,112 E Bridge St,Oswego,NY,13126,USA,Northeast,315-343-8435,thecomicshopnewsletter@gmail.com,,mailed
The Comic Signal,4318 Plainfield Ave NE suite h,Grand Rapids,MI,49525,USA,Midwest,616-259-8017,ComicSignal@gmail.com,comicsignal.com,mailed
The Comic Stop,134 Main St,Watertown,MA,02472,USA,Northeast,617-926-3430,david@thecomicstop.com,thecomicstop.com,mailed
The Comic Store,115 Northeastern Blvd,Nashua,NH,03062,USA,Northeast,,Wayne.comicstore@gmail.com,,mailed
The Comic Store,28 McGovern Ave,Lancaster,PA,17602,USA,Northeast,(717) 397-8737,comicstore@juno.com,comicstorepa.com,mailed
The Comicade,27855 Orchard Lake Rd,Farmington Hills,MI,48334,USA,Midwest,248-987-4017,office.comicade@gmail.com,thecomicade.com,mailed
The Comics Closet,37 Old Farm Ln,Shrewsbury,PA,17361,USA,Northeast,717-942-2551,info@thecomicscloset.com,thecomicscloset.com,mailed
The Comics Club Inc,714 West Lumsden Road,Brandon,FL,33511,USA,Southeast,(813) 653-4111,mail@comicsclub.com,comicsclub.com,mailed
The Comics Swap  Inc.,110 S. Fraser St.,State College,PA,16801,USA,Northeast,,info@comicswap.biz,comicswap.net,mailed
The Core Comics & Games,1926 Valley Park Drive,Cedar Falls,IA,50613,USA,Midwest,,thecorecf@gmail.com,thecoreonline.com,mailed
The Deep Comics & Games,2312 Memorial Pkwy SW Ste A,Huntsville,AL,35801,USA,Southeast,(256) 532-1292,thedeepcomics@yahoo.com,deepcomics.com,mailed
The Escapist Comic Bookstore,3090 Claremont Ave,Berkeley,CA,94705,USA,West,510-652-6642,hello@escapistcomics.com,escapistcomics.com,mailed
The Eye Opener,15 Center Ct,Newington,CT,06111,USA,Northeast,(860) 666-5862,sabineda@netzero.net,theeyeopener.tripod.com,mailed
the geekery,19 Little St,Matawan,NJ,07747,USA,Northeast,732-696-8530,thegeekerynj@gmail.com,thegeekerynj.com,mailed
The Goblins Cavern,221 Danbury Rd,New Milford,CT,06776,USA,Northeast,860-799-7379,info@goblinscavern.com,goblinscavern.com,mailed
The Great Escape,5400 Charlotte Avenue,Nashville,TN,37209,USA,Southeast,(615) 385-2116,contactus@thegreatescapeonline.com,thegreatescapeonline.com,mailed
The Great Escape,2945 Scottsville Rd Ste B17-B18,Bowling Green,KY,42104,USA,Southeast,(270) 782-8092,thegreatescapebg@gmail.com,thegreatescapeonline.com,mailed
The Hall of Comics,122 Turnpike Rd Ste 2B,Westborough,MA,01581,USA,Northeast,508-485-1300,TheHallofComics@gmail.com,thehallofcomics.com,mailed
The Infinite Mushroom Comic & Game Shop,3550 South Washington Avenue Suite 29,Titusville,FL,32780,USA,Southeast,(321) 567-4893,rschreiber1@cfl.rr.com,infinitemushroom.com,mailed
The Joker's Child,12-23 River Rd,Fair Lawn,NJ,07410,USA,Northeast,(201) 794-6830,info@jokerschild.com,jokerschild.com,mailed
The Laughing Ogre,4258 N High St,Columbus,OH,43214,USA,Midwest,(614) 267-6473,highstreet@laughingogrecomics.com,laughingogrecomics.com,mailed
The Launchpad,712 W Lodi Ave,Lodi,CA,95240,USA,West,209-365-1981,launchpadcomics@gmail.com,launchpadcomics.blogspot.com,mailed
The Maroon Hornet Comics & Collectibles,62 S 3rd St,Oxford,PA,19363,USA,Northeast,610-745-7640,themaroonhornet@gmail.com,themaroonhornetcomics.com,mailed
The Outer Limits,437 Moody St,Waltham,MA,02453,USA,Northeast,(781) 891-0444,askouterlimits@aol.com,http://www.eouterlimits.com/,mailed
The Portal Comics and Gaming,321 Woodlawn Ave,Bethlehem,PA,18018,USA,Northeast,610-419-8004,inquiries@portalcng.com,theportalcomicsandgaming.com,mailed
The Realm Comics and Games,1500 W 4th St,Ontario,OH,44906,USA,Midwest,,therealmmtg@gmail.com,https://therealmmtg.wixsite.com/website/,mailed
The Spiders Web Comics & Collectibles,900 NY-376 Unit N,Wappingers Falls,NY,12590,USA,Northeast,845-592-1958,info@thespiderswebcomics.com,thespiderswebcomics.com,mailed
The Splash Page,2545 Central Avenue Suite C,Billings,MT,59102,USA,West,,scott@splashpagemontana.com,splashpagemontana.com,mailed
The Tangled Web,418 W Blackstock Rd,Spartanburg,SC,29301,USA,Southeast,(864) 574-1713,info@twebcomics.com,twebcomics.com,mailed
The Time Capsule,537 Pontiac Ave,Cranston,RI,02910,USA,Northeast,(401) 781-5017,ryeremian@aol.com,timecapsuleri.com,mailed
The Time Capsule,1732 Fall River Ave,Seekonk,MA,02771,USA,Northeast,508-336-4790,ryeremian@aol.com,timecapsulecomics.com,mailed
The Toys Time Forgot,137 Cherry St E,Canal Fulton,OH,44614,USA,Midwest,(330) 854-1700,toys@thetoystimeforgot.com,thetoystimeforgot.com,mailed
Things From Another World,4390 SW Lloyd Ave,Beaverton,OR,97005,USA,West,,beaverton@tfaw.com,tfaw.com,mailed
Things From Another World,10956 SE Main St,Milwaukie,OR,97222,USA,West,,milwaukie@tfaw.com,tfaw.com,mailed
Things From Another World,1000 Universal Studios Blvd Suite #101,Universal City,CA,91608,USA,West,818-622-8464,service@tfaw.com,tfaw.com,mailed
Third Coast Comics,6443 N Sheridan Rd,Chicago,IL,60626,USA,Midwest,847-863-7450,terry@thirdcoastcomics.com,thirdcoastcomics.com,mailed
Third Eye Comics,209 Chinquapin Round Rd Suite 200,Annapolis,MD,21401,USA,Southeast,(410) 897-0322,info@thirdeyecomics.com,thirdeyecomics.com,mailed
Third Eye Comics,78 Solomons Island Road,Prince Frederick,MD,20678,USA,Southeast,,info@thirdeyecomics.com,thirdeyecomics.com,mailed
Third Eye Comics,8005 Creighton Parkway B,Mechanicsville,VA,23111,USA,Southeast,,info@thirdeyecomics.com,thirdeyecomics.com,mailed
Third Eye Comics,12522 Mattawoman Dr,Waldorf,MD,20601,USA,South,240-412-0633,info@thirdeyecomics.com,thirdeyecomics.com,mailed
Third Eye Comics,45315 Alton Ln,California,MD,20619,USA,South,301-737-8838,info@thirdeyecomics.com,thirdeyecomics.com,mailed
Third Floor Comics,110 21st Street,Nitro,WV,25143,USA,Southeast,(304) 755-5002,thirdfloorcomics@hotmail.com,www.thirdfloorcomics.com,mailed
Third Planet,2718 Southwest Freeway,Houston,TX,77098,USA,Southwest,,3planet@third-planet.com,third-planet.com,mailed
Time and Space Comics,1075 Garrisonville Rd Ste 112,Stafford,VA,22554,USA,South,540-318-6097,TimeAndSpaceComics@gmail.com,timeandspacecomics.com,mailed
Time Tunnel Comics and Toys,265 2nd Ave SE,Hickory,NC,28602,USA,Southeast,(828) 325-9858,Timetunnelcomics@gmail.com,timetunnelcomics.com,mailed
Time Warp Comics & Games,555A Pompton Ave,Cedar Grove,NJ,07009,USA,Northeast,(973) 857-9788,friends@timewarpcomics.com,timewarpcomics.com,mailed
Time Warp Comics and Games,5290 Arapahoe Ave Unit K,Boulder,CO,80303,USA,West,,wizards@timewarpboulder.com,timewarpboulder.com,mailed
Timmy Macs,902 W Union St,Morganton,NC,28655,USA,Southeast,(828) 391-8162,timmymac1971@gmail.com,timmymacs.com,mailed
Titan Games & Comics Smyrna,2512 Cobb Pkwy SW,Smyrna,GA,30080,USA,Southeast,(770) 690-3110,titansmyrna@gmail.com,titangamesandcomics.com,mailed
Titan Moon Comics,200 Buttercup Creek Blvd Ste 118,Cedar Park,TX,78613,USA,Southwest,,titanmooncomics@gmail.com,titanmooncomics.com,mailed
To Be Continued Comics,2135 Defense Hwy Ste 2,Crofton,MD,21114,USA,Southeast,(410) 721-3001,tbcshop@yahoo.com,facebook.com/TBCComicshop,mailed
Top Shelf Comics,115 Main Street,Bangor,ME,04401,USA,Northeast,(207) 947-4939,topshelf@tcomics.com,www.tcomics.com,mailed
Tor Comics,997 Waverly Ave,Holtsville,NY,11742,USA,Northeast,(631) 758-4772,info@tor-comics.com,tor-comics.com,mailed
Torpedo Comics,7300 Arroyo Crossing Pkwy #105,Las Vegas,NV,89113,USA,West,,sales@torpedocomics.com,torpedocomics.com,mailed
Toy Soldier Games and Comics,113B Main St,Amesbury,MA,01913,USA,Northeast,,ToySoldierMick@gmail.com,toy-soldier-games.myshopify.com,mailed
Treasure Island Comics,37244 Fremont Blvd,Fremont,CA,94536,USA,West,510-744-9287,alex@treasureislandcomics.com,treasureislandcomics.com,mailed
Tribe Comics and Games,321 W Ben White Blvd Ste 101,Austin,TX,78704,USA,Southwest,,tribe@tribecag.com,tribecag.com,mailed
Trilogy Comics,700 E. Little Creek Rd.,Norfolk,VA,23518,USA,Southeast,,trilogy2@trilogycomics.net,trilogycomics.net,mailed
Trilogy Comics,5773 Princess Anne Rd,Virginia Beach,VA,23462,USA,Southeast,757-490-2205,trilogy1@trilogycomics.net,trilogycomics.net,mailed
True Believers Comics & Gallery,435 S Guadalupe St,Santa Fe,NM,87501,USA,Southwest,,laura@true-believers.com,true-believers.com,mailed
Turlock Comics,2717 Geer Rd,Turlock,CA,95382,USA,West,209-620-8190,turlockcomics@gmail.com,,mailed
Twilight Comics,208 Frank Scott Pkwy E,Swansea,IL,62226,USA,Midwest,618-416-2797,info@twilightcomics.com,twilightcomics.com,mailed
Two Guys Comics and Collectibles,155 Albany Turnpike,Canton,CT,06019,USA,Northeast,860-421-3079,info.2guyscomics@gmail.com,2guyscc.com,mailed
Ultimate Comics,3742 Durham-Chapel Hill Blvd,Durham,NC,27707,USA,Southeast,919-806-8282,ultimatecomicsonline@gmail.com,ultimatecomics.com,mailed
Ultimate Comics,218 Nottingham Dr,Cary,NC,27511,USA,South,919-377-8778,ultimatecomicsonline@gmail.com,ultimatecomics.com,mailed
Uncanny!,500 W Germantown Pike Ste 2060,Plymouth Meeting,PA,19462,USA,Northeast,,comicsandmore.pm@gmail.com,uncannyonline.com,mailed
Uncanny!,160 N Gulph Rd Ste 2361,King of Prussia,PA,19406,USA,Northeast,,uncannykop@gmail.com,uncannyonline.com,mailed
Undercity Comics,12920 Philadelphia St,Whittier,CA,90601,USA,West,562-696-1718,contactundercity@gmail.com,undercitycomics.com,mailed
Universal Comics,6986 Whipple Ave NW,North Canton,OH,44720,USA,Midwest,(330) 453-5985,kevin@universalcomics.net,universalcomics.net,mailed
University Comic Warehouse,2116 Central Ave SE,Albuquerque,NM,87106,USA,Southwest,,comics@c-warehouse.com,c-warehouse.com,mailed
Unknown Comic & Games,1212 Ross Street SUITE 200,Amarillo,TX,79102,USA,Northeast,(806) 290-1308,unknowncomicbooks@gmail.com,https://unknowncomicbooks.com/,mailed
Untamed Worlds,15241 Wards Rd Suite 5,Lynchburg,VA,24502,USA,Southeast,(434) 237-7115,store@untamedworlds.com,www.untamedworlds.com,mailed
Up Up & Away!,4016 Harrison Ave,Cincinnati,OH,45211,USA,Midwest,,kendall@upupandawaycomics.com,upupandawaycomics.com,mailed
Vans Comics & Cards,731 S Pear Orchard Rd Ste 1,Ridgeland,MS,39157,USA,Southeast,(601) 898-9950,vanscomics@gmail.com,http://vansccg.com,mailed
Vault of Midnight,219 S Main St,Ann Arbor,MI,48104,USA,Midwest,734-998-1413,annarbor@vaultofmidnight.com,vaultofmidnight.com,mailed
Vault of Midnight,95A Monroe Center St NW,Grand Rapids,MI,49503,USA,Midwest,616-776-9013,grandrapids@vaultofmidnight.com,vaultofmidnight.com,mailed
Victory Comics,586 S Washington Street,Falls Church,VA,22046,USA,Southeast,(703) 241-9393,victorycomics.fc@gmail.com,victorycomics.com,mailed
Video Game Exchange & Comics,830 E Fillmore St,Colorado Springs,CO,80907,USA,West,,info@videogamesandcomics.com,videogamesandcomics.com,mailed
Vintage Phoenix,114 E 6th St,Bloomington,IN,47408,USA,Midwest,812-333-2930,vintagephoenix@sbcglobal.net,vintagephoenixcomics.com,mailed
Von's Comics,317 W State St,West Lafayette,IN,47906,USA,Midwest,7657431991,vonscomics@gmail.com,vonscomics.wordpress.com,mailed
Wade's Comic Madness,8750 New Falls Rd,Levittown,PA,19054,USA,Northeast,(215) 946-9381,store@comicmadness.com,https://stores.comichub.com/wades_comic_madness,mailed
West Orange Comics and Video Games,1575 Maguire Rd #108,Ocoee,FL,34761,USA,South,407-741-3195,westorangecomicsandgames@gmail.com,,mailed
Whaling City Collectibles,33 Center Street,Fairhaven,MA,02719,USA,Northeast,(508) 999-3040,whalingcitycollectiblesma@yahoo.com,facebook.com/WHALINGCITYCOLLECTIBLES,mailed
White Dragon Comics,246 Stadden Rd Suite 202,Tannersville,PA,18372,USA,Northeast,570-234-5145,dragon@superherocomicbooks.com,superherocomicbooks.com,mailed
Wild Things Games & Comics,241 Commercial St NE,Salem,OR,97301,USA,West,,rush@wild-things.com,wildthingsgames.com,mailed
Wizard Asylum Comics & Games,7165 S Mingo Rd,Tulsa,OK,74133,USA,Southwest,(918) 250-2077,wizardsasylum_ebay@yahoo.com,wizardscomicsandgames.com,mailed
Wonder Cards & Comics,445 Route 302,Barre,VT,05641,USA,Northeast,(802) 476-4706,roydatema3@gmail.com,wondercardsandcomics.com,mailed
Wonderland Comics,160 Main St,Putnam,CT,06260,USA,Northeast,860-963-1027,info@wonderlandcomics.com,wonderlandcomics.com,mailed
Wonderland Comics,1409 N Van Ness Ave,Fresno,CA,93728,USA,West,559-268-3950,barber@wonderlandcomics.com,,mailed
Wonderland Comics,1620 Penfield Rd,Rochester,NY,14625,USA,Northeast,585-248-0450,wonderlandcomicsny@gmail.com,,mailed
Wonderworld Comics,22347 Ecorse Rd,Taylor,MI,48180,USA,Midwest,313-292-8697,staff@wonderworldcomics.com,http://www.wonderworldcomics.com/,mailed
World of Games,20777 Holyoke Avenue,Lakeville,MN,55044,USA,Midwest,,worldofgamesonline@gmail.com,worldofgamesonline.com,mailed
Worlds Best Comics and Toys,2608 Watt Ave,Sacramento,CA,95821,USA,West,(916) 973-8973,dave@wbcomics.com,wbcomics.com,mailed
Worlds End Comics,319 Wall St Unit 1,Kingston,NY,12401,USA,Northeast,845-689-4793,weckingston@gmail.com,worldsendkingston.com,mailed
Yesteryear Comics,9353 Clairemont Mesa Blvd,San Diego,CA,92123,USA,West,858-279-6121,yesteryearcomics@yahoo.com,yesteryear-comics.com,mailed
YottaQuest,7607 Hamilton Ave,Cincinnati,OH,45231,USA,Midwest,,matthewm@yottaquest.com,yottaquest.com,mailed
Zapp! Comics,574 Valley Road,Wayne,NJ,07470,USA,Northeast,(973) 628-4500,zappcomics@aol.com,www.zappcomics.com,mailed
Zapp! Comics,700 Tennent Rd Ste 5,Manalapan,NJ,07726,USA,Northeast,(732) 617-1333,zappcomics@aol.com,http://www.zappcomics.com,mailed
Zeppelin Comics,929 1st St,Benicia,CA,94510,USA,West,707-687-8131,info@zeppelincomics.com,zeppelincomics.com,mailed
Zombie Planet,1238 Central Avenue,Albany,NY,12205,USA,Northeast,(518) 438-7202,zombiekhan@aol.com,www.zombie-planet.com,mailed
Zombie Unicorn Comics,3417 W Peterson Ave,Chicago,IL,60659,USA,Midwest,773-754-7388,gryendhouse@ryeink.net,zombieunicorncomics.com,mailed
Zone Comic Shop,285 N Hubbards Ln STE 200,Louisville,KY,40207,USA,Southeast,5028938654,thezone@zonecomicshop.com,zonecomicsandtoys.com,mailed
Zone Comics and Games,18107 Dixie Hwy,Homewood,IL,60430,USA,Midwest,708-798-1006,alex@thezonecomics.com,thezonecomics.com,mailed
Sanctum Tattoos and Comics,2325 1st Ave N,Birmingham,AL,35203,USA,Southeast,(205) 201-1072,SanctumTattoosAndComics@gmail.com,sanctumtattoosandcomics.com,mailed
LFG! Comic and Game,409 3rd ST NW Suite A,Attalla,AL,35954,USA,Southeast,(256) 789-9177,Owner@LFGComics.com,lfgcomics.com,mailed
Covert Comics & Collectibles,107 S McKenzie St,Foley,AL,36535,USA,Southeast,(251) 377-9690,jason@foleycomics.com,covertcomics.com,mailed
Izzy's Coffee & Collectibles,722 McFarland Blvd,Northport,AL,35476,USA,Southeast,(205) 579-5322,izzyscoffee1@gmail.com,izzyscomics.com,mailed
Quality Comix,7061 Halcyon Summit Dr,Montgomery,AL,36117,USA,Southeast,(800) 548-3314,contact@qualitycomix.com,qualitycomix.com,mailed
Port City Comics,3960 Government Blvd,Mobile,AL,36693,USA,Southeast,(251) 259-0928,[email protected],,mailed
The Comic Strip,503 Hargrove Rd E Ste 10,Tuscaloosa,AL,35401,USA,Southeast,(205) 764-9756,greghulsey1970@hotmail.com,thecomicstriptuscaloosa.com,mailed
Almost Anything,221 S 9th St,Opelika,AL,36801,USA,Southeast,(334) 741-0808,almostanythingopelika@gmail.com,almostanythingopelika.com,mailed
The Comic Shop,418 3rd St #5b,Fairbanks,AK,99701,USA,West,(907) 452-5780,orders@akcomicshop.com,akcomicshop.com,mailed
BOSCO'S,2301 Spenard Road,Anchorage,AK,99503,USA,West,(907) 274-4112,info@boscos.com,boscos.com,mailed
BOSCO'S 2,800 E Dimond Blvd Suite 3-119,Anchorage,AK,99515,USA,West,(907) 349-3963,info@boscos.com,boscos.com,mailed
Justice Comics,1805 E Elliot Rd Suite 101,Tempe,AZ,85284,USA,Southwest,(602) 679-0300,info@collectorschoicecomics.com,justicecomicbooks.com,mailed
Bird City Comics,10001 W Bell Rd #147,Sun City,AZ,85351,USA,Southwest,(480) 490-3622,birdcitycc@gmail.com,birdcitycomics.com,mailed
Space Monkey Comics,7431 E 22nd St,Tucson,AZ,85710,USA,Southwest,(520) 561-6100,Spacemonkeycomicsaz@gmail.com,spacemonkeycomicsaz.com,mailed
Fantastic Worlds Comics,9393 N 90th Street Suite 119,Scottsdale,AZ,85258,USA,Southwest,(480) 256-1454,bill@fantasticworldscomics.com,fantasticworldscomics.com,mailed
Peregrine Book Company,219A North Cortez Street,Prescott,AZ,86301,USA,Southwest,(928) 445-9000,info@peregrinebookcompany.com,peregrinebookcompany.com,mailed
Monster Comic Books,2155 E University Dr Ste 109,Tempe,AZ,85288,USA,Southwest,(480) 508-4839,martyn@monstercomicbooks.com,monstercomicbooks.com,mailed
Samurai Comics,1994 N Alma School Rd,Chandler,AZ,85224,USA,Southwest,(480) 855-2919,chandler@samuraicomics.com,samuraicomics.com,mailed
Samurai Comics,6808 N Dysart Rd #148,Glendale,AZ,85307,USA,Southwest,(623) 872-8886,glendale@samuraicomics.com,samuraicomics.com,mailed
Collectors Marketplace,4031 N 24th St Ste A,Phoenix,AZ,85016,USA,Southwest,(480) 442-1117,retrorocketaz@yahoo.com,collectorsmarketplace.com,mailed
Cab Comics,1471 S Milton Rd,Flagstaff,AZ,86001,USA,Southwest,(928) 774-1655,cabcomics@gmail.com,cabcomicsaz.com,mailed
Orbital Games and Comics,2200 El Mercado Loop #1170,Sierra Vista,AZ,85635,USA,Southwest,(520) 265-1669,admin@orbitalgamesaz.com,orbitalgamesaz.com,mailed
Game On,1841 E State Route 69 Ste 100,Prescott,AZ,86301,USA,Southwest,(928) 227-2000,Nextdoor@GameOnArizona.com,gameonarizona.com,mailed
Amazing Discoveries,745 N Gilbert Rd #116,Gilbert,AZ,85234,USA,Southwest,(480) 386-2284,gilbert@amazingmtg.com,amazingmtg.com,mailed
Baxter's Games and Cards,18530 E San Tan Blvd Suite 116,Queen Creek,AZ,85142,USA,Southwest,(480) 219-4082,baxtersaz@gmail.com,baxtersrealm.com,mailed
Brandon's Comics,1833 E Southern Ave,Tempe,AZ,85282,USA,Southwest,(480) 838-0467,brandonscomics@gmail.com,brandonscomics.com,mailed
Presidio Comics,4500 N Oracle Rd Ste 270,Tucson,AZ,85705,USA,Southwest,(520) 261-7623,[email protected],presidiocomics.com,mailed
Strange Adventures,2000 E Rio Salado Pkwy Suite 1234,Tempe,AZ,85288,USA,Southwest,(480) 910-3512,info@strangeadventurescomics.com,strangeadventurescomics.com,mailed
The Daily Scoope: Comics & Collectibles,9330 W McDowell Rd #1023,Phoenix,AZ,85037,USA,Southwest,(602) 435-3801,thedailyscoope@gmail.com,the-daily-scoope-comics-collectibles.ueniweb.com,mailed
Collector Haven Comics,9501 W Peoria Ave #107,Peoria,AZ,85345,USA,Southwest,(602) 368-8685,collectorhaven@hotmail.com,collectorhaven.com,mailed
D2 Comics and More,3 Crestview Plaza,Jacksonville,AR,72076,USA,Southeast,(501) 733-9755,d2comicsandmore@gmail.com,d2comicsandmore.com,mailed
Bonesy Jonesy's Comics and Collectibles,1301 Stone St,Jonesboro,AR,72401,USA,Southeast,(870) 203-6008,info@bonesyjonesycomics.com,bonesyjonesycomics.com,mailed
Arkham Comics & Used Books,514 W Main St,Blytheville,AR,72315,USA,Southeast,(870) 776-1021,arkham_comics@yahoo.com,arkhamcomics.weebly.com,mailed
Flames of the Phoenix Comics,105 North Rodney Parham Road,Little Rock,AR,72205,USA,Southeast,(501) 651-1792,flamesofthephoenixllc@gmail.com,fotpcomics.com,mailed
Once Upon A Time Books and Caf,462 E Henri De Tonti Blvd,Springdale,AR,72762,USA,Southeast,(479) 927-6001,support@onceuponatimebooks.com,onceuponatimebooks.com,mailed
Collector's Paradise,1075 E Bullard Ave Suite 104,Fresno,CA,93710,USA,West,(559) 439-3511,store@comicsandcards.net,comicsandcards.net,mailed
Rogue's Gallery Comics,2322 East Matthews,Jonesboro,AR,72401,USA,Southeast,(870) 932-2346,roguesgallery13@gmail.com,,mailed
Conway Comics,195 Farris Rd,Conway,AR,72034,USA,Southeast,(501) 327-8380,conwaycomics@gmail.com,,mailed
Starbase 505,505 E Industrial Pl,Palm Springs,CA,92264,USA,West,(760) 424-8155,info@starbase-505.com,starbase-505.com,mailed
The Comic Den,4912 W Slauson Ave,Los Angeles,CA,90056,USA,West,(323) 403-2272,joejam@thecomicdenllc.com,thecomicdenllc.com,mailed
Comic Asylum,6963 W 111th St,Worth,IL,60482,USA,Midwest,(773) 653-5102,comicasylum760@gmail.com,comicasylum.com,mailed
Atlantis Fantasyworld,1020 Cedar St,Santa Cruz,CA,95060,USA,West,(831) 426-0158,joe@atlantisfantasyworld.com,atlantisfantasyworld.com,mailed
Comics Plus,547 I St,Los Banos,CA,93635,USA,West,(209) 827-8847,lb.comicsplus@att.net,comicsplusstore.com,mailed
A Hidden Fortress,1960 Sequoia Avenue Unit #10,Simi Valley,CA,93063,USA,West,(805) 526-6457,support@ahiddenfortress.com,ahiddenfortress.com,mailed
Anime Island,4060 El Cerrito Plaza,El Cerrito,CA,94530,USA,West,(510) 365-0257,info@animeislandca.com,animeislandca.com,mailed
Linebreakers,15491 Seventh St,Victorville,CA,92395,USA,West,(760) 951-8406,Service@Linebreakerscomics.com,comicbooksurplus.com,mailed
"We Can Be Heroes Comics, TCG, Studio",9449 Desoto St,Chatsworth,CA,91311,USA,West,(818) 960-4699,wecanbeheroescomics@gmail.com,wecanbeheroescomics.com,mailed
Moe's Books,2476 Telegraph Ave,Berkeley,CA,94704,USA,West,(510) 849-2087,info@moesbooks.com,moesbooks.com,mailed
Gryphon's Nest,100 Brown Street Suite 110,Sebastopol,CA,95472,USA,West,(707) 634-6541,GryphonsNestGaming@gmail.com,gryphonsnestgaming.com,mailed
Rocket Comics,403 E Arrow Hwy Suite 301,San Dimas,CA,91773,USA,West,(626) 541-2561,comics@rocket-comics.net,rocket-comics.com,mailed
P Dot's Comics & Collectibles,1505 N Lake Ave,Pasadena,CA,91104,USA,West,(626) 798-1455,pdotcomics@hotmail.com,pdotscomics.com,mailed
Captain Nemo Games & Comics,563 Higuera St,San Luis Obispo,CA,93401,USA,West,(805) 544-6366,sales@captainnemo.biz,captainnemo.biz,mailed
Leisure Time Games,159 Town Center East,Santa Maria,CA,93454,USA,West,(805) 614-4263,kjggames@aol.com,leisuretimegames.com,mailed
Comic Cellar,135 W Main St,Alhambra,CA,91801,USA,West,(626) 570-8743,comiccellar@comiccellar.com,comiccellar.com,mailed
Anime Imports & CCG Center,116 Manor Dr Suite A,Pacifica,CA,94044,USA,West,(650) 359-1127,questions@animeimports.net,animeimports.net,mailed
D J's Universal Comics,11390 Ventura Blvd Suite 9,Studio City,CA,91604,USA,West,(818) 761-3465,catscomics1@sbcglobal.net,djsuniversalcomics.com,mailed
This n That Collectibles Show,4045 W Figarden Dr Ste 105,Fresno,CA,93722,USA,West,(559) 825-3993,this.n.that.fresno@gmail.com,thisnthatcollectibles.com,mailed
King's Comic Books,2284 Fulton St,Berkeley,CA,94704,USA,West,(510) 548-1062,dk@dking-gallery.com,kingscomicbooks.com,mailed
Piland's Cards and Games,526 Broadway St,Chico,CA,95928,USA,West,(530) 828-2718,Pilandscards@yahoo.com,pilands-cards-and-games.business.site,mailed
JNA Collectibles Corporation,714 W Fremont St,Stockton,CA,95203,USA,West,(209) 547-0577,jnacollect@aol.com,,mailed
FLIPMODE,403 East Arrow Highway Suite #301,San Dimas,CA,91773,USA,West,(626) 991-4949,FLIPMODECOMICS@GMAIL.COM,comicbooksntoys.com,mailed
Heroes & Champions Willow Glen,2050 Lincoln Ave,San Jose,CA,95125,USA,West,(408) 266-1103,heroesandchampions@gmail.com,heroesandchampionscomics.com,mailed
Magic & Monsters,23854 Via Fabricante Unit B1,Mission Viejo,CA,92691,USA,West,(949) 829-9809,Magicandmonsters@yahoo.com,magicandmonsters.com,mailed
The Cave,2265 Arden Way,Sacramento,CA,95825,USA,West,(916) 860-4809,drewrad@hotmail.com,thecavestores.com,mailed
Comics & Anime,22500 Town Cir Ste 2106,Moreno Valley,CA,92553,USA,West,(714) 673-8440,itluxe@live.com,comicsanime.com,mailed
TVN Sports Cards & Collectibles,2727 W Clinton Ave,Fresno,CA,93705,USA,West,(559) 486-8664,support@tvnsportscards.com,tvnsportscards.com,mailed
Abolition Comix,2520 Telegraph Ave,Oakland,CA,94612,USA,West,,abocomix@gmail.com,abocomix.com,mailed
Monkey Paw Toys,1555 S Havana St Unit G,Aurora,CO,80012,USA,West,(720) 708-5228,monkey.paw.toys@gmail.com,monkeypawtoys.com,mailed
Collectibles Marketplace,8425 W Colfax Ave,Lakewood,CO,80215,USA,West,(720) 459-5981,order@questforcollectibles.com,tcm-denver.com,mailed
Eagle Valley Music & Comics,211 Main Street,Minturn,CO,81645,USA,West,(970) 476-1713,eaglevalleymusic@aol.com,,mailed
NewCastle Comics & Games,508 5th Ave,Longmont,CO,80501,USA,West,(720) 731-2658,locohelp@newcastlecomics.com,newcastlecomics.com,mailed
Danny the Comic Shop,1580 Teller St,Lakewood,CO,80214,USA,West,(720) 706-2682,info@dannythecomicshop.com,dannythecomicshop.com,mailed
Muse Comics + Games,1338 N Academy Blvd,Colorado Springs,CO,80909,USA,West,(719) 573-7096,musecomicsco@gmail.com,musecomicscolorado.com,mailed
Coffee Cat Comics,14500 W Colfax Ave Ste 310,Lakewood,CO,80401,USA,West,(303) 927-8302,sales@coffeecatcomics.com,coffeecatcomics.com,mailed
Iron Lion Collectibles,8003 North Academy Boulevard,Colorado Springs,CO,80920,USA,West,(719) 424-7264,info@ironlioncollectibles.com,ironlioncollectibles.com,mailed
Gryphon Games and Comics,1119 W Drake Rd C-30,Fort Collins,CO,80526,USA,West,(970) 224-3599,gryphon@gryphon.coop,gryphon.coop,mailed
Heroes and Horrors Games,1215-B Main St,Windsor,CO,80550,USA,West,(970) 833-5128,hnhgames@gmail.com,heroesandhorrorsgames.com,mailed
Hero Headquarters Comics and Toys,8757 Sheridan Boulevard,Westminster,CO,80003,USA,West,(303) 426-0768,herohq@comcast.net,hero-headquarters-comics-and-toys.business.site,mailed
The Nerd Store,807 8th St,Greeley,CO,80631,USA,West,(970) 978-4275,thenerdstore@yahoo.com,thenerdstore.us,mailed
KaPow Comics & Coffee,4239 N Nevada Ave,Colorado Springs,CO,80907,USA,West,(719) 896-4376,contact@kapowcomicsandcoffee.com,kapowcomicsandcoffee.com,mailed
Mutiny Comics & Coffee,3483 S Broadway,Englewood,CO,80113,USA,West,(303) 778-7579,comics@mutinyinfocafe.com,mutinycomics.com,mailed
Heroes & Dragons,4408 Austin Bluffs Pkwy,Colorado Springs,CO,80918,USA,West,(719) 388-9524,admin@heroesanddragonscomics.com,heroesanddragonscomics.com,mailed
VAN'S COMICS GAMES CARDS,2427 N Academy Blvd,Colorado Springs,CO,80909,USA,West,(719) 896-5841,vanscards1@gmail.com,vanscomics.square.site,mailed
Belmont Press Comics,2575 S Syracuse Way A303,Denver,CO,80231,USA,West,(720) 422-6924,justinbelmont77@gmail.com,belmontpresscomics.com,mailed
Memorabilia Brokers,15 Danbury Road,Wilton,CT,06897,USA,Northeast,(203) 210-7465,support@memorabiliabrokers.com,memorabiliabrokers.com,mailed
Hidden Treasures Collectibles and Gifts,499 Federal Rd Unit 10,Brookfield,CT,06804,USA,Northeast,(203) 546-8443,gifts@hiddentreasures-collectibles.com,hiddentreasures-collectibles.com,mailed
Boom Tube Comics,1475 Meriden-Waterbury Turnpike,Milldale,CT,06467,USA,Northeast,(203) 537-2755,requests@boomtubecomics.com,boomtubecomics.com,mailed
Comics & Coffee,497 Winthrop Rd,Deep River,CT,06417,USA,Northeast,(203) 779-9701,info@comicscoffee.com,comicscoffee.com,mailed
2nd Alarm Comics,205 Foxon Rd,North Branford,CT,06471,USA,Northeast,(203) 464-0354,2ndalarmcomics@gmail.com,2ndcomics.com,mailed
The Grid Games,52 Purnell Pl,Manchester,CT,06040,USA,Northeast,(860) 645-9006,The_Grid@yahoo.com,thegridgames.net,mailed
DJ's Cards and Comics,1 Lincoln Street,North Haven,CT,06473,USA,Northeast,(203) 234-2989,djscardcomicclub@yahoo.com,djscardsandcomics.com,mailed
Megajoule Comics and Collectibles,400 Silverside Rd,Wilmington,DE,19809,USA,Northeast,(302) 946-1616,megajoulecomics@gmail.com,megajoulecnc.tcgplayerpro.com,mailed
Born to Game,547 S Red Haven Ln,Dover,DE,19901,USA,Northeast,(302) 387-1129,btgdover@gmail.com,borntogame.net,mailed
Pedigree Comics,14584 Autumn Ave,Wellington,FL,33414,USA,Southeast,(561) 422-1120,DougSchmell@pedigreecomics.com,pedigreecomics.com,mailed
Defender Comics,8501 Astronaut Blvd,Cape Canaveral,FL,32920,USA,Southeast,(321) 413-3155,darthdarrell@defendercomics.com,defendercomics.com,mailed
McNulty's Sports Cards & Memorabilia,1540 NW Federal Hwy,Stuart,FL,34994,USA,Southeast,(772) 446-7545,mcnultysportscards@gmail.com,mcnultysportscards.com,mailed
GameMasters Guild,743 Ashley Dr,Crestview,FL,32536,USA,Southeast,(850) 682-0022,gmgcrestview@aol.com,gmgcrestview.com,mailed
Urban Legend Comics,1337 Oakfield Dr,Brandon,FL,33511,USA,Southeast,(813) 943-1728,info@urbanlegendcomicsofbrandon.com,urbanlegendcomicsofbrandon.com,mailed
Bat City Comic Professionals,915 Manatee Ave E,Bradenton,FL,34208,USA,Southeast,(941) 714-0402,contact@batcity.org,batcity.org,mailed
Plant City Comic Cafe,303 S Collins St,Plant City,FL,33563,USA,Southeast,(813) 441-4707,Info@plantcitycomiccafe.com,plantcitycomiccafe.com,mailed
Six Strings & Superheroes,5645 Main St,New Port Richey,FL,34652,USA,Southeast,(727) 842-2298,sixstringsandsuperheroes@gmail.com,sixstringsandsuperheroes.com,mailed
Bearded Browncoat Comics & Games,500 SW 10th St Suite 200,Ocala,FL,34471,USA,Southeast,(352) 433-2249,beardedbrowncoat@gmail.com,beardedbrowncoat.com,mailed
"KnoWhere Toys, Comics & Gaming",7312 W 20th Ave,Hialeah,FL,33016,USA,Southeast,(786) 502-2256,info@knowheretoys.com,knowheretoys.com,mailed
Sky High Comics & Games,2717 Peters Rd,Fort Pierce,FL,34945,USA,Southeast,(772) 882-9775,ch@skyhighcg.com,skyhighcg.com,mailed
Pensacola Pop Comics,909 N 12th Ave,Pensacola,FL,32501,USA,Southeast,(850) 465-3288,pcolapopcomics@gmail.com,pensacolapopcomics.com,mailed
Docking Bay 94 Comics and Games,7710 NW 56th Way Ste 100,Coconut Creek,FL,33073,USA,Southeast,(954) 427-1694,comicsandgames@comcast.net,comicsandgames.com,mailed
Coliseum of Comics,4401 NW 25th Place Suite G,Gainesville,FL,32606,USA,Southeast,(352) 378-7529,gainesville@coliseumofcomics.com,coliseumofcomics.com,mailed
Cliff's Books,209 N Woodland Blvd,DeLand,FL,32720,USA,Southeast,(386) 738-9464,cliffsbooksdeland@gmail.com,cliffsbooks.net,mailed
Arena Comics & Gaming,1826 Lisenby Ave,Panama City,FL,32405,USA,Southeast,(850) 387-6860,arenacomics@knology.net,arenacomics.us,mailed
BOC Collectibles,462392 State Rd 200 Unit 7,Yulee,FL,32097,USA,Southeast,(904) 303-9565,boccollectibles@gmail.com,,mailed
Bob's News & Books,1515 S Andrews Ave,Fort Lauderdale,FL,33316,USA,Southeast,(954) 524-4731,sales@bobsnewsandbooks.com,bobsnewsandbooks.com,mailed
Scout Comics,10231 Metro Pkwy Suite 100,Fort Myers,FL,33966,USA,Southeast,(239) 672-4497,store@scoutcomics.com,scoutcomics.com,mailed
Dark Side,935 N Beneva Rd Unit 902,Sarasota,FL,34232,USA,Southeast,(941) 363-0840,info@darksidecomics.com,darksidecomics.com,mailed
TBS Comics & Games,6895 N 9th Ave,Pensacola,FL,32504,USA,Southeast,(850) 474-1419,tbscomics@outlook.com,tbscomics.com,mailed
Cosmic Comics,8301 Cypress Plaza Dr Bldg 300 Ste 124,Jacksonville,FL,32256,USA,Southeast,(904) 631-9755,mycosmiccomics@gmail.com,,mailed
Wonder Water Sports Cards Comics & Games,29113 US Hwy 19 N,Clearwater,FL,33761,USA,Southeast,(727) 799-4855,roberto.wonderwater@gmail.com,,mailed
Nerd Out Comics,706 B West Martin Luther King Jr Blvd,Tampa,FL,33603,USA,Southeast,(813) 810-6298,[email protected],nerdouttampa.com,mailed
Coliseum of Comics Oakleaf,9630 Crosshill Blvd Suite 106,Jacksonville,FL,32222,USA,Southeast,(904) 503-8368,oakleaf@coliseumofcomics.com,coliseumofcomics.com,mailed
All Star Sportscards & Comics,7241 NW 4th Blvd,Gainesville,FL,32606,USA,Southeast,(352) 372-2700,comicartfiend@yahoo.com,gainesvillecomics.com,mailed
Chewmies Comics & Collectibles,5704 N Nebraska Ave,Tampa,FL,33604,USA,Southeast,(813) 374-3434,info@chewmies.com,chewmies.com,mailed
Area 51 Comics,W Navy Blvd,Pensacola,FL,32507,USA,Southeast,(850) 723-9198,[email protected],,mailed
Big Dog Comics,4804 S US Hwy 1,Fort Pierce,FL,34982,USA,Southeast,(772) 466-7323,bigdogcomics@bellsouth.net,bigdogcomics.com,mailed
Heartwood Books & Art,3536 N Federal Hwy Suite 201,Fort Lauderdale,FL,33308,USA,Southeast,(954) 565-8020,[email protected],heartwoodbooksandart.com,mailed
Sentinel Comics,5500 Whittlesey Blvd Unit 200,Columbus,GA,31909,USA,Southeast,(706) 987-7755,[email protected],sentinelcomicsga.com,mailed
Myth & Fable: Comics and Cosplay,804 Chickamauga Ave,Rossville,GA,30741,USA,Southeast,(706) 841-4329,mythandfable@gmail.com,mythandfablecomics.com,mailed
Neighborhood Comics Clubhouse,822 E Derenne Ave,Savannah,GA,31405,USA,Southeast,(912) 349-3095,team@neighborhoodcomics.com,neighborhoodcomics.com,mailed
Collectibles Comics and Cards of Pickens,4077 Camp Rd Suite A,Jasper,GA,30143,USA,Southeast,(706) 273-9198,comicscardsandcollectibles1@gmail.com,comicscardsandcollectiblesofpickens.com,mailed
Buddy's Comics,913 Hill St Ste A,LaGrange,GA,30240,USA,Southeast,(706) 881-5837,buddy@buddyscomics.com,buddyscomics.com,mailed
Neighborhood Comics,1205 Bull St,Savannah,GA,31401,USA,Southeast,(912) 349-3095,wholesale@neighborhoodcomics.com,neighborhoodcomics.com,mailed
Nerd U Comics and Collectables,55 State St,Commerce,GA,30529,USA,Southeast,(706) 336-8282,nerducomics@gmail.com,,mailed
Blue Ridge Toys,45 N Main St,Clayton,GA,30525,USA,Southeast,(706) 707-8697,BlueRidgeToys@gmail.com,blueridgetoys.com,mailed
Galactic Comics & Games,21 E Vine St,Statesboro,GA,30458,USA,Southeast,(912) 489-3123,galacticcg@gmail.com,galacticcg.com,mailed
Steel Collectibles,3920 Cherokee St NW Suite 107,Kennesaw,GA,30144,USA,Southeast,(770) 675-3424,steelcollectibles@gmail.com,steelcollectibles.com,mailed
Kapow! Comics & Games,540 Lake Center Pkwy Suite 108,Cumming,GA,30040,USA,Southeast,(678) 807-7646,kapowcomic@gmail.com,kapowgames.net,mailed
Planet Fun,127 E Broughton St,Savannah,GA,31401,USA,Southeast,(912) 201-0228,colincantwellcb@gmail.com,planetfunsavannah.wordpress.com,mailed
Heroes and Villains of Warner Robins,117 Russell Pkwy Suite F&G,Warner Robins,GA,31088,USA,Southeast,(478) 322-0004,admin@heroesandvillainscomics.net,heroesandvillainscomics.net,mailed
Top Dog Comics,2701 Washington Rd,Augusta,GA,30909,USA,Southeast,(706) 650-5737,topdogcomicsllc@gmail.com,topdogcomics.com,mailed
"Bizarro-Wuxtry Comics, Toys, & Stuff",225 College Ave,Athens,GA,30601,USA,Southeast,(706) 353-7938,bizarro@spook-town.com,bizarrowuxtry.com,mailed
Infinite Games,132 W Montgomery St,Villa Rica,GA,30180,USA,Southeast,(678) 753-4646,hello@infinitegamesga.com,infinitegamesga.com,mailed
Arkham Games and Comics,1121 E Shotwell St,Bainbridge,GA,39819,USA,Southeast,(229) 515-3027,arkhamgamesandcomics@gmail.com,arkhamgamesandcomics.com,mailed
ashlingbooksellers,47 Doyle St,Toccoa,GA,30577,USA,Southeast,(706) 886-2665,email@ashlingbooksellers.com,ashlingbooksellers.com,mailed
GuuBuu Hobby,3334 Stone Mountain Hwy Suite E,Snellville,GA,30078,USA,Southeast,(470) 395-6999,support@guubuu.com,guubuu.com,mailed
Challenges Games & Comics,4800 Briarcliff Rd NE Suite 1011,Atlanta,GA,30345,USA,Southeast,(678) 973-0410,info@challengesgames.com,challengesgames.com,mailed
Anime-zing Escape,507A Stanley K Tanger Blvd,Locust Grove,GA,30248,USA,Southeast,(770) 914-8282,animezingescape@aol.com,anime-zingescape.com,mailed
CollegeComix.com,3701 Atlanta Hwy Suite 24,Athens,GA,30606,USA,Southeast,(706) 817-4222,support@collegecomix.com,collegecomix.com,mailed
ATL Comics & Cards,1190 Canton Rd Suite 110,Marietta,GA,30067,USA,Southeast,(770) 794-2277,atlcomicscards@gmail.com,atlcomicscards.com,mailed
Akihabara Tokyo Store,1960 Kapiolani Blvd Suite 213,Honolulu,HI,96826,USA,West,(808) 955-0585,info@akihabara-tokyo.com,akihabara-tokyo.com,mailed
Westside Comics and Games,99-080 Kauhale St Ste C16,Aiea,HI,96701,USA,West,(808) 674-2866,service@westsidecomicsandgames.com,westsidecomicsandgames.com,mailed
Tanoshi Anime and Toys,1023 Yellowstone Ave Ste K,Pocatello,ID,83201,USA,West,(208) 233-4277,Tanoshianimeandtoys@gmail.com,tanoshianime.com,mailed
ABU Games,7211 W Colonial St,Boise,ID,83709,USA,West,(208) 376-6019,Matthew.Hibbard@abugames.com,abugames.com,mailed
Safari Pearl,660 W Pullman Rd,Moscow,ID,83843,USA,West,(208) 882-9499,safaripearl@moscow.com,safaripearl.com,mailed
Inner Circle Comics and Games,2099 E 17th St,Idaho Falls,ID,83404,USA,West,(208) 201-0358,innercirclegamesif@gmail.com,innercirclecomicsandgames.com,mailed
Howling Pages,4354 N Milwaukee Ave,Chicago,IL,60641,USA,Midwest,(773) 395-0010,info@howlingpages.com,howlingpages.com,mailed
Graham Crackers Comics Website,624 W Center Street,Sandwich,IL,60548,USA,Midwest,,notification@grahamcrackers.com,grahamcrackers.com,mailed
JNS Toys & Hobby Supplies,202 NE Main Street,Grant Park,IL,60940,USA,Midwest,(815) 349-4659,Info@jnstoys.com,jnstoys.com,mailed
Galactic Games and Things,104 E Main St,Olney,IL,62450,USA,Midwest,(618) 392-2143,galacticgmz@gmail.com,,mailed
AlleyCat Comics,5304 N Clark St,Chicago,IL,60640,USA,Midwest,(773) 907-3404,Orders@alleycatcomics.com,alleycatcomics.com,mailed
Comic Buying Center,624 E Park Ave Ste D,Libertyville,IL,60048,USA,Midwest,(847) 513-2666,info@comicbuyingcenter.com,comicbuyingcenter.com,mailed
Otherside Games,229 N Main St,Edwardsville,IL,62025,USA,Midwest,(618) 692-5525,othersidegameshq@gmail.com,othersidegames.com,mailed
Hidden Gems Novelty & Collectibles,609 Market St,Metropolis,IL,62960,USA,Midwest,(618) 309-6041,hiddengemsnovelty@gmail.com,hiddengemsnovelty.com,mailed
First Aid Comics,1617 E 55th St,Chicago,IL,60615,USA,Midwest,(773) 752-6642,firstaidchicago@gmail.com,firstaidcomics.com,mailed
Amazing Fantasy Books & Comics,16649 Oak Park Ave A,Tinley Park,IL,60477,USA,Midwest,(708) 633-0837,contact_us@afbooks.com,afbooks.com,mailed
Midgard Comics,430 W Lincoln Ave,Charleston,IL,61920,USA,Midwest,(217) 348-8368,megohead@consolidated.net,midgardcomics.com,mailed
Aw Yeah Comics,7925 Lincoln Ave,Skokie,IL,60077,USA,Midwest,(847) 423-2916,info@awyeahcomics.com,awyeahcomics.com,mailed
Castle Perilous Games & Books,207 W Main St,Carbondale,IL,62901,USA,Midwest,(618) 529-5317,castleperilousgames@gmail.com,castleperilousgames.com,mailed
